<?xml version="1.0" encoding="UTF-8"?>
<kml xmlns="http://www.opengis.net/kml/2.2" xmlns:gx="http://www.google.com/kml/ext/2.2" xmlns:kml="http://www.opengis.net/kml/2.2" xmlns:atom="http://www.w3.org/2005/Atom">
<Placemark>
	<name>track</name>
	<Style>
		<LineStyle>
			<color>ff0000ff</color>
			<width>4</width>
		</LineStyle>
	</Style>
	<MultiGeometry>
		<LineString>
			<coordinates>
				13.65957797504961,54.57286801189184,96.75 13.659578980878,54.57284303382039,101.08 13.65965701639652,54.57284102216363,103.96 13.65969297476113,54.57284001633525,105.4 13.65987502969801,54.57292500883341,108.77 13.66003696806729,54.57296499051154,111.65 13.66019496694207,54.57303497940302,115.01 13.66035799495876,54.57300396636128,117.42 13.66057097911835,54.57296901382506,118.86 13.66082897409797,54.57290397025645,118.38 13.66100298240781,54.5728599652648,116.94 13.66173597984016,54.57291997969151,117.9 13.6618219781667,54.57299801521003,116.94 13.6621639598161,54.57308300770819,116.46 13.66219497285783,54.57311502657831,116.46 13.66210796870291,54.57314201630652,116.94 13.66206597536802,54.57314897328615,116.94 13.66214803420007,54.57321502268314,116.46 13.66210302338004,54.57309801131487,115.98 13.66211098618805,54.57310102880001,115.98 13.66221098229289,54.57308803685009,115.98 13.66216002032161,54.57310002297163,116.46 13.66213697008789,54.57311402074993,116.46 13.66211299784482,54.57311301492155,116.46 13.66205398924649,54.57312097772956,116.46 13.66197201423347,54.57308099605143,116.46 13.66197796538472,54.5730690099299,116.46 13.66197695955634,54.57306498661637,116.46 13.66190101951361,54.57301402464509,118.38 13.66182801313698,54.57297001965344,118.38 13.66160899400711,54.57289097830653,115.5 13.66149801760912,54.57285501994193,115.5 13.66144898347557,54.57283901050687,115.5 13.66114396601915,54.57281302660704,115.98 13.660947997123,54.57286197692156,116.46 13.66069301962852,54.57293800078332,118.38 13.66053099744022,54.57299600355327,117.9 13.66031700745225,54.57301402464509,117.9 13.66026403382421,54.57301603630185,117.9 13.66007703356445,54.57297496497631,118.38 13.65982297807932,54.57291696220636,117.9 13.65974301472306,54.57290899939835,117.9 13.65959297865629,54.57289298996329,117.9 13.65954603999853,54.57287597469985,117.9 13.65951703861356,54.57285895943642,117.9 13.65937597118318,54.57276902161539,117.42 13.65935903973877,54.57275401800871,117.42 13.65935300476849,54.57274496555328,117.9 13.65943799726665,54.57278000190854,117.42 13.65953899919987,54.57280799746513,117.42 13.65953598171473,54.57281202077866,117.42 13.65941100753844,54.57283398136497,116.94 13.65942500531673,54.57281000912189,116.94 13.65942299365997,54.5727909822017,116.94 13.6594270169735,54.57276600413024,116.94 13.65941000171006,54.57274597138166,116.46 13.65940203890204,54.57275100052357,115.98 13.65940203890204,54.57275100052357,116.46 13.65942802280188,54.57261496223509,114.53 13.65944998338819,54.57248998805881,112.61 13.65947496145964,54.57234296947718,110.69 13.6595890391618,54.57233802415431,110.21 13.65979196503758,54.57232302054763,110.21 13.65993596613407,54.57229401916265,110.21 13.66022002883255,54.57221598364413,109.73 13.66020200774074,54.57218203693628,109.25 13.66011098027229,54.57213995978236,109.25 13.65992900915444,54.57205597311258,108.29 13.65988802164793,54.57203904166818,108.29 13.65976799279451,54.571991013363,107.32 13.65970999002457,54.57195798866451,107.32 13.65964000113308,54.57191599532962,106.84 13.65964000113308,54.57191599532962,107.32 13.65972398780286,54.5719360280782,107.81 13.65974200889468,54.57194801419973,107.81 13.65974200889468,54.57194801419973,107.32 13.65990897640586,54.57199696451426,107.81 13.66001500748098,54.57204298116267,108.77 13.66022204048932,54.57218497060239,109.73 13.66023503243923,54.57220198586583,109.73 13.66058598272502,54.57213199697435,106.84 13.6608240287751,54.57207097671926,103.96 13.66099996492267,54.57203401252627,101.56 13.66121102124453,54.57199403084815,99.15000000000001 13.66145996376872,54.57194399088621,95.31 13.66158401593566,54.57184500060976,93.87 13.66165702231228,54.57175397314131,93.87 13.66167102009058,54.57180300727487,93.87 13.66167102009058,54.57180300727487,93.87 13.66166003979743,54.57176696509123,95.31 13.66165903396904,54.57175196148455,97.70999999999998 13.66168803535402,54.57152699120343,101.08 13.66171603091061,54.5714679826051,102.52 13.66179800592363,54.57140696235001,104.92 13.66183698177338,54.57138198427856,105.88 13.66196799091995,54.57131501287222,108.29 13.6622020136565,54.57121803425252,109.73 13.66248096339405,54.57115701399744,109.25 13.66266000084579,54.57108300179243,109.25 13.66278698667884,54.57097101956606,109.73 13.66283903829753,54.57089700736105,112.61 13.66296702995896,54.57090798765421,114.05 13.66324899718165,54.57091997377574,114.05 13.66351000964642,54.5709359832108,113.57 13.66379499435425,54.5709600392729,114.05 13.66387403570116,54.57097797654569,115.01 13.66387001238763,54.57097797654569,114.53 13.66388602182269,54.57096699625254,114.05 13.66390102542937,54.57097101956606,113.57 13.66390102542937,54.57097101956606,112.61 13.6642190348357,54.57105500623584,112.61 13.66443797014654,54.57107797265053,113.57 13.6647040117532,54.57104100845754,113.57 13.66482798010111,54.57096297293901,112.13 13.66500500589609,54.57090999931097,110.21 13.66510299034417,54.57088703289628,108.77 13.66514498367906,54.5708860270679,108.77 13.66526702418923,54.57086599431932,109.25 13.66532301530242,54.5708720292896,108.77 13.66532796062529,54.5708720292896,109.25 13.66532997228205,54.57087102346122,107.81 13.66532997228205,54.57087102346122,108.29 13.66534296423197,54.57086800597608,110.21 13.66534397006035,54.57086800597608,109.25 13.66541001945734,54.570880997926,108.77 13.66561403498054,54.57085702568293,107.32 13.66567002609372,54.57084998488426,107.32 13.66566902026534,54.5708479732275,107.32 13.66566902026534,54.57084897905588,107.32 13.66568997502327,54.57083196379244,106.84 13.66568997502327,54.57083196379244,106.84 13.66568997502327,54.57083196379244,107.32 13.66571101360023,54.57082802429795,106.84 13.66570699028671,54.57082601264119,106.36 13.66570699028671,54.57082601264119,104.92 13.6656660027802,54.57081897184253,102.04 13.66562803275883,54.57069399766624,99.15000000000001 13.66565996780992,54.57058000378311,95.79000000000001 13.66573096252978,54.5704319793731,93.39 13.66582903079689,54.57036500796676,92.42 13.66583598777652,54.57033801823854,90.98 13.66580799221992,54.57030599936843,90.5 13.66581302136183,54.57020902074873,87.62 13.66582198999822,54.57019301131368,84.25 13.66578896529973,54.56988003104925,80.89 13.66569600999355,54.56967601552606,79.45 13.66569299250841,54.56966897472739,78.97 13.66569802165031,54.56966201774776,78.48 13.66573699750006,54.56964299082756,77.52 13.66577203385532,54.56962496973574,76.56 13.6659440305084,54.56951198168099,76.56 13.66613798774779,54.56948599778116,76.56 13.66641098633409,54.56938097253442,76.08 13.66654702462256,54.56919900141656,78.48 13.6666190251708,54.56916203722358,78.48 13.66688397713006,54.56913001835346,78.48 13.66691499017179,54.5691229775548,78.48 13.66709000431001,54.56907201558352,78.48 13.66731396876276,54.56904402002692,77.52 13.6673999670893,54.56901501864195,76.08 13.66765603423119,54.56900596618652,76.08 13.66808200255036,54.56894997507334,74.16 13.66831300780177,54.56879801116884,73.68000000000001 13.66837402805686,54.56877102144063,74.16 13.66859497502446,54.56866398453712,75.12 13.66856496781111,54.56863900646567,74.64 13.66856496781111,54.56863900646567,74.64 13.66847301833332,54.56853498704731,71.76000000000001 13.66836296394467,54.56843197345734,71.76000000000001 13.66836195811629,54.56815604120493,72.72 13.66848399862647,54.56794800236821,75.12 13.66854703053832,54.56779402680695,77.04000000000001 13.66854703053832,54.56779402680695,74.64 13.66855097003281,54.56779100932181,74.16 13.6685789655894,54.56775203347206,74.16 13.66881198249757,54.56743301823735,74.16 13.66893100552261,54.56725900992751,73.68000000000001 13.66908397525549,54.56713302992284,73.2 13.66934398189187,54.56696396693587,73.2 13.66959703154862,54.56683396361768,73.68000000000001 13.66975603625178,54.56674301996827,73.68000000000001 13.67007999680936,54.56666397862136,75.12 13.67053898982704,54.56658200360835,76.08 13.67088097147644,54.56657001748681,78 13.67125899530947,54.56652601249516,79.45 13.67148203775287,54.56643196754158,79.93000000000001 13.67175595834851,54.56631797365844,81.37 13.67191496305168,54.56620096229017,82.81 13.67195301689208,54.5661769900471,83.29000000000001 13.67195301689208,54.5661769900471,83.77 13.672040021047,54.56602795980871,83.77 13.67232098244131,54.56591899506748,84.25 13.67267796769738,54.56581003032625,84.25 13.67279397323728,54.56570399925113,82.81 13.67292699404061,54.56555396318436,79.45 13.67293998599052,54.56554197706282,76.56 13.6729880142957,54.56548699177802,75.12 13.67305599153042,54.56538397818804,72.72 13.67313302122056,54.56530502066016,70.31 13.673194963485,54.56515900790691,66.47 13.67323796264827,54.56507200375199,65.03 13.67324902676046,54.56501601263881,64.06999999999999 13.6732470151037,54.56498801708221,63.58 13.67325799539685,54.56489296630025,60.7 13.67325003258884,54.56483697518706,60.22 13.6732229590416,54.56468400545418,57.82 13.67323603481054,54.56464796327055,56.86 13.67333401925862,54.56454796716571,56.37 13.67341297678649,54.56445601768792,56.86 13.67346896789968,54.56438996829093,57.34 13.67382997646928,54.56424001604319,58.78 13.67397096008062,54.56422702409327,58.78 13.67432501167059,54.56418201327324,59.25999999999999 13.67459398694336,54.56406701356173,59.73999999999999 13.67484100162983,54.56402200274169,60.22 13.67511198855937,54.56397003494203,60.7 13.67535497993231,54.56392996944487,63.09999999999999 13.6755869910121,54.56384598277509,65.98999999999999 13.67567902430892,54.56377197057009,66.95 13.67571900598705,54.56370097585022,67.43000000000001 13.67591103538871,54.56349402666092,66.95 13.67590298876166,54.56336603499949,67.43000000000001 13.6759149748832,54.56318599171937,67.43000000000001 13.67605101317167,54.5631149969995,67.43000000000001 13.67613499984145,54.5630650408566,67.43000000000001 13.67654898203909,54.56290201283991,66.95 13.67688601836562,54.56280201673508,66.47 13.67707503028214,54.56270101480186,66.47 13.67727401666343,54.56256598234177,68.39 13.67731902748346,54.56243899650872,68.87 13.67746302857995,54.56225099042058,68.87 13.67762899026275,54.56217002123594,67.91 13.67770803160965,54.56209399737418,67.91 13.67773300968111,54.56195301376283,67.43000000000001 13.67770903743804,54.5619130320847,66.47 13.67770903743804,54.5619130320847,65.03 13.67763401940465,54.56183801405132,62.61999999999999 13.67748197168112,54.5617179851979,61.18 13.67723504081368,54.56138296052814,58.3 13.67719698697329,54.56111599691212,55.41 13.67715599946678,54.56098398193717,53.01 13.67713496088982,54.56085196696222,49.65 13.67715599946678,54.56080896779895,48.67999999999999 13.67714501917362,54.56069396808743,46.28 13.67713202722371,54.56060302443802,44.36 13.6771600227803,54.5604969933629,41.95 13.67716697975993,54.56048601306975,41.47 13.67718801833689,54.56038098782301,40.03 13.67723302915692,54.56036497838795,40.03 13.67733201943338,54.56030898727477,38.59 13.67740795947611,54.56021301448345,37.15 13.67741500027478,54.56020597368479,37.15 13.67744802497327,54.56019197590649,37.15 13.67741298861802,54.5602659881115,37.15 13.67740401998162,54.56025400198996,36.67 13.6773809697479,54.56026900559664,36.19 13.67742002941668,54.5603260025382,37.15 13.67742002941668,54.5603260025382,37.63 13.67742396891117,54.56034301780164,37.63 13.6774190235883,54.56033899448812,38.59 13.6773500405252,54.56030203029513,36.67 13.67730201222003,54.56021301448345,37.15 13.67729103192687,54.56018602475524,36.67 13.67726395837963,54.5601639803499,36.67 13.67714996449649,54.56014403142035,37.63 13.67689196951687,54.56009902060032,37.63 13.67680395953357,54.56002199091017,37.15 13.67678702808917,54.55998997204006,37.15 13.67673195898533,54.55999399535358,37.15 13.67673195898533,54.55999399535358,37.15 13.67668602615595,54.55999500118196,37.63 13.67661503143609,54.55998402088881,35.71 13.6765730381012,54.55997496843338,33.3 13.67648100480437,54.55993498675525,36.19 13.676228960976,54.55974396318197,37.63 13.67621303535998,54.55970297567546,37.63 13.67621303535998,54.55970297567546,38.11 13.67624597623944,54.55954799428582,37.63 13.6762479878962,54.55954103730619,36.67 13.67627698928118,54.55951597541571,37.63 13.67639500647783,54.55944900400937,37.63 13.67651796899736,54.55941899679601,37.63 13.67659298703074,54.55937499180436,37.15 13.67656901478767,54.55937499180436,37.63 13.67654303088784,54.55935797654092,38.11 13.67657396011055,54.55936199985445,37.63 13.67693496868014,54.55951203592122,38.11 13.67665098980069,54.55953902564943,39.55 13.67655501700938,54.55932201817632,40.51 13.67644303478301,54.5593230240047,40.51 13.67621999233961,54.55920299515128,43.4 13.6760220117867,54.55907802097499,46.76 13.6760270409286,54.55904801376164,47.24 13.67602301761508,54.55903502181172,48.2 13.67599401623011,54.55891096964478,49.65 13.67590298876166,54.55874199047685,51.09 13.67595101706684,54.55864802934229,54.45 13.67587197571993,54.55859698355198,56.37 13.67586099542677,54.55859296023846,57.82 13.67587499320507,54.55859203822911,61.18 13.67583802901208,54.55851199105382,63.09999999999999 13.6758269648999,54.55847502686083,65.03 13.6759009771049,54.55843697302043,65.03 13.67591204121709,54.55840000882745,65.51000000000001 13.67589896544814,54.55839497968554,65.03 13.67590701207519,54.55823899246752,65.03 13.67604900151491,54.55807998776436,65.03 13.67609996348619,54.5580639783293,64.55 13.67632702924311,54.55795099027455,64.06999999999999 13.67636499926448,54.55786499194801,63.09999999999999 13.67639802396297,54.55778997391462,62.61999999999999 13.67646499536932,54.55771001055837,62.14 13.67657203227282,54.55758201889694,61.18 13.67659701034427,54.55722503364086,60.7 13.67659600451589,54.55718396231532,60.22 13.67659600451589,54.55718396231532,60.7 13.67656901478767,54.55725504085422,59.73999999999999 13.67660799063742,54.55724397674203,60.22 13.67659600451589,54.55724598839879,60.22 13.67659499868751,54.55724699422717,60.7 13.67659801617265,54.55724699422717,61.66 13.67656800895929,54.55719402059913,61.66 13.6764570325613,54.55713400617242,58.3 13.6764710303396,54.55711003392935,55.41 13.67648201063275,54.55709201283753,53.49 13.67578899487853,54.55779198557138,53.49 13.67565496824682,54.55775099806488,53.96999999999999 13.67555497214198,54.55744002945721,53.49 13.67544600740075,54.55707902088761,50.60999999999999 13.67556695826352,54.55663301981986,50.60999999999999 13.6756610032171,54.55645599402487,51.09 13.67554700933397,54.55623898655176,53.96999999999999 13.67547601461411,54.55617000348866,54.93 13.67523302324116,54.55607201904058,58.3 13.67511601187289,54.55606003291905,60.22 13.67502599023283,54.55606296658516,60.7 13.67483303882182,54.55604301765561,63.09999999999999 13.67506798356771,54.5557049755007,63.58 13.67502397857606,54.55560598522425,62.14 13.67497402243316,54.55554102547467,59.25999999999999 13.6749529838562,54.55552501603961,58.3 13.67471502162516,54.55507599748671,57.82 13.67455702275038,54.55476997420192,56.37 13.67502297274768,54.55493501387537,55.89 13.67513897828758,54.55490601249039,53.49 13.67525498382747,54.55473996698856,52.53 13.67531600408256,54.55470400862396,51.57 13.67542999796569,54.55466302111745,52.05 13.67548397742212,54.5545310061425,51.09 13.67546796798706,54.55451399087906,51.09 13.67547601461411,54.55433302558959,50.60999999999999 13.67546402849257,54.55417997203767,52.53 13.67546000517905,54.55395299009979,52.05 13.67544500157237,54.55394703894854,49.16 13.67544500157237,54.55394703894854,48.67999999999999 13.675407031551,54.55390797927976,46.28 13.67541499435902,54.55381804145873,43.88 13.67542597465217,54.55364696681499,40.98999999999999 13.67533603683114,54.55356700345874,37.63 13.67539403960109,54.55331697128713,36.67 13.67531600408256,54.55317799933255,35.23 13.6753139924258,54.55305595882237,33.78 13.67522296495736,54.55298798158765,31.86 13.67504904046655,54.55280299298465,28.02 13.67483303882182,54.55269796773791,24.65 13.67463598027825,54.55258497968316,20.81 13.67441000416875,54.55245598219335,21.29 13.67441000416875,54.55245598219335,20.32 13.67441000416875,54.55245598219335,21.77 13.67491400800645,54.55321001820266,21.77 13.67468702606857,54.55309300683439,23.21 13.67450698278844,54.55301899462938,25.13 13.67439600639045,54.55289896577597,28.5 13.6744540091604,54.55281799659133,31.38 13.67462097667158,54.55282696522772,34.74 13.67470697499812,54.55277097411454,37.63 13.67452701553702,54.55271095968783,40.03 13.6744540091604,54.55265999771655,42.92 13.67443699389696,54.55264298245311,44.84 13.67451603524387,54.55245598219335,47.24 13.6746389977634,54.55220703966916,49.16 13.67466397583485,54.55212799832225,51.09 13.67465903051198,54.55199397169054,50.60999999999999 13.67465198971331,54.55187603831291,51.57 13.67468400858343,54.55169800668955,54.45 13.67467696778476,54.55159700475633,55.89 13.67466900497675,54.5514830108732,58.3 13.67463396862149,54.55141997896135,58.78 13.67458602413535,54.55111797899008,61.18 13.67456297390163,54.5508630014956,63.58 13.67456900887191,54.55081296153367,63.58 13.67457496002316,54.55064197070897,64.55 13.67454696446657,54.5504969637841,65.51000000000001 13.67455098778009,54.55027299933136,65.98999999999999 13.67463799193501,54.55001802183688,66.95 13.67464796639979,54.54986304044724,67.91 13.67468199692667,54.54970202408731,68.39 13.67468702606857,54.54956296831369,68.39 13.67483002133667,54.5492759719491,67.43000000000001 13.67500302381814,54.54907204024494,65.98999999999999 13.67518298327923,54.54886400140822,64.55 13.67533997632563,54.54867398366332,63.09999999999999 13.67542798630893,54.54853501170874,59.73999999999999 13.67555597797036,54.54833996482193,58.3 13.67562102153897,54.54821700230241,57.82 13.67575395852327,54.54799898900092,56.86 13.67585403844714,54.5479310117662,57.34 13.67605595849454,54.54773403704166,58.78 13.67613801732659,54.54765097238123,60.22 13.67633700370789,54.54752096906304,61.66 13.6764380056411,54.5474349707365,61.66 13.67655702866614,54.54732097685337,63.09999999999999 13.67664897814393,54.54721796326339,64.55 13.67668996565044,54.54713196493685,66.95 13.67690202780068,54.54665897414088,69.34999999999999 13.67708701640368,54.54640299081802,70.31 13.67714501917362,54.54621498472989,71.27 13.67717796005309,54.54612102359533,72.23999999999999 13.67717796005309,54.54612102359533,72.23999999999999 13.67729497142136,54.5459740050137,72.23999999999999 13.67754500359297,54.54563696868718,71.27 13.6777610052377,54.54535701312125,69.83 13.6778820399195,54.54518903978169,68.87 13.67795496247709,54.54508401453495,67.91 13.67794398218393,54.54503900371492,67.43000000000001 13.67798798717558,54.54485602676868,68.39 13.67798899300396,54.54479902982712,68.87 13.67803702130914,54.54453801736236,68.39 13.6780749913305,54.54438898712397,66.95 13.67813198827207,54.5442299824208,66.47 13.678182028234,54.54406896606088,66.95 13.67836500518024,54.54369999468327,66.47 13.6784359999001,54.54332096502185,64.06999999999999 13.67840297520161,54.54312399029732,61.66 13.67837296798825,54.54294101335108,61.66 13.67833198048174,54.54282299615443,61.18 13.67821597494185,54.54255502671003,60.7 13.67822896689177,54.54241001978517,57.34 13.67828504182398,54.54229099676013,54.93 13.67843398824334,54.54215403646231,51.57 13.67853599600494,54.54205001704395,48.2 13.67849400267005,54.54198899678886,46.76 13.67846298962831,54.54189503565431,47.72 13.67838595993817,54.54174600541592,48.2 13.67826199159026,54.54165799543262,48.67999999999999 13.67806501686573,54.54143797047436,52.05 13.67783996276557,54.54125599935651,54.45 13.6779869813472,54.5410199649632,55.41 13.67820298299193,54.5408489741385,55.89 13.67845796048641,54.54066197387874,57.34 13.67847003042698,54.54051101580262,60.7 13.67848000489175,54.54039802774787,61.18 13.67850003764033,54.5403029769659,61.66 13.67851001210511,54.54017800278962,61.66 13.67852702736855,54.54010197892785,61.18 13.67851403541863,54.54008102416992,61.18 13.6782840359956,54.54005998559296,61.66 13.67797700688243,54.5399110391736,62.61999999999999 13.67778103798628,54.53972496092319,62.61999999999999 13.67768498137593,54.53959504142404,59.73999999999999 13.67755900137126,54.53945900313556,58.3 13.67751399055123,54.53940401785076,58.3 13.67731299251318,54.53930301591754,55.41 13.67711199447513,54.53922900371253,52.05 13.67688098922372,54.5391290076077,49.65 13.67678602226079,54.53901803120971,46.76 13.67693396285176,54.53854403458536,45.8 13.67691602557898,54.53836097382009,46.28 13.67682499811053,54.53829802572727,48.67999999999999 13.67682700976729,54.53822703100741,51.57 13.6767850164324,54.53811102546751,54.93 13.67679297924042,54.5380840357393,56.37 13.67673799395561,54.5379579719156,58.3 13.67666297592223,54.5378250349313,59.73999999999999 13.67656197398901,54.53773300163448,59.73999999999999 13.67664403282106,54.53764800913632,58.78 13.67662198841572,54.53761003911495,58.78 13.67667496204376,54.53748296946287,57.34 13.67695500142872,54.53706999309361,57.34 13.67697604000568,54.53696798533201,55.89 13.67701903916895,54.53687000088394,57.34 13.67695399560034,54.53681501559913,58.78 13.67708802223206,54.53669196926057,58.78 13.67710101418197,54.53668601810932,58.3 13.67723797447979,54.5365799870342,58.3 13.67728399112821,54.53655802644789,58.78 13.67742598056793,54.53643498010933,58.78 13.6776090413332,54.5363209862262,59.73999999999999 13.67782697081566,54.53627396374941,60.7 13.67795001715422,54.53624303452671,60.7 13.67795001715422,54.53624303452671,60.7 13.67788899689913,54.53618402592838,60.7 13.67805495858192,54.53607799485326,60.7 13.67767098359764,54.53615603037179,61.18 13.67747099138796,54.53597296960652,64.55 13.67729103192687,54.53584003262222,65.51000000000001 13.67713102139533,54.53569795936346,65.98999999999999 13.6772340349853,54.5355490129441,66.47 13.67721199057996,54.53554498963058,65.98999999999999 13.67720000445843,54.53551397658885,65.98999999999999 13.67746302857995,54.53536704182625,65.98999999999999 13.67758599109948,54.53532203100622,65.03 13.67773200385273,54.53515598550439,63.58 13.67785697802901,54.535080967471,64.06999999999999 13.67785798385739,54.53487100079656,63.09999999999999 13.67788899689913,54.53468601219356,60.22 13.67798103019595,54.53447202220559,56.86 13.67823399603367,54.53416398726404,53.49 13.67847799323499,54.53387497924268,50.60999999999999 13.67847799323499,54.53387497924268,50.13 13.67775396443903,54.53395896591246,49.16 13.6777969636023,54.53388595953584,48.67999999999999 13.67780702188611,54.53391596674919,49.16 13.67779101245105,54.53383600339293,46.28 13.67778900079429,54.53371899202466,42.92 13.67778900079429,54.53367004171014,41.47 13.67778296582401,54.53309101983905,40.03 13.67769797332585,54.53302999958396,36.67 13.67776896804571,54.53293696045876,35.71 13.67778900079429,54.53281500376761,33.3 13.67766302078962,54.53273202292621,30.9 13.67743100970984,54.53263303264976,34.26 13.67746302857995,54.53250001184642,34.74 13.67746202275157,54.53238098882139,35.23 13.67737803608179,54.53227101825178,35.71 13.67745397612453,54.53207395970821,35.23 13.67738197557628,54.53192702494562,37.15 13.67732296697795,54.53183297999203,38.59 13.67721098475158,54.531669029966,39.55 13.67702700197697,54.53162795864046,39.07 13.6767939850688,54.53157096169889,37.15 13.67661301977932,54.5313820336014,36.19 13.67645502090454,54.53114801086485,36.19 13.67641101591289,54.53095396980643,37.63 13.67642601951957,54.53082002699375,39.55 13.67644999176264,54.53064501285553,40.98999999999999 13.67637497372925,54.5305809751153,41.47 13.67625402286649,54.5304979942739,40.98999999999999 13.67606702260673,54.53026900067925,42.92 13.67611496709287,54.53017696738243,41.47 13.67597599513829,54.53010303899646,41.47 13.67595696821809,54.53010203316808,42.92 13.67580701597035,54.53002198599279,41.47 13.67553703486919,54.52979098074138,41.95 13.67536998353899,54.52957003377378,42.92 13.67521097883582,54.52941396273673,41.47 13.67516697384417,54.52938102185726,41.47 13.67500998079777,54.52928203158081,40.51 13.67441796697676,54.52908799052238,38.59 13.67425401695073,54.52895899303257,38.11 13.67411403916776,54.5287679694593,37.63 13.67404396645725,54.5286519639194,36.67 13.67404396645725,54.5286519639194,36.67 13.67404296062887,54.52865296974778,36.19 13.67395402863622,54.52865095809102,36.67 13.67402804084122,54.52884902246296,38.59 13.67391798645258,54.52890995889902,34.74 13.67391798645258,54.52887601219118,34.26 13.67367197759449,54.52878096140921,31.86 13.67325698956847,54.5286379661411,28.98 13.67321600206196,54.52848298475146,28.02 13.67329202592373,54.52837502583861,28.02 13.67325003258884,54.52847401611507,28.98 13.67315297015011,54.52851500362158,29.46 13.67283898405731,54.52847703360021,29.94 13.67293202318251,54.52810202725232,31.38 13.67295197211206,54.52808802947402,31.38 13.67202401161194,54.52764797955751,32.34 13.67185997776687,54.52763599343598,31.86 13.67164196446538,54.52766901813447,33.3 13.67188403382897,54.5273070037365,32.34 13.67182896472514,54.52709997072816,31.86 13.67102698422968,54.52724799513817,34.26 13.6708689853549,54.52749702148139,32.82 13.67122798226774,54.5275570359081,31.38 13.67143199779093,54.52746701426804,30.9 13.6715910024941,54.52750498428941,30.9 13.67203700356185,54.52754898928106,30.9 13.67198101244867,54.52754002064466,30.9 13.67192803882062,54.52755804173648,31.38 13.67190398275852,54.52756097540259,32.82 13.67199501022696,54.52743298374116,33.3 13.6719240155071,54.5273619890213,35.23 13.67161899805069,54.52719896100461,36.19 13.67154196836054,54.52707700431347,35.23 13.67153903469443,54.52705697156489,35.23 13.6714250408113,54.52689000405371,37.15 13.67142898030579,54.52689696103334,37.15 13.6714060138911,54.5268249604851,38.11 13.67147801443934,54.52678497880697,40.98999999999999 13.67152503691614,54.52671498991549,41.95 13.6718029808253,54.52633000910282,44.36 13.67186299525201,54.52626303769648,43.88 13.67058701813221,54.52630000188947,42.92 13.67046900093555,54.52624996192753,41.95 13.67041803896427,54.52630301937461,42.44 13.67019097320735,54.52649303711951,40.51 13.67008100263774,54.5265659596771,37.15 13.67006901651621,54.52657400630414,37.15 13.67065197788179,54.52580697834492,36.67 13.67076496593654,54.52552400529385,38.59 13.67067703977227,54.52542903833091,36.67 13.67007002234459,54.52542702667415,34.26 13.66993197239935,54.52537103556097,31.86 13.66971798241138,54.52519199810922,29.46 13.66977296769619,54.52517800033092,29.94 13.66977296769619,54.52517800033092,29.46 13.66965997964144,54.52533599920571,28.02 13.66951597854495,54.5253690239042,29.46 13.66951597854495,54.5253690239042,30.9 13.66950801573694,54.52535795979202,32.82 13.66906796582043,54.52437099069357,32.82 13.66874098777771,54.52418298460543,33.3 13.66875096224248,54.52399397268891,34.26 13.66861500777304,54.52387101016939,34.74 13.6685430072248,54.52380303293467,34.74 13.6685290094465,54.52377000823617,35.23 13.66837503388524,54.52358703128994,37.63 13.66823296062648,54.52345300465822,39.07 13.66818099282682,54.52335200272501,40.51 13.66820203140378,54.52318201772869,40.51 13.66828501224518,54.52297699637711,40.03 13.66831401363015,54.52284900471568,39.07 13.66823698394001,54.52282503247261,36.67 13.66812198422849,54.5225699711591,35.23 13.66804000921547,54.52253895811737,32.82 13.66790799424052,54.52249897643924,31.38 13.66746098734438,54.52235698699951,29.94 13.66734799928963,54.5222800411284,25.13 13.66731497459114,54.52227400615811,26.09 13.66718899458647,54.5221730042249,25.13 13.66715395823121,54.5220659673214,18.88 13.6671459954232,54.52205297537148,24.65 13.66713803261518,54.52203998342156,19.84 13.66713400930166,54.52203000895679,24.17 13.66713803261518,54.5219880156219,24.65 13.66713996045291,54.52197100035846,25.61 13.66713602095842,54.52192096039653,24.17 13.667126968503,54.52189397066832,16.96 13.66711598820984,54.52188299037516,20.81 13.66709000431001,54.52186396345496,23.21 13.66707902401686,54.52179397456348,22.73 13.66699201986194,54.52167796902359,22.73 13.66691599600017,54.52161200344563,22.73 13.6667849868536,54.5215720217675,22.25 13.66677802987397,54.52154897153378,22.25 13.66679202765226,54.52149599790573,23.21 13.66682698018849,54.52135903760791,23.69 13.6667709890753,54.52123397961259,24.65 13.66667702794075,54.52116499654949,24.65 13.66653696633875,54.52109098434448,25.61 13.66647804155946,54.5210019685328,25.13 13.6664760299027,54.52099098823965,24.65 13.66656999103725,54.52095301821828,23.21 13.66663503460586,54.52094295993447,22.25 13.66689001210034,54.52091102488339,19.84 13.66692303679883,54.52090599574149,19.36 13.6670490168035,54.52087800018489,17.92 13.66708296351135,54.52086299657822,12.15 13.66709101013839,54.52086199074984,16 13.66715303622186,54.52084003016353,13.12 13.66719502955675,54.52081999741495,11.67 13.66734598763287,54.52076400630176,9.27 13.66741203702986,54.52066401019692,5.909999999999999 13.66747003979981,54.5205719769001,3.98 13.66749200038612,54.52052797190845,3.5 13.66739502176642,54.52047198079526,2.06 13.66735797375441,54.52048203907907,3.02 13.667126968503,54.52040400356054,2.54 13.66694600321352,54.52039604075253,1.58 13.66657200269401,54.52029596082866,1.1 13.66647100076079,54.52018297277391,0.62 13.66614301688969,54.52015799470246,1.1 13.66608601994812,54.52012899331748,1.1 13.66611703298986,54.52012899331748,1.1 13.66599096916616,54.52008398249745,2.06 13.66583498194814,54.52004400081933,1.58 13.66562996059656,54.52003603801131,1.58 13.66545896977186,54.51993796974421,1.1 13.66544597782195,54.51991902664304,1.58 13.66533701308072,54.51977200806141,0.14 13.66533701308072,54.51977301388979,-0.34 13.66532997228205,54.51979698613286,0.62 13.66513500921428,54.51971400529146,-0.34 13.66506300866604,54.5196620374918,0.62 13.66501196287572,54.5196099858731,1.1 13.66469403728843,54.51951501891017,1.1 13.66449102759361,54.51948300004005,2.06 13.66404502652586,54.51928099617362,1.58 13.6639909632504,54.51926196925342,1.58 13.66387504152954,54.5192680042237,1.58 13.66380304098129,54.51921100728214,2.06 13.66366398520768,54.51921402476728,1.58 13.66363096050918,54.51919801533222,1.58 13.66357798688114,54.51917798258364,1.1 13.66349098272622,54.51909801922739,-0.82 13.66334798745811,54.51905703172088,0.62 13.66322100162506,54.51903599314392,1.1 13.66301204077899,54.51892803423107,1.58 13.66282696835697,54.51889199204743,1.1 13.6627940274775,54.51887799426913,0.62 13.6624800413847,54.51892904005945,1.1 13.66240804083645,54.51896600425243,1.1 13.66200503893197,54.51892501674592,1.58 13.66188601590693,54.51882300898433,2.06 13.66175701841712,54.51880096457899,3.02 13.66143699735403,54.51873600482941,3.5 13.66138704121113,54.51874597929418,2.54 13.66143900901079,54.518948988989,2.54 13.66135703399777,54.51870197430253,2.54 13.66157898679376,54.51834096573293,2.54 13.65940899588168,54.51787501573563,2.54 13.65924999117851,54.51777501963079,3.02 13.65914597176015,54.51770503073931,2.54 13.65906500257552,54.51766798272729,2.06 13.65890901535749,54.51759698800743,2.54 13.65887498483062,54.51758198440075,2.06 13.65882402285933,54.51752196997404,2.54 13.65860399790108,54.51700799167156,2.54 13.65801902487874,54.51712097972631,2.54 13.65792900323868,54.51710497029126,2.54 13.65779698826373,54.51705400831997,3.5 13.65771803073585,54.51704696752131,3.5 13.65763303823769,54.51704302802682,3.5 13.65743698552251,54.51700204052031,3.5 13.65723095834255,54.51694697141647,3.5 13.65715996362269,54.51691101305187,3.02 13.65688696503639,54.51681202277541,3.5 13.65680297836661,54.51680297031999,3.5 13.65673500113189,54.51679500751197,3.5 13.65661698393524,54.51677799224854,3.5 13.65657700225711,54.51678201556206,3.5 13.65643199533224,54.51673398725688,3.5 13.65638799034059,54.51673599891365,3.98 13.6560729984194,54.51668797060847,3.98 13.65593302063644,54.51669601723552,3.98 13.65577200427651,54.51671102084219,3.5 13.65552398376167,54.51670398004353,3.98 13.65543396212161,54.51671202667058,3.5 13.65500698797405,54.51667699031532,3.98 13.65490799769759,54.51664103195071,3.5 13.65459803491831,54.51642896980047,3.98 13.65388599224389,54.51659803278744,3.98 13.65343202836812,54.51632997952402,3.98 13.65316598676145,54.51620198786259,3.98 13.65295400843024,54.51603401452303,3.5 13.65273096598685,54.51594399288297,3.02 13.65265603177249,54.5159009937197,3.5 13.65221296437085,54.51566202566028,3.5 13.6517579946667,54.51530302874744,2.54 13.65160200744867,54.51527302153409,3.02 13.65133697167039,54.5152030326426,3.02 13.65112700499594,54.51509901322424,3.02 13.65096095949411,54.51520697213709,3.02 13.65044597536325,54.5152479596436,3.02 13.65037003532052,54.5152310281992,6.87 13.65035402588546,54.51522901654243,3.02 13.65026199258864,54.51520697213709,2.54 13.64998497068882,54.51516699045897,3.02 13.64995404146612,54.51513497158885,3.02 13.64992797374725,54.5149580296129,2.54 13.64964097738266,54.51475895941257,2.54 13.64956302568316,54.5146850310266,2.06 13.64966101013124,54.5145639963448,1.58 13.64968699403107,54.51421799138188,3.02 13.64965899847448,54.51403400860727,2.54 13.64958599209785,54.51400098390877,2.54 13.64959898404777,54.51412201859057,2.54 13.64834999665618,54.51481897383928,2.06 13.64863498136401,54.5149720273912,2.06 13.64882600493729,54.5150130148977,2.06 13.64897302351892,54.51514402404428,1.58 13.64855702966452,54.51506297104061,1.58 13.64855401217937,54.51506598852575,1.58 13.64836902357638,54.51499499380589,1.58 13.6480400338769,54.51495903544128,1.58 13.64766201004386,54.51495501212776,2.06 13.64728096872568,54.51496096327901,2.54 13.64721802063286,54.51494696550071,-0.34 13.64719597622752,54.51494202017784,2.54 13.6471419967711,54.51492198742926,1.1 13.64748498424888,54.51489600352943,2.54 13.64762898534536,54.51488401740789,3.02 13.64730200730264,54.51414599083364,2.06 13.64702196791768,54.51418002136052,2.06 13.64658602513373,54.51418798416853,2.54 13.64647697657347,54.51418697834015,2.54 13.64631000906229,54.51425202190876,2.54 13.64613097161055,54.51424900442362,2.54 13.64607498049736,54.5142169855535,2.54 13.64593399688601,54.51419502496719,2.54 13.64584196358919,54.51418597251177,2.54 13.64559796638787,54.5140599925071,2.54 13.64553401246667,54.51406803913414,2.06 13.64520301111042,54.51403300277889,2.54 13.64509102888405,54.51401799917221,2.54 13.6450279969722,54.5139960385859,2.54 13.64490604028106,54.51397097669542,2.54 13.64475399255753,54.51392403803766,2.54 13.64462097175419,54.51390098780394,2.06 13.64457696676254,54.51390501111746,2.54 13.64447303116322,54.51390702277422,3.5 13.64444000646472,54.51395899057388,3.02 13.64446096122265,54.51398497447371,3.02 13.64434897899628,54.51383502222598,3.02 13.64422802813351,54.51379202306271,3.02 13.64399299956858,54.51375598087907,3.02 13.64381697960198,54.51372102834284,2.54 13.64356300793588,54.51368196867406,2.54 13.64349000155926,54.51360996812582,3.02 13.64349100738764,54.51359102502465,3.5 13.64353300072253,54.51357702724636,3.5 13.64346200600266,54.51348298229277,3.02 13.64340903237462,54.51345599256456,3.5 13.64335798658431,54.51348298229277,2.54 13.64369401708245,54.51334099285305,2.54 13.64351196214557,54.5132639631629,3.5 13.64326402544975,54.51338902115822,3.02 13.6431129835546,54.51333202421665,3.02 13.64281098358333,54.51319900341332,3.02 13.64258802495897,54.51301896013319,3.02 13.64226297475398,54.51283103786409,3.02 13.64222802221775,54.51264403760433,3.5 13.64225501194596,54.51266096904874,3.02 13.64220002666116,54.5126680098474,3.02 13.64220798946917,54.51266398653388,3.02 13.64199802279472,54.51265602372587,3.02 13.64172200672328,54.51249601319432,3.02 13.64166299812496,54.51242996379733,3.02 13.64165000617504,54.51238595880568,3.02 13.64158496260643,54.51222301460803,3.02 13.64155797287822,54.5121999643743,3.98 13.64151899702847,54.51219703070819,3.02 13.64162703976035,54.51217599213123,2.06 13.64162703976035,54.51217599213123,2.06 13.64163701422513,54.51217297464609,2.54 13.64166702143848,54.51215403154492,2.06 13.6416609864682,54.51215595938265,2.54 13.6416609864682,54.51215595938265,2.06 13.64178998395801,54.51205797493458,3.98 13.64173902198672,54.51211002655327,3.5 13.6418420355767,54.51241998933256,3.02 13.64181999117136,54.51251696795225,2.54 13.64189299754798,54.51262501068413,3.5 13.64217697642744,54.5127010345459,3.5 
			</coordinates>
		</LineString>
	</MultiGeometry>
	<atom:link rel="app" href="https://www.google.com/earth/about/versions/#earth-pro" title="Google Earth Pro 7.3.7.1155"></atom:link>
</Placemark>
</kml>
