<?xml version="1.0" encoding="UTF-8"?>
<kml xmlns="http://www.opengis.net/kml/2.2" xmlns:gx="http://www.google.com/kml/ext/2.2" xmlns:kml="http://www.opengis.net/kml/2.2" xmlns:atom="http://www.w3.org/2005/Atom">
<Placemark>
	<name>Track</name>
	<Style>
		<LineStyle>
			<color>ff0000ff</color>
			<width>3</width>
		</LineStyle>
	</Style>
	<LineString>
		<tessellate>1</tessellate>
		<coordinates>
			-70.18208814784884,42.04955893568695,0 -70.18348381854594,42.05067900940776,0 -70.18359982408583,42.05066920258105,0 -70.18360736779869,42.05074715428054,0 -70.18352623097599,42.05069283954799,0 -70.18357953988016,42.05065587535501,0 -70.18464270047843,42.05122182145715,0 -70.18510890193284,42.05134905874729,0 -70.1855544000864,42.05169137567282,0 -70.18568222410977,42.05169120803475,0 -70.18539204262197,42.05166907981038,0 -70.18557979725301,42.05188985913992,0 -70.18574626185,42.05174116417766,0 -70.18701402470469,42.05118988640606,0 -70.18792203627527,42.05034205690026,0 -70.18833543173969,42.04981802031398,0 -70.18832864239812,42.04969631507993,0 -70.18830592744052,42.04976554960012,0 -70.18825949169695,42.04971542581916,0 -70.18830936402082,42.0498117338866,0 -70.18838480114937,42.04974149353802,0 -70.18832998350263,42.04963579773903,0 -70.1881914306432,42.04978977330029,0 -70.18836158327758,42.04961861483753,0 -70.18813686445355,42.04964895732701,0 -70.18769094720483,42.04941049218178,0 -70.18826820887625,42.04971123486757,0 -70.18832587637007,42.04955725930631,0 -70.18764266744256,42.04925584606826,0 -70.18772405572236,42.0493991766125,0 -70.18838890828192,42.04973101615906,0 -70.18877908587456,42.04936464317143,0 -70.18948928453028,42.04815127886832,0 -70.19035094417632,42.0473163574934,0 -70.19075252115726,42.04679022543132,0 -70.19206328317523,42.04565229825675,0 -70.19219010137022,42.04538902267814,0 -70.19250090233982,42.04511233605444,0 -70.19192959181964,42.04475258477032,0 -70.19183730706573,42.04458720982075,0 -70.1931042317301,42.0425880420953,0 -70.19482185132802,42.04049784690142,0 -70.19507967866957,42.04009098932147,0 -70.19535343162715,42.0390410721302,0 -70.19651642069221,42.03741590492427,0 -70.19681422971189,42.03718489967287,0 -70.19679620862007,42.03688482753932,0 -70.19668020308018,42.03686571680009,0 -70.19673652946949,42.03678600490093,0 -70.19661918282509,42.03644528053701,0 -70.19325594417751,42.02755618840456,0 -70.19159825518727,42.02569087967277,0 -70.18727260641754,42.02291026711464,0 -70.18714721314609,42.02264908701181,0 -70.18682090565562,42.02252830378711,0 -70.18589755520225,42.02187862247229,0 -70.1855958905071,42.02140085399151,0 -70.18547644838691,42.020802218467,0 -70.18496230244637,42.02031497843564,0 -70.18471377901733,42.02037340030074,0 -70.18451772630215,42.02032662928104,0 -70.18446760252118,42.0202046725899,0 -70.1846481487155,42.0204100292176,0 -70.18473146483302,42.02038220129907,0 -70.18450104631484,42.02034565620124,0 -70.18440465442836,42.02019872143865,0 -70.18476574681699,42.02001272700727,0 -70.18576436676085,42.01987425796688,0 -70.1862571388483,42.01966906897724,0 -70.18672216683626,42.01972388662398,0 -70.18781743012369,42.01954635791481,0 -70.19026410765946,42.01977082528174,0 -70.1904016546905,42.01971525326371,0 -70.19142407923937,42.01991750858724,0 -70.19187603145838,42.02019805088639,0 -70.19227232784033,42.02010040171444,0 -70.19294413737953,42.02039871364832,0 -70.19336826168001,42.02044498175383,0 -70.19354998134077,42.02074907720089,0 -70.19340547733009,42.02097496949136,0 -70.19354889169335,42.02107513323426,0 -70.19371560774744,42.02082904055715,0 -70.19387184642255,42.02079526148736,0 -70.19472093321383,42.02109650708735,0 -70.19596581347287,42.02181089669466,0 -70.19709485583007,42.02265864238143,0 -70.19709720276296,42.02280851081014,0 -70.19728722050786,42.02284254133701,0 -70.19913031719625,42.02397627756,0 -70.20006355829537,42.02477507293224,0 -70.20026497542858,42.02506232075393,0 -70.20082999952137,42.02537756413221,0 -70.20160607993603,42.02614375390112,0 -70.20344356074929,42.02754688449204,0 -70.20360482856631,42.02777177095413,0 -70.20343501120806,42.02797000296414,0 -70.20360575057566,42.02790395356715,0 -70.20416876301169,42.02824685722589,0 -70.20411402918398,42.02838096767664,0 -70.20494719035923,42.02879168093204,0 -70.20572301931679,42.02946642413735,0 -70.20576593466103,42.02959818765521,0 -70.20561925135553,42.0297176297754,0 -70.2057777531445,42.02962718904018,0 -70.2063271868974,42.02970178797841,0 -70.20692196674645,42.03017829917371,0 -70.20761615596712,42.03096846118569,0 -70.20829517394304,42.03135344199836,0 -70.20912590436637,42.03217294067144,0 -70.21056021563709,42.03365536406636,0 -70.21066465415061,42.03380892053246,0 -70.21057396195829,42.03387170098722,0 -70.21080697886646,42.03399918973446,0 -70.21127418614924,42.03484970144928,0 -70.21191607229412,42.03567741438746,0 -70.21196954883635,42.03564120456576,0 -70.21191850304604,42.03579283319414,0 -70.21235855296254,42.03653915785253,0 -70.21237246692181,42.03688960522413,0 -70.21267429925501,42.03759745694697,0 -70.21263088099658,42.03773944638669,0 -70.21290622651577,42.03812023624778,0 -70.21313002333045,42.03884200192988,0 -70.21363687701523,42.03980902209878,0 -70.21340696141124,42.04003524966538,0 -70.21336991339922,42.04020615667105,0 -70.21326052956283,42.04016072675586,0 -70.21349237300456,42.04000507481396,0 -70.21377358585596,42.04004128463566,0 -70.21424314007163,42.04047437757254,0 -70.21497077308595,42.04143083654344,0 -70.2148474752903,42.04230808652937,0 -70.21457715891302,42.04252324998379,0 -70.21641639992595,42.04354458488524,0 -70.21650055423379,42.04378405585885,0 -70.21632805466652,42.04401690512896,0 -70.2166105248034,42.04434933140874,0 -70.21620903164148,42.04440951347351,0 -70.21604768000543,42.0439369417727,0 -70.21484781056643,42.04274453222752,0 -70.21441698074341,42.04237069934607,0 -70.21443860605359,42.042449824512,0 -70.2143276296556,42.0424223318696,0 -70.21443818695843,42.04238218255341,0 -70.2143757417798,42.04245435073972,0 -70.21472660824656,42.04268904402852,0 -70.21499952301383,42.04276381060481,0 -70.21627591922879,42.04353402368724,0 -70.2168211620301,42.0441404543817,0 -70.21670272573829,42.04431412741542,0 -70.21655621007085,42.04428688623011,0 -70.21648990921676,42.0443772431463,0 -70.21664388477802,42.04436399973929,0 -70.21682577207685,42.04406954348087,0 -70.21733405068517,42.04396183602512,0 -70.21741451695561,42.04410466365516,0 -70.21732315421104,42.04419728368521,0 -70.21758064627647,42.04429996199906,0 -70.21795238368213,42.0446827635169,0 -70.21796939894557,42.04488359391689,0 -70.21863215602934,42.04550134018064,0 -70.21875629201531,42.04585790634155,0 -70.22119408473372,42.04883918166161,0 -70.22148828953505,42.04909323714674,0 -70.22149164229631,42.04931376501918,0 -70.2216842584312,42.04939146526158,0 -70.22198240272701,42.04982581548393,0 -70.22238842211664,42.05015623010695,0 -70.22234433330595,42.05040290951729,0 -70.22197661921382,42.05061379820108,0 -70.22173656150699,42.05089844763279,0 -70.22163488902152,42.05121285282075,0 -70.22135040722787,42.0513866096735,0 -70.2213229984045,42.05173638649285,0 -70.22118637338281,42.05197216942906,0 -70.21949909627438,42.05331050790846,0 -70.21930354647338,42.05355769023299,0 -70.21924889646471,42.0538508053869,0 -70.21932165138423,42.05407242290676,0 -70.21940547041595,42.0540392305702,0 -70.21964401938021,42.05423821695149,0 -70.22051758132875,42.05531386658549,0 -70.22054038010538,42.0554740447551,0 -70.22038724273443,42.05565643496811,0 -70.21972574293613,42.05586631782353,0 -70.21940764971077,42.05623403191566,0 -70.21935869939625,42.05635758116841,0 -70.21955416537821,42.05683518201113,0 -70.2194251678884,42.05700449645519,0 -70.2185601554811,42.05715143121779,0 -70.21753622218966,42.05768041312695,0 -70.21728023886681,42.05790672451258,0 -70.21739138290286,42.05840234644711,0 -70.21761509589851,42.05863343551755,0 -70.21795481443405,42.05947246402502,0 -70.21800736896694,42.06002659164369,0 -70.2178415749222,42.06022021360695,0 -70.21738467738032,42.06136233173311,0 -70.21713296882808,42.06123014912009,0 -70.21681026555598,42.0612227730453,0 -70.21664983592927,42.0617703627795,0 -70.21618749015033,42.06201268360019,0 -70.2161303255707,42.06233127973974,0 -70.21628899499774,42.06265792250633,0 -70.21621313877404,42.06279655918479,0 -70.21627399139106,42.06283578649163,0 -70.21609487012029,42.0628822222352,0 -70.21575129590929,42.06322822719812,0 -70.21550788544118,42.06402861513197,0 -70.21563202142715,42.06501374021173,0 -70.21556697785854,42.06525857560337,0 -70.21519809029996,42.06540592946112,0 -70.21436325274408,42.06531942822039,0 -70.21253775805235,42.06584447063506,0 -70.21234396845102,42.06610246561468,0 -70.21233399398625,42.06650990992785,0 -70.21241831593215,42.06661476753652,0 -70.21266407333314,42.06669280305505,0 -70.21369588561356,42.06654913723469,0 -70.21386235021055,42.06664318218827,0 -70.21385757252574,42.06674627959728,0 -70.21354543045163,42.06703193485737,0 -70.21289197728038,42.06727115437388,0 -70.21239995956421,42.06783743575215,0 -70.21128214895725,42.06833515316248,0 -70.21060086786747,42.06889171153307,0 -70.2103366702795,42.06929923966527,0 -70.21006400696933,42.06950484775007,0 -70.20990701392293,42.06992385908961,0 -70.20962328650057,42.07031051628292,0 -70.20940309390426,42.07046817988157,0 -70.20892566069961,42.07058678381145,0 -70.20895130932331,42.07078124396503,0 -70.20928122103214,42.07082348875701,0 -70.20943921990693,42.07105969078839,0 -70.20839709788561,42.07209787331522,0 -70.20776971243322,42.07214665599167,0 -70.20706688985229,42.07240833900869,0 -70.20713813602924,42.07258251495659,0 -70.20650085993111,42.07318735308945,0 -70.20647261291742,42.07364525645971,0 -70.20591127686203,42.07384767942131,0 -70.20557801239192,42.0738394651562,0 -70.2053791936487,42.07399562001228,0 -70.20519361831248,42.0739673729986,0 -70.20553836598992,42.07390467636287,0 -70.2056017331779,42.07379244267941,0 -70.206378987059,42.07393870688975,0 -70.20643338561058,42.07411137409508,0 -70.20669766701758,42.07425110042095,0 -70.20635048858821,42.07459132187068,0 -70.20635711029172,42.07482065074146,0 -70.20645475946367,42.07486599683762,0 -70.20799971185625,42.07478460855782,0 -70.20836910232902,42.07465510815382,0 -70.20856523886323,42.0744314789772,0 -70.20908047445118,42.07494227215648,0 -70.20934115163982,42.0755385607481,0 -70.21018738858402,42.07615949213505,0 -70.2107909694314,42.07622822374105,0 -70.21164030767977,42.07614163868129,0 -70.21176536567509,42.07566336728632,0 -70.21265066228807,42.07582597620785,0 -70.21293438971043,42.07600333727896,0 -70.21602312102914,42.07696164026856,0 -70.21648747846484,42.07702433690429,0 -70.21657833829522,42.07724100910127,0 -70.21801332011819,42.07796688191593,0 -70.21841020323336,42.07830676808953,0 -70.21835521794856,42.07908829674125,0 -70.21821331232786,42.07926029339433,0 -70.21872117184103,42.07957679405808,0 -70.21885511465371,42.08113205619156,0 -70.21902912296355,42.0813615527004,0 -70.21906038746238,42.08158157765865,0 -70.21883047185838,42.08158912137151,0 -70.21906114183366,42.08165969699621,0 -70.21891278214753,42.08115217275918,0 -70.21871505305171,42.08092820830643,0 -70.21870063617826,42.07951946184039,0 -70.21829503588378,42.07897178828716,0 -70.21826343610883,42.07821322605014,0 -70.21810493431985,42.07815094850957,0 -70.21789991296828,42.07787937484682,0 -70.21647641435266,42.07722022198141,0 -70.2163618337363,42.0769855286926,0 -70.21214573644102,42.0756799634546,0 -70.2117822971195,42.07568792626262,0 -70.21172228269279,42.07605857402086,0 -70.21032434888184,42.07613694481552,0 -70.2095789462328,42.07571022212505,0 -70.20895818248391,42.07471210509539,0 -70.20854847505689,42.07440859638155,0 -70.20813055336475,42.07468109205365,0 -70.20635493099689,42.07478988915682,0 -70.2063271868974,42.07460473291576,0 -70.2066242415458,42.07430608570576,0 -70.20663170143962,42.07416275516152,0 -70.2063977625221,42.07409980706871,0 -70.20627471618354,42.07393820397556,0 -70.20564800128341,42.07380727864802,0 -70.20551573485136,42.07339581102133,0 -70.20472406409681,42.07307193428278,0 -70.20489564165473,42.07302499562502,0 -70.20372963510454,42.07297973334789,0 -70.20317307673395,42.07310881465673,0 -70.2009220328182,42.07238059490919,0 -70.20051668398082,42.07202444784343,0 -70.19939065910876,42.07169218920171,0 -70.19859722815454,42.07118198275566,0 -70.19622850231826,42.07035033032298,0 -70.19581133499742,42.06998479552567,0 -70.19508923403919,42.06977197900414,0 -70.19437157548964,42.06882490776479,0 -70.19361779093742,42.06872834824026,0 -70.19366917200387,42.06842852756381,0 -70.19391853362322,42.06830975599587,0 -70.19391383975744,42.06819626502693,0 -70.19376480951905,42.06796333193779,0 -70.19339399412274,42.06786903552711,0 -70.1933135278523,42.06759067252278,0 -70.1933513302356,42.0674947835505,0 -70.1935138553381,42.06746444106102,0 -70.19324881955981,42.06730686128139,0 -70.19289510324597,42.06673278473318,0 -70.19274137914181,42.06580800935626,0 -70.19326407462358,42.06589166074991,0 -70.19368375651538,42.06566543318331,0 -70.19410184584558,42.06592661328614,0 -70.19475781358778,42.0661083329469,0 -70.19487692043185,42.06624772399664,0 -70.19489603117108,42.06633405759931,0 -70.19471724517643,42.06610581837595,0 -70.19424676895142,42.06601780839264,0 -70.19325066357851,42.06549117341638,0 -70.19276845268905,42.06490888260305,0 -70.1927971187979,42.06465549767017,0 -70.19255982711911,42.06413573585451,0 -70.19272687844932,42.06374949775636,0 -70.19270148128271,42.06343157216907,0 -70.19236561842263,42.06316838040948,0 -70.19222497008741,42.06260779872537,0 -70.19195867702365,42.06213564611971,0 -70.19161141477525,42.06196306273341,0 -70.19037726335227,42.06010336987674,0 -70.18909432925284,42.05901581794024,0 -70.18884899094701,42.05863955430686,0 -70.18829452805221,42.05841181799769,0 -70.187754817307,42.05798693932593,0 -70.18804298713803,42.05793404951692,0 -70.18778633326292,42.05789021216333,0 -70.18731501884758,42.0575893856585,0 -70.18714017234743,42.05696736462414,0 -70.18687765114009,42.05674029886723,0 -70.18716012127697,42.05693165771663,0 -70.18734536133707,42.0563358720392,0 -70.18747930414975,42.05617988482118,0 -70.18766454420984,42.05616907216609,0 -70.18744410015643,42.05612213350832,0 -70.1875457726419,42.05570437945426,0 -70.18835948780179,42.05435858108103,0 -70.18738148733974,42.05370772629976,0 -70.18638940528035,42.05284807831049,0 -70.18578196875751,42.05208633095026,0 -70.18566361628473,42.05176882445812,0 -70.18550268374383,42.05168123356998,0 -70.18583360128105,42.0517801400274,0 -70.18701159395278,42.05124587751925,0 -70.18729196861386,42.05100053921342,0 -70.18683205358684,42.05145106650889,0 -70.18621732480824,42.05157696269453,0 -70.18580744974315,42.05181743949652,0 -70.18553277477622,42.05152725800872,0 -70.18424313515425,42.05093348398805,0 -70.18239400349557,42.04981852322817,0 -70.18217833712697,42.0497789606452,0 -70.18222351558506,42.04987560398877,0 -70.18226332962513,42.04981123097241,0 -70.18218998797238,42.049799580127,0 -70.18229534849524,42.04970436170697,0 -70.18386368639767,42.05075897276402,0 -70.18519506789744,42.05136900767684,0 -70.18516606651247,42.05160839483142,0 -70.18523664213717,42.05151904374361,0 -70.185104040429,42.05134847201407,0 -70.1834358740598,42.05054070800543,0 -70.18179427832365,42.04941242001951,0 -70.18159093335271,42.04913162626326,0 -70.1816588267684,42.04929381608963,0 -70.18186091445386,42.04941719770432,0 
		</coordinates>
	</LineString>
	<atom:link rel="app" href="https://www.google.com/earth/about/versions/#earth-pro" title="Google Earth Pro 7.3.6.10441"></atom:link>
</Placemark>
</kml>
