<?xml version="1.0" encoding="UTF-8"?>
<kml xmlns="http://www.opengis.net/kml/2.2" xmlns:gx="http://www.google.com/kml/ext/2.2" xmlns:kml="http://www.opengis.net/kml/2.2" xmlns:atom="http://www.w3.org/2005/Atom">
<Placemark>
	<name>Track</name>
	<Style>
		<LineStyle>
			<color>ff0000ff</color>
			<width>3</width>
		</LineStyle>
	</Style>
	<LineString>
		<tessellate>1</tessellate>
		<coordinates>
			10.43897266499698,50.20097175613046,0 10.43960792943835,50.20110670477152,0 10.44027244672179,50.20110293291509,0 10.44073881581426,50.20121902227402,0 10.44104961678386,50.20124332979321,0 10.44139528647065,50.20121022127569,0 10.44170147739351,50.20129915326834,0 10.44220497831702,50.20137576386333,0 10.44232006184757,50.20136419683695,0 10.44226608239114,50.20133963786066,0 10.44235652312636,50.20141222514212,0 10.44261233881116,50.2014460042119,0 10.44309983029962,50.20139588043094,0 10.44315992854536,50.20126051269472,0 10.44319219887257,50.20125741139054,0 10.44320510700345,50.20130418241024,0 10.44323268346488,50.20123176276684,0 10.44333242811263,50.20112841390073,0 10.44354599900544,50.20099740475416,0 10.44397255405784,50.20097611472011,0 10.44413960538805,50.20086572505534,0 10.44422702863812,50.20063731819391,0 10.44419308193028,50.20039583556354,0 10.44426332227886,50.20027128048241,0 10.44433037750423,50.20004253834486,0 10.44430715963244,50.20002015866339,0 10.44435451738536,50.19986459054053,0 10.44435426592827,50.19943032413721,0 10.44431688264012,50.19945379346609,0 10.44431235641241,50.19941490143538,0 10.44438779354095,50.19935354590416,0 10.4443836864084,50.19931029528379,0 10.44458778575063,50.19930962473154,0 10.44506597332656,50.19922320730984,0 10.44534442014992,50.19905456341803,0 10.44579586945474,50.19896714016795,0 10.44632543809712,50.19878525286913,0 10.44653431512415,50.19866514019668,0 10.44677747413516,50.19860244356096,0 10.44718190096319,50.19841460511088,0 10.44716002419591,50.19832449965179,0 10.44709850102663,50.19830605946481,0 10.44717938639224,50.19831703975797,0 10.44745439663529,50.19825174473226,0 10.44757895171642,50.19814982078969,0 10.44862417504191,50.19765495322645,0 10.44869290664792,50.197585048154,0 10.44889256358147,50.19748413003981,0 10.44900169596076,50.19737558439374,0 10.44897286221385,50.19736250862479,0 10.44923856854439,50.19734591245651,0 10.44950963929296,50.19724776037037,0 10.44977392069995,50.19703963771462,0 10.45027297921479,50.19682380370796,0 10.45048772357404,50.19667125307024,0 10.4506245162338,50.19665230996907,0 10.45075150206685,50.19636497832835,0 10.45083917677402,50.19630152732134,0 10.45084311626852,50.19625970162451,0 10.45080514624715,50.19630798138678,0 10.45078570023179,50.19626942463219,0 10.45089055784047,50.19612483680248,0 10.45090354979038,50.19606825895607,0 10.45086323283613,50.19603297114372,0 10.45103481039405,50.19589483737946,0 10.45126900076866,50.19557347521186,0 10.45150838792324,50.19538789987564,0 10.45160863548517,50.19519729539752,0 10.45177660882473,50.19507441669703,0 10.45206368900836,50.19493795931339,0 10.45217935927212,50.1948357000947,0 10.4525273758918,50.1942833326757,0 10.45251111499965,50.19410664215684,0 10.45246467925608,50.19406171515584,0 10.45231020078063,50.19401418976486,0 10.45217449776828,50.19402357749641,0 10.45218472369015,50.19404185004532,0 10.45211917720735,50.19407043233514,0 10.45214105397463,50.1940428558737,0 10.45208439230919,50.19402877427638,0 10.45229184441268,50.19390078261495,0 10.45209453441203,50.19399038515985,0 10.45206184498966,50.19407621584833,0 10.45216720551252,50.19401594996452,0 10.45220173895359,50.19407093524933,0 10.45223576948047,50.19403740763664,0 10.45219402760267,50.19401284866035,0 10.4521925188601,50.19393095746636,0 10.45217483304441,50.19402206875384,0 10.45221146196127,50.19402709789574,0 10.45234758406878,50.19389902241528,0 10.45226577669382,50.19394118338823,0 10.45236711390316,50.19379399716854,0 10.45249820686877,50.19335964694619,0 10.45243701897562,50.1931831240654,0 10.45220425352454,50.19292303360999,0 10.45219360850751,50.19283477216959,0 10.45212144032121,50.19276335835457,0 10.45204868540168,50.19251123070717,0 10.45197668485343,50.19251986406744,0 10.45228086411953,50.19198769703507,0 10.45221908949316,50.19200823269784,0 10.45225529931486,50.19199540838599,0 10.45237759128213,50.19181226380169,0 10.45239837840199,50.19145536236465,0 10.45237759128213,50.19143616780639,0 10.45246878638864,50.1913336571306,0 10.45296960510314,50.19100366160274,0 10.4530472215265,50.19092327915132,0 10.45397945679724,50.19053117372096,0 10.45431406237185,50.19034953787923,0 10.45500623993576,50.19012247212231,0 10.45569154433906,50.18998961895704,0 10.45608658343554,50.18983011133969,0 10.45639537274837,50.18974830396473,0 10.45634239912033,50.18979926593602,0 10.45660232193768,50.18967756070197,0 10.45657415874302,50.18965509720147,0 10.45679309405386,50.1896084100008,0 10.45771627686918,50.18908680416644,0 10.45802481472492,50.18883191049099,0 10.45806052163243,50.18876678310335,0 10.45820142142475,50.18874247558415,0 10.45827358961105,50.18883702345192,0 10.45845807529986,50.18887784332037,0 10.45881992205977,50.18904799595475,0 10.45892997644842,50.18905092962086,0 10.45889695174992,50.18910222686827,0 10.45941428281367,50.1890729740262,0 10.45949114486575,50.18913265317678,0 10.45968686230481,50.18914019688964,0 10.45975282788277,50.18918646499515,0 10.4598755389452,50.18919811584055,0 10.46007838100195,50.1891852915287,0 10.46016127802432,50.18914899788797,0 10.46060007065535,50.18913449719548,0 10.46075656078756,50.18905486911535,0 10.46105026267469,50.18864247947931,0 10.46117465011775,50.18839194439352,0 10.46127422712743,50.18834198825061,0 10.46122586354613,50.1883062813431,0 10.46119744889438,50.18836168572307,0 10.46115528792143,50.18836428411305,0 10.46071976423264,50.18820846453309,0 10.46068799681962,50.18814275041223,0 10.46039630658925,50.18802288919687,0 10.46020226553082,50.18781032413244,0 10.46027719974518,50.18779288977385,0 10.46026227995753,50.18776120617986,0 10.46022355556488,50.18780923448503,0 10.460369233042,50.18777009099722,0 10.46033511869609,50.18775542266667,0 10.46031500212848,50.18780579790473,0 10.46034475788474,50.18784267827868,0 10.46022372320294,50.18775039352477,0 10.46051926910877,50.18775005824864,0 10.46042664907873,50.18779909238219,0 10.46030821278691,50.18780093640089,0 10.46030636876822,50.18775106407702,0 10.46025406569242,50.18775877542794,0 10.460245013237,50.18781275488436,0 10.46023344621062,50.18768241629004,0 10.46026370488107,50.18772910349071,0 10.46023881062865,50.18775936216116,0 10.46031408011913,50.18777729943395,0 10.46024383977056,50.18777017481625,0 10.46026194468141,50.18780848011374,0 10.46021307818592,50.18782356753945,0 10.46027225442231,50.18781552091241,0 10.46025104820728,50.18776615150273,0 10.46025574207306,50.18779783509672,0 10.46031483449042,50.18778207711875,0 10.46031475067139,50.18782063387334,0 10.46027912758291,50.18777755089104,0 10.46018281951547,50.18780135549605,0 10.46022196300328,50.18781267106533,0 10.46016379259527,50.18783303909004,0 10.4602294228971,50.18785273656249,0 10.46008651144803,50.18787922337651,0 10.46023084782064,50.18786665052176,0 10.46015264466405,50.18781661055982,0 10.46009363606572,50.18784896470606,0 10.46021492220461,50.18778903409839,0 10.46015448868275,50.18784779123962,0 10.46011836268008,50.18782055005431,0 10.45999581925571,50.18783991225064,0 10.46008969657123,50.18781962804496,0 10.45988266356289,50.18764251843095,0 10.45979465357959,50.18750036135316,0 10.45989884063601,50.18736147321761,0 10.46008072793484,50.1872634049505,0 10.46038708649576,50.18680575303733,0 10.46080442145467,50.18645052798092,0 10.46085278503597,50.18623284995556,0 10.46070467680693,50.18619420938194,0 10.46079662628472,50.18617124296725,0 10.46087021939456,50.18609144724905,0 10.46081632375717,50.18549800850451,0 10.46075882390141,50.1852981839329,0 10.46078120358288,50.1852670032531,0 10.46068305149674,50.1851634029299,0 10.46061566099524,50.18499861471355,0 10.46046461910009,50.18476760946214,0 10.46047543175519,50.18470868468285,0 10.46043285168707,50.18468488007784,0 10.4604400601238,50.18463240936399,0 10.46035724692047,50.18443342298269,0 10.4602706618607,50.18408155068755,0 10.46023529022932,50.18384643830359,0 10.46026890166104,50.18379321321845,0 10.46023922972381,50.18375993706286,0 10.4601778741926,50.18339146859944,0 10.46010486781597,50.18316892907023,0 10.46009891666472,50.18273407593369,0 10.46021861024201,50.18237658776343,0 10.46037853695452,50.18217466771603,0 10.46092067845166,50.18169086426497,0 10.4606956243515,50.1812176220119,0 10.46051097102463,50.1809758041054,0 10.46036001294851,50.18083448521793,0 10.46007838100195,50.18070230260491,0 10.45964067801833,50.18062083050609,0 10.45890994369984,50.18042377196252,0 10.45846444554627,50.18037817440927,0 10.45834927819669,50.18041027709842,0 10.4583609290421,50.18058705143631,0 10.45842597261071,50.18071713857353,0 10.45843158848584,50.18069710582495,0 10.45836227014661,50.18067799508572,0 10.45823126100004,50.18086382187903,0 10.45817895792425,50.18089433200657,0 10.45822220854461,50.18089684657753,0 10.45808600261807,50.18106071278453,0 10.45800327323377,50.18121728673577,0 10.45805482193828,50.18125324510038,0 10.45777034014463,50.1816787943244,0 10.45785583555698,50.18162498250604,0 10.4577998444438,50.18168172799051,0 10.4577948153019,50.18164861947298,0 10.45782951638103,50.18163328059018,0 10.45772432349622,50.18178775906563,0 10.4576737806201,50.18200962804258,0 10.45756900683045,50.18201214261353,0 10.45743087306619,50.18206997774541,0 10.45734194107354,50.1821291539818,0 10.45728477649391,50.18224884755909,0 10.45729843899608,50.18229494802654,0 10.45712283812463,50.1826180703938,0 10.45685813762248,50.18338585272431,0 10.45642537996173,50.18439922481775,0 10.45634541660547,50.18449016846716,0 10.45623351819813,50.185023592785,0 10.45618859119713,50.18509299494326,0 10.4561213683337,50.18511780537665,0 10.45604400336742,50.1852585375309,0 10.45579413883388,50.18541879951954,0 10.45565818436444,50.18558450974524,0 10.45547587797046,50.18568417057395,0 10.45536004006863,50.18586463294923,0 10.45534746721387,50.1859369687736,0 10.45500682666898,50.18638397566974,0 10.45488579198718,50.18668312579393,0 10.45450399629772,50.18703885376453,0 10.45430911704898,50.18749080598354,0 10.45416511595249,50.18758988007903,0 10.45390921644866,50.18768006935716,0 10.45372045598924,50.18769951537251,0 10.45333480462432,50.18762751482427,0 10.45325090177357,50.18764411099255,0 10.4530731216073,50.18760295584798,0 10.45249611139297,50.18756431527436,0 10.44967384077609,50.18748787231743,0 10.44892835430801,50.18738066777587,0 10.44892751611769,50.1873585395515,0 10.44862685725093,50.18737195059657,0 10.44819946400821,50.18758459948003,0 10.44812327250838,50.18759239464998,0 10.44796896167099,50.18757990561426,0 10.44743922539055,50.18742324784398,0 10.4470239020884,50.18736055120826,0 10.44551038183272,50.18775852397084,0 10.44506035745144,50.18782809376717,0 10.44495910406113,50.18787679262459,0 10.44344524852931,50.18821885809302,0 10.44200180098414,50.1887449901551,0 10.44156786985695,50.18885839730501,0 10.4413132276386,50.18897750414908,0 10.44130417518318,50.1890177372843,0 10.4415669478476,50.18936089240015,0 10.44159636832774,50.18935695290565,0 10.44196584261954,50.18966666422784,0 10.44259767048061,50.19009447656572,0 10.44278400018811,50.1902596000582,0 10.4428344592452,50.19023881293833,0 10.44281844981015,50.19029119983315,0 10.4393567238003,50.19177270121872,0 10.43903863057494,50.19198132678866,0 10.43882950209081,50.19218073226511,0 10.43873118236661,50.1923078019172,0 10.438626492396,50.19254266284406,0 10.43862263672054,50.19274768419564,0 10.43870888650417,50.19307298585773,0 10.43890468776226,50.1933522708714,0 10.43933032080531,50.19377228803933,0 10.43941766023636,50.19391276873648,0 10.4396434687078,50.19408585503697,0 10.43970348313451,50.19417051225901,0 10.43967573903501,50.19421610981226,0 10.43905346654356,50.19486537203193,0 10.43877434916794,50.19510350190103,0 10.43845960870385,50.19530433230102,0 10.43832306750119,50.19532419741154,0 10.43790657073259,50.19556081853807,0 10.43746953830123,50.19575167447329,0 10.43644174933434,50.19613313488662,0 10.4362553358078,50.19621837884188,0 10.43594512157142,50.19642666913569,0 10.43496653437614,50.19751472398639,0 10.4348580725491,50.19789358600974,0 10.4346978943795,50.19823514856398,0 10.4347237944603,50.19826171919703,0 10.43435859493911,50.19852507859468,0 10.43440226465464,50.19857553765178,0 10.43484181165695,50.1986829098314,0 10.43518421240151,50.19880805164576,0 10.43573775328696,50.19892749376595,0 10.43586708605289,50.1990563236177,0 10.43625642545521,50.19960165023804,0 10.43705740012228,50.20052424632013,0 10.43709176592529,50.20060194656253,0 10.43738597072661,50.200653411448,0 10.43767405673862,50.20063505508006,0 10.43822784908116,50.20082591101527,0 10.43818241916597,50.20080260932446,0 10.4385141748935,50.20079975947738,0 10.43855432420969,50.20077276974916,0 10.43855306692421,50.20071585662663,0 10.43873302638531,50.20068794488907,0 10.43867133557796,50.20075106061995,0 10.43854367919266,50.20075642503798,0 10.43855465948582,50.20077335648239,0 
		</coordinates>
	</LineString>
	<atom:link rel="app" href="https://www.google.com/earth/about/versions/#earth-pro" title="Google Earth Pro 7.3.7.1155"></atom:link>
</Placemark>
</kml>
