<?xml version="1.0" encoding="UTF-8"?>
<kml xmlns="http://www.opengis.net/kml/2.2" xmlns:gx="http://www.google.com/kml/ext/2.2" xmlns:kml="http://www.opengis.net/kml/2.2" xmlns:atom="http://www.w3.org/2005/Atom">
<Placemark>
	<name>Track</name>
	<Style>
		<LineStyle>
			<color>ff0000ff</color>
			<width>3</width>
		</LineStyle>
	</Style>
	<LineString>
		<tessellate>1</tessellate>
		<coordinates>
			174.7721366677433,-36.84448465704918,0 174.771586060524,-36.84447107836604,0 174.7708316054195,-36.84417553246021,0 174.7692325059325,-36.84375861659646,0 174.7688301745802,-36.84383413754404,0 174.7685629595071,-36.84361989609897,0 174.7682168707252,-36.84365166351199,0 174.7677030600607,-36.84342417865992,0 174.7679079137743,-36.84343566186726,0 174.7678007930517,-36.8434095941484,0 174.7678749728948,-36.84333524666727,0 174.7678577899933,-36.84343230910599,0 174.7678073309362,-36.84340104460716,0 174.7678869590163,-36.84341135434806,0 174.7677990328521,-36.84339073486626,0 174.7678678482771,-36.84338662773371,0 174.7678100969642,-36.84345401823521,0 174.7678842768073,-36.84354655444622,0 174.7678352426738,-36.84348771348596,0 174.7679161280394,-36.84343784116209,0 174.7677815984935,-36.84348662383854,0 174.7677733004093,-36.84337950311601,0 174.7672974597663,-36.84327523224056,0 174.7674001380801,-36.84334346093237,0 174.7672426421195,-36.84347270987928,0 174.7672283090651,-36.84362635016441,0 174.7672172449529,-36.84351034462452,0 174.7672811150551,-36.84357329271734,0 174.767246581614,-36.84370019473135,0 174.7670717351139,-36.84360053390265,0 174.7669553104788,-36.84366465546191,0 174.76701406762,-36.84388577006757,0 174.7670036740601,-36.84381913393736,0 174.7669302485883,-36.84387998655438,0 174.767040386796,-36.84360011480749,0 174.7670310828835,-36.84372324496508,0 174.766850033775,-36.84361570514739,0 174.7671522013843,-36.84413211420178,0 174.7670590784401,-36.84401619248092,0 174.7666630335152,-36.84404720552266,0 174.7670644428581,-36.84438248164952,0 174.767135521397,-36.84430302120745,0 174.7667197789997,-36.8445629440248,0 174.7666801325977,-36.84461667202413,0 174.7667827270925,-36.84460795484483,0 174.7665611933917,-36.84474759735167,0 174.766575358808,-36.84491221792996,0 174.7665625344962,-36.84485790319741,0 174.7664788831025,-36.84493442997336,0 174.766451055184,-36.8449979647994,0 174.7665940504521,-36.84513819403946,0 174.7665627859533,-36.84534346684813,0 174.7663700021803,-36.84553080238402,0 174.7664123307914,-36.84577899053693,0 174.7663140110672,-36.84584747068584,0 174.7662958223373,-36.84599675238132,0 174.7664816491306,-36.84618375264108,0 174.7662332933396,-36.84635482728481,0 174.7664715070277,-36.84619112871587,0 174.7664970718324,-36.84642565436661,0 174.7667838167399,-36.84671667404473,0 174.7667638678104,-36.8467752635479,0 174.7667278256267,-36.84673603624105,0 174.7668620198965,-36.84674366377294,0 174.7661692555994,-36.84616648592055,0 174.7662116680294,-36.84601955115795,0 174.7663519810885,-36.84621476568282,0 174.7662612888962,-36.84614938683808,0 174.7663600277156,-36.84639011509717,0 174.7663266677409,-36.84654417447746,0 174.7662384063005,-36.84645406901836,0 174.7659244202077,-36.84641945175827,0 174.7657446283847,-36.84647871181369,0 174.7657206561416,-36.84665540233254,0 174.7660125978291,-36.84680594131351,0 174.7658833488822,-36.84711003676057,0 174.7659919783473,-36.84717742726207,0 174.7661775536835,-36.84703367762268,0 174.7661244124174,-36.8472084403038,0 174.7659816686064,-36.84728060849011,0 174.7660239972174,-36.84732486493886,0 174.7659470513463,-36.8474449776113,0 174.7660532500595,-36.84748286381364,0 174.7659442853183,-36.84744103811681,0 174.765861555934,-36.84756819158792,0 174.7659654915333,-36.84733877889812,0 174.7659193910658,-36.84724699705839,0 174.7664027754217,-36.84729108586907,0 174.7665597684681,-36.84746291488409,0 174.7665627021343,-36.84770800173283,0 174.7666246443987,-36.84742653742433,0 174.7663977462798,-36.84729753993452,0 174.7665467765182,-36.84741924516857,0 174.7666838206351,-36.84726283885539,0 174.7668198589236,-36.84734079055488,0 174.7669469285756,-36.84729686938226,0 174.7670881636441,-36.84753273613751,0 174.7669252194464,-36.84751320630312,0 174.7669552266598,-36.84743860736489,0 174.7668649535626,-36.84734774753451,0 174.7668355330825,-36.84713090769947,0 174.7669619321823,-36.84716401621699,0 174.7668163385242,-36.84726828709245,0 174.7667742613703,-36.84714490547776,0 174.7668217029423,-36.84727071784437,0 174.7671927697957,-36.84727851301432,0 174.7671263013035,-36.84759853407741,0 174.7671932727098,-36.84766391292214,0 174.7671703901142,-36.84788469225168,0 174.7668397240341,-36.84817554429173,0 174.7670390456915,-36.84814159758389,0 174.7674286365509,-36.8482949025929,0 174.7674255352467,-36.84842867776752,0 174.7676076740026,-36.84855004772544,0 174.7675945982337,-36.84867175295949,0 174.7678550239652,-36.84885196387768,0 174.7677709534764,-36.84887048788369,0 174.7678256873041,-36.84891181066632,0 174.7679338138551,-36.8489040993154,0 174.7679878771305,-36.84907542541623,0 174.7675837855786,-36.8494189158082,0 174.7675490844995,-36.84936275705695,0 174.7675182390958,-36.84944288805127,0 174.767505414784,-36.84935714118183,0 174.7673942707479,-36.84961815364659,0 174.7674381081015,-36.84965268708766,0 174.7671642713249,-36.84983658604324,0 174.7672881558537,-36.85012844391167,0 174.7675868868828,-36.84997413307428,0 174.7678473126143,-36.84994420967996,0 174.7681645676494,-36.85012970119715,0 174.7680488135666,-36.85042147524655,0 174.7681718599051,-36.85056237503886,0 174.7681546770036,-36.85073353350163,0 174.7678419481963,-36.85083411633968,0 174.767711609602,-36.85126477852464,0 174.7675449773669,-36.85140945017338,0 174.7675686981529,-36.85169510543346,0 174.7674727253616,-36.85172653757036,0 174.7678789123893,-36.8517396133393,0 174.768097512424,-36.85187053866684,0 174.7681105043739,-36.85199249535799,0 174.7679561097175,-36.85216122306883,0 174.7680083289742,-36.85235576704144,0 174.7680048085749,-36.85225015506148,0 174.7676974441856,-36.85275608673692,0 174.7676158044487,-36.85280662961304,0 174.7673083562404,-36.85268391855061,0 174.7671428136528,-36.8527621217072,0 174.767190925777,-36.85298323631287,0 174.7676154691726,-36.85362805612385,0 174.7681338060647,-36.8539934232831,0 174.7677577100694,-36.85440380126238,0 174.7679667547345,-36.85444596223533,0 174.7678858693689,-36.85458795167506,0 174.7679631505162,-36.85463874600828,0 174.7673930134624,-36.85494476929307,0 174.7674179077148,-36.85506236739457,0 174.7668718267232,-36.85537886805832,0 174.7668015863746,-36.85549051500857,0 174.766939971596,-36.85561926104128,0 174.7666134964675,-36.8558188341558,0 174.7663314454257,-36.85577860102057,0 174.7661493904889,-36.85607314109802,0 174.7659335564822,-36.85622091405094,0 174.7658893000335,-36.85616970062256,0 174.7660965006799,-36.85628436505795,0 174.765497026965,-36.85680186375976,0 174.7654477413744,-36.85696288011968,0 174.7655178979039,-36.85711501166224,0 174.76516937837,-36.85724434442818,0 174.7648444119841,-36.85755648650229,0 174.7642876021564,-36.8575456738472,0 174.7644177731127,-36.85784859582782,0 174.7643399890512,-36.85796359553933,0 174.7644090559334,-36.85798966325819,0 174.7640653140843,-36.85844379477203,0 174.763771109283,-36.85840113088489,0 174.7636569477618,-36.85878166928887,0 174.7634127829224,-36.85899683274329,0 174.7621549945325,-36.86125449836254,0 174.7618371527642,-36.86166856437922,0 174.7618665732443,-36.86177174560726,0 174.7616633959115,-36.86243006028235,0 174.7613743878901,-36.86313615180552,0 174.7613535169512,-36.86358827166259,0 174.7611541952938,-36.86385540291667,0 174.761112537235,-36.86410878784955,0 174.7609338350594,-36.86423627659678,0 174.7607910912484,-36.86448270455003,0 174.7608020715415,-36.86517094261944,0 174.7615650761873,-36.86593000777066,0 174.7619562596083,-36.86667733825743,0 174.76198207587,-36.86690457165241,0 174.7617025393993,-36.8675269279629,0 174.7611914109439,-36.86800561845303,0 174.7608549613506,-36.86858665198088,0 174.760911623016,-36.86862579546869,0 174.7606903407723,-36.86891371384263,0 174.7604209464043,-36.8695645686239,0 174.7605789452791,-36.86990898102522,0 174.7602362930775,-36.86999606899917,0 174.7603600937873,-36.86998366378248,0 174.7603030968457,-36.86991878785193,0 174.7604072000831,-36.86979632824659,0 174.760681791231,-36.86971879564226,0 174.7614080831409,-36.86967998743057,0 174.7617882862687,-36.86983337625861,0 174.7627743333578,-36.87078061513603,0 174.763324605301,-36.87142761424184,0 174.7633023094386,-36.87157672829926,0 174.7635905630887,-36.8716592900455,0 174.7635900601745,-36.87182114459574,0 174.7633847873658,-36.87174813821912,0 174.7636608034372,-36.87183983623981,0 174.7637389227748,-36.87194553203881,0 174.7642043698579,-36.87286536209285,0 174.7643357142806,-36.87298757024109,0 174.7645404841751,-36.87300575897098,0 174.7643777914345,-36.87308337539434,0 174.7643887717277,-36.87320466153324,0 174.7645188588649,-36.87327465042472,0 174.7643783781677,-36.87356608919799,0 174.7646048571914,-36.87372073531151,0 174.7643480356783,-36.87423010356724,0 174.7642710059881,-36.87494516372681,0 174.7641633823514,-36.8749279808253,0 174.7641049604863,-36.87477668747306,0 174.764114851132,-36.87488028779626,0 174.7641670703888,-36.87485019676387,0 174.7641591913998,-36.87517642043531,0 174.7640575189143,-36.87524632550776,0 174.7644351236522,-36.87572878785431,0 174.7644246462733,-36.87589709647,0 174.763911254704,-36.87682916410267,0 174.7632290516049,-36.87689043581486,0 174.7632411215454,-36.87701130285859,0 174.7635183110833,-36.87703896313906,0 174.7634493280202,-36.8771437369287,0 174.7635232564062,-36.87723426148295,0 174.7634707018733,-36.8773926794529,0 174.7636240907013,-36.87765226699412,0 174.7640695888549,-36.87792694196105,0 174.7638695966452,-36.87798502855003,0 174.763615289703,-36.87791244126856,0 174.7636737115681,-36.87784287147224,0 174.7636426147074,-36.87793071381748,0 174.7637202311307,-36.87797346152365,0 174.7636347357184,-36.87790975905955,0 174.7638043854386,-36.87782594002783,0 174.7639664914459,-36.87788201496005,0 174.7640861850232,-36.87812265940011,0 174.7642058786005,-36.8781852722168,0 174.7643564175814,-36.87818418256938,0 174.7644048649818,-36.87797723338008,0 174.7648184280843,-36.87800313346088,0 174.7651571407914,-36.87776181846857,0 174.7653339989483,-36.8774894066155,0 174.7650346811861,-36.8770818784833,0 174.7649252135307,-36.87662900425494,0 174.7648153267801,-36.87651073560119,0 174.7649318352342,-36.87641191296279,0 174.7649173345417,-36.87633287161589,0 174.7647363692522,-36.87637394294143,0 174.7647215332836,-36.87643026933074,0 174.7648307494819,-36.87646220438182,0 174.7647133190185,-36.87644326128066,0 174.7648465912789,-36.87647067010403,0 174.764886572957,-36.87674593180418,0 174.7644884325564,-36.87662129290402,0 174.7639228217304,-36.87675967812538,0 174.7640466224402,-36.87656404450536,0 174.7640158608556,-36.87646622769535,0 174.764408050105,-36.87581671401858,0 174.7640753723681,-36.87534749507904,0 174.7642176132649,-36.87427142634988,0 174.7645343653858,-36.87371000647545,0 174.7644954733551,-36.87347514554858,0 174.7643048688769,-36.87315093353391,0 174.7644359618425,-36.87311279587448,0 174.7644445952028,-36.87300642952323,0 174.7641735244542,-36.8729270529002,0 174.7636280301958,-36.87193798832595,0 174.7639912180603,-36.87190387398005,0 174.7640481311828,-36.87179415486753,0 174.763742107898,-36.87166549265385,0 174.7634188178927,-36.87135469168425,0 174.76357832551,-36.8711378518492,0 174.7636150382459,-36.87082285992801,0 174.7638944908977,-36.87038255855441,0 174.7639622166753,-36.87007083557546,0 174.7642803937197,-36.8696649838239,0 174.7644131630659,-36.86908403411508,0 174.7642482910305,-36.86872285790741,0 174.7636737953871,-36.86805255711079,0 174.7634377609938,-36.86729097738862,0 174.7635964304209,-36.86721906065941,0 174.7634467296302,-36.86694405041635,0 174.7634543571621,-36.86673307791352,0 174.7638052236289,-36.86553413048387,0 174.7637492325157,-36.86514629982412,0 174.7638043016195,-36.86489660292864,0 174.7639928106219,-36.86473248526454,0 174.7641619574279,-36.86472821049392,0 174.764437302947,-36.86354745179415,0 174.7643106523901,-36.86344225890934,0 174.7648817952722,-36.8623826187104,0 174.7668079566211,-36.86020793393254,0 174.7670356929302,-36.86006208881736,0 174.7685947269201,-36.85840138234198,0 174.7694388683885,-36.85672106221318,0 174.7695967834443,-36.85621697455645,0 174.7698960173875,-36.85609778389335,0 174.7699144575745,-36.85590818524361,0 174.7703062277287,-36.85574859380722,0 174.770743008703,-36.855393871665,0 174.7708803042769,-36.85518013313413,0 174.7704819124192,-36.85349545441568,0 174.770296420902,-36.8533303309232,0 174.7704848460853,-36.85310552828014,0 174.7703198902309,-36.85278659686446,0 174.7704293578863,-36.85272666625679,0 174.7704213950783,-36.85249700210989,0 174.7701887134463,-36.85236666351557,0 174.7703734505922,-36.8518397770822,0 174.7707223892212,-36.85167364776134,0 174.7715109586716,-36.85086471028626,0 174.7717354260385,-36.85076697729528,0 174.7721000388265,-36.85040395706892,0 174.7725799866021,-36.85021217912436,0 174.773354139179,-36.849370803684,0 174.7733811289072,-36.84948253445327,0 
		</coordinates>
	</LineString>
	<atom:link rel="app" href="https://www.google.com/earth/about/versions/#earth-pro" title="Google Earth Pro 7.3.7.1155"></atom:link>
</Placemark>
</kml>
