<?xml version="1.0" encoding="UTF-8"?>
<kml xmlns="http://www.opengis.net/kml/2.2" xmlns:gx="http://www.google.com/kml/ext/2.2" xmlns:kml="http://www.opengis.net/kml/2.2" xmlns:atom="http://www.w3.org/2005/Atom">
<Placemark>
	<name>Track</name>
	<Style>
		<LineStyle>
			<color>ff0000ff</color>
			<width>3</width>
		</LineStyle>
	</Style>
	<LineString>
		<tessellate>1</tessellate>
		<coordinates>
			170.0933358538896,-43.71937938965857,0 170.0930360332131,-43.71929640881717,0 170.0931054353714,-43.71913715265691,0 170.0930734165013,-43.71906054206192,0 170.09248056449,-43.71906775049865,0 170.0923851784319,-43.71897362172604,0 170.0924434326589,-43.71890832670033,0 170.0923355575651,-43.71866910718381,0 170.0924077257514,-43.71864915825427,0 170.0924062170088,-43.71869685128331,0 170.0922208931297,-43.71868536807597,0 170.0916966050863,-43.7183693703264,0 170.0902741961181,-43.71822469867766,0 170.0896943360567,-43.71790543198586,0 170.0890274718404,-43.71779847890139,0 170.0890723988414,-43.71776344254613,0 170.0887350272387,-43.71767258271575,0 170.0884822290391,-43.71748516336083,0 170.0873246882111,-43.71728743426502,0 170.0870910007507,-43.71717662550509,0 170.0870552938432,-43.71713194996119,0 170.0873130373657,-43.71686314232647,0 170.0873741414398,-43.7167046405375,0 170.0872242730111,-43.71630893088877,0 170.0872475747019,-43.71613852679729,0 170.0871698744595,-43.71602746658027,0 170.0868677068502,-43.7157463375479,0 170.0858571007848,-43.71538482606411,0 170.0856580305845,-43.71499624103308,0 170.085212951526,-43.71478904038668,0 170.0850540306419,-43.7145359069109,0 170.0849122926593,-43.71443716809154,0 170.0849334988743,-43.71420448645949,0 170.0848617497832,-43.71388136409223,0 170.0844206102192,-43.71362663805485,0 170.0835327152163,-43.71273991651833,0 170.0834703538567,-43.71195101179183,0 170.0835026241839,-43.71184171177447,0 170.083563812077,-43.71183844283223,0 170.0835457071662,-43.71169259771705,0 170.0836547557265,-43.71160659939051,0 170.0835918914527,-43.71157290413976,0 170.0837066397071,-43.711570892483,0 170.0839776266366,-43.7113600037992,0 170.0841020978987,-43.71134332381189,0 170.0844144076109,-43.71108734048903,0 170.0843921117485,-43.71079875156283,0 170.0842046085745,-43.71065508574247,0 170.0842205341905,-43.7105206400156,0 170.0842761062086,-43.71055148541927,0 170.0837998464704,-43.71050806716084,0 170.0836678314954,-43.71021050959826,0 170.0838144309819,-43.71019056066871,0 170.0837007723749,-43.71026138775051,0 170.0837131775916,-43.71045995503664,0 170.0839033629745,-43.71052843518555,0 170.084142414853,-43.71074435301125,0 170.0843595061451,-43.7107798922807,0 170.0844346079975,-43.71104107238352,0 170.084340814501,-43.71119705960155,0 170.0835506524891,-43.71171480976045,0 170.0834917277098,-43.71205679140985,0 170.0835842639208,-43.71278199367225,0 170.0841598492116,-43.71345246210694,0 170.084433266893,-43.71365069411695,0 170.0845801178366,-43.71365488506854,0 170.0848783459514,-43.71390592306852,0 170.0848980434239,-43.71430917643011,0 170.0850493367761,-43.71469868347049,0 170.0855658296496,-43.71501157991588,0 170.0856433622539,-43.71517226099968,0 170.0858463719487,-43.71533906087279,0 170.0864087976515,-43.71563477441669,0 170.0867595802993,-43.71569998562336,0 170.0870055891573,-43.71593384072185,0 170.0872333254665,-43.71630180627108,0 170.087300715968,-43.71654974296689,0 170.0873992033303,-43.71659223921597,0 170.0873357523233,-43.71657002717257,0 170.0873232632875,-43.71686037629843,0 170.0871458183974,-43.7170225661248,0 170.0871229358017,-43.71717662550509,0 170.0877020414919,-43.71732288971543,0 170.087916534394,-43.71729128994048,0 170.0880791433156,-43.71743688359857,0 170.0884207058698,-43.71750502847135,0 170.0888962950557,-43.71774307452142,0 170.0896750576794,-43.71789872646332,0 170.090154921636,-43.71815915219486,0 170.0910700578243,-43.71822687797248,0 170.0912029948086,-43.71831354685128,0 170.0916327349842,-43.71831991709769,0 170.0921775586903,-43.71865980327129,0 170.092369588092,-43.71869274415076,0 170.0924528203905,-43.71863666921854,0 170.0925326161087,-43.71875200420618,0 170.0932667870075,-43.7187475617975,0 170.093381870538,-43.71887136250734,0 170.0936427153647,-43.71897580102086,0 170.0936630833894,-43.71917998418212,0 170.0937842857093,-43.71919683180749,0 170.0936149712652,-43.7192550022155,0 170.0935946870595,-43.7192156072706,0 170.0940038915724,-43.71900974772871,0 170.0942993536592,-43.71900027617812,0 170.0943519920111,-43.71872995980084,0 170.0945381540805,-43.71854865923524,0 170.0947664771229,-43.71836291626096,0 170.0950340274721,-43.718320755288,0 170.095229241997,-43.71817331761122,0 170.0952856522053,-43.71808740310371,0 170.095205521211,-43.7178891710937,0 170.0953213591129,-43.71810726821423,0 170.0956051703542,-43.71800945140421,0 170.0956840440631,-43.71818161569536,0 170.0960132014006,-43.71834372170269,0 170.0962193123996,-43.7183505948633,0 170.0964662432671,-43.71849208138883,0 170.0968337897211,-43.71858017519116,0 170.0974395498633,-43.71842955239117,0 170.0977340061218,-43.71826099231839,0 170.0982898101211,-43.71839401312172,0 170.0989363901317,-43.71837791986763,0 170.0989918783307,-43.71832586824894,0 170.0989412516356,-43.71826535090804,0 170.0995072815567,-43.71837272308767,0 170.0995747558773,-43.71833098120987,0 170.0997528713197,-43.71838697232306,0 170.1002372615039,-43.71837406419218,0 170.1005261018872,-43.71831539086998,0 170.1012140046805,-43.71791825629771,0 170.1014589238912,-43.7176684755832,0 170.1015100535005,-43.7174850795418,0 170.1015103887767,-43.7175680603832,0 170.1014671381563,-43.71754316613078,0 170.1015122327954,-43.71748591773212,0 170.1023518480361,-43.71698191389441,0 170.10234371759,-43.71674194000661,0 170.1024013012648,-43.71676876209676,0 170.1025850325823,-43.71665501967072,0 170.1024650037289,-43.71665862388909,0 170.1024982798845,-43.7167532555759,0 170.102689890191,-43.71683606877923,0 170.1027228310704,-43.71677186340094,0 170.1026637386531,-43.71671436354518,0 170.1027305424213,-43.7168534193188,0 170.1028784830123,-43.71683103963733,0 170.1029348094016,-43.71675753034651,0 170.1029751263559,-43.71691443957388,0 170.1033292617649,-43.71688233688474,0 170.1033249869943,-43.71679709292948,0 170.1027029659599,-43.71635167859495,0 170.1024527661502,-43.71622804552317,0 170.1021633390337,-43.7161972001195,0 170.1020012330264,-43.71588019654155,0 170.1020515244454,-43.71584851294756,0 170.1021305657923,-43.7159345112741,0 170.1021501794457,-43.71585002169013,0 170.102129811421,-43.71590576134622,0 170.1018869038671,-43.71587106026709,0 170.1019286457449,-43.7158911768347,0 170.101886484772,-43.71595487929881,0 170.1017575711012,-43.71591095812619,0 170.1021423004568,-43.71607490815222,0 170.1022576354444,-43.71625553816557,0 170.1025311369449,-43.71628479100764,0 170.103369159624,-43.71552413329482,0 170.1030172873288,-43.71535800397396,0 170.1029392518103,-43.71538490988314,0 170.1031170319766,-43.71548297815025,0 170.1030411757529,-43.7154336925596,0 170.1029099151492,-43.71546084992588,0 170.1029023714364,-43.71552262455225,0 170.1027390081435,-43.71538633480668,0 170.1026347372681,-43.71537728235126,0 170.1026170514524,-43.71529673226178,0 170.1023355871439,-43.71518282219768,0 170.1020289771259,-43.71523059904575,0 170.1021420489997,-43.71535490266979,0 170.1021009776741,-43.71533612720668,0 170.1022669393569,-43.71528139337897,0 170.1023536082357,-43.71537292376161,0 170.102211702615,-43.71523965150118,0 170.1022915821522,-43.71519363485277,0 170.1025027222931,-43.71532598510385,0 170.1029525790364,-43.71547023765743,0 170.1033530663699,-43.71544416993856,0 170.1033212989569,-43.7153731752187,0 170.1034425012767,-43.71510956436396,0 170.1034340355545,-43.71478660963476,0 170.1036717463285,-43.7144561111927,0 170.103229014203,-43.71415637433529,0 170.1036326028407,-43.71374205686152,0 170.1036355365068,-43.7133011687547,0 170.1035009231418,-43.71321961283684,0 170.1034238096327,-43.71324257925153,0 170.1034787110984,-43.71331038884819,0 170.1034052018076,-43.71330552734435,0 170.1032161898911,-43.71289129368961,0 170.1030383259058,-43.71270412579179,0 170.1028957497329,-43.71199275366962,0 170.1025013811886,-43.71150241233408,0 170.1024569571018,-43.71137358248234,0 170.1025012973696,-43.71143803931773,0 170.1025429554284,-43.71138322167099,0 170.1024989504367,-43.71149771846831,0 170.1023657619953,-43.71122916229069,0 170.1021806895733,-43.71117778122425,0 170.102092595771,-43.71123729273677,0 170.1021393667907,-43.71124718338251,0 170.102272471413,-43.71096680872142,0 170.1022970303893,-43.71069204993546,0 170.1021909154952,-43.71041812933981,0 170.1022720523179,-43.71031670831144,0 170.1020280551165,-43.71026549488306,0 170.1019828766584,-43.71014420874417,0 170.1017977204174,-43.71002250351012,0 170.1010732725263,-43.7097642570734,0 170.1013774517924,-43.70983156375587,0 170.1014395616949,-43.70955814607441,0 170.101276198402,-43.70951849967241,0 170.1011135056615,-43.70938455685973,0 170.1010327041149,-43.70919562876225,0 170.1010549161583,-43.70910686440766,0 170.1006033830345,-43.70884534902871,0 170.1003928296268,-43.70886102318764,0 170.100274560973,-43.70863747783005,0 170.100417220965,-43.70892841368914,0 170.1003712881356,-43.70901114307344,0 170.1003935839981,-43.70881601236761,0 170.1006337255239,-43.70879799127579,0 170.1010555867106,-43.70914416387677,0 170.1011456921697,-43.7094000633806,0 170.1014925353229,-43.70955898426473,0 170.1013735961169,-43.70989652350545,0 170.1012644637376,-43.70979719795287,0 170.1010871864855,-43.70989015325904,0 170.1011301856488,-43.70983659289777,0 170.1010743621737,-43.70982997119427,0 170.1011717598885,-43.70975637808442,0 170.1011082250625,-43.70974539779127,0 170.101466299966,-43.70981832034886,0 170.1016156654805,-43.7099661771208,0 170.1018348522484,-43.71004144661129,0 170.1019719801843,-43.71024722233415,0 170.1022611558437,-43.71029667556286,0 170.1021909993142,-43.71044168248773,0 170.102330474183,-43.71079263277352,0 170.1022648438811,-43.71089489199221,0 170.102312201634,-43.71099321171641,0 170.1022537797689,-43.71115548536181,0 170.1024618186057,-43.71134868822992,0 170.1024990342557,-43.71148942038417,0 170.1028349809349,-43.71189284138381,0 170.1030275132507,-43.71256875805557,0 170.103226415813,-43.71291887015104,0 170.1034813933074,-43.71316647157073,0 170.1034845784307,-43.7132493685931,0 170.1035060361028,-43.7132060341537,0 170.1036742608994,-43.71329898945987,0 170.1036605145782,-43.71373644098639,0 170.1033101510257,-43.71410189196467,0 170.1033520605415,-43.71420356445014,0 170.103725893423,-43.71444244869053,0 170.1034571696073,-43.7147034611553,0 170.1034883502871,-43.71509263291955,0 170.1033584307879,-43.71538356877863,0 170.1034068781883,-43.71551466174424,0 170.1031881943345,-43.71577869169414,0 170.1030931435525,-43.71585572138429,0 170.1030871924013,-43.71579336002469,0 170.1030073966831,-43.71583971194923,0 170.1032130885869,-43.71576737612486,0 170.1026385091245,-43.71626995503902,0 170.1030778884888,-43.71653440408409,0 170.1031005196273,-43.71662794612348,0 170.1033578440547,-43.71676624752581,0 170.1033721771091,-43.71683690696955,0 170.1033078879118,-43.71691234409809,0 170.1031504757702,-43.71694067493081,0 170.1028773095459,-43.71684839017689,0 170.1027147006243,-43.71688342653215,0 170.1027422770858,-43.71675292029977,0 170.1026615593582,-43.71669072657824,0 170.1027352362871,-43.71676197275519,0 170.1026775687933,-43.71684000827372,0 170.1021946873516,-43.71708501130342,0 170.1019242871553,-43.71730042621493,0 170.1019360218197,-43.71736488305032,0 170.1015951298177,-43.71748466044664,0 170.1015501189977,-43.71768389828503,0 170.1011853385717,-43.7180345132947,0 170.1006019581109,-43.71834539808333,0 170.1002988684922,-43.71839954517782,0 170.1001855451614,-43.71827700175345,0 170.1001393608749,-43.71839468367398,0 170.1000452321023,-43.7184209190309,0 170.0997128896415,-43.71835730038583,0 170.0990272499621,-43.71838320046663,0 170.0990038644522,-43.71832251548767,0 170.0989674031734,-43.71837934479117,0 170.0984022114426,-43.71840658597648,0 170.0983329769224,-43.71837498620152,0 170.0984011217952,-43.71831128373742,0 170.0981943402439,-43.71834782883525,0 170.0977952778339,-43.71826585382223,0 170.0975155737251,-43.71844841167331,0 170.0972233805805,-43.71854086406529,0 170.0970979034901,-43.71842293068767,0 170.0970662198961,-43.7181378621608,0 170.0970033556223,-43.71814272366464,0 170.096851894632,-43.7179581541568,0 170.0968261621892,-43.71799696236849,0 170.0966534949839,-43.71791582554579,0 170.0965959951282,-43.71796444058418,0 170.096577052027,-43.71786369010806,0 170.0970690697432,-43.71815060265362,0 170.0970654655248,-43.71857455931604,0 170.0969077181071,-43.71857967227697,0 170.0960477348417,-43.71830583550036,0 170.0956460740417,-43.71800878085196,0 170.0954098720104,-43.71805890463293,0 170.0950501207262,-43.71827239170671,0 170.094869909808,-43.71828127652407,0 170.0941106770188,-43.71816820465028,0 170.0935896579176,-43.71794675476849,0 170.093154469505,-43.71877404861152,0 170.093315737322,-43.71905501000583,0 170.0932653620839,-43.71905609965324,0 170.0935475807637,-43.71926288120449,0 170.0933679565787,-43.71934309601784,0 170.0933862291276,-43.71943873353302,0 
		</coordinates>
	</LineString>
	<atom:link rel="app" href="https://www.google.com/earth/about/versions/#earth-pro" title="Google Earth Pro 7.3.7.1155"></atom:link>
</Placemark>
</kml>
