<?xml version="1.0" encoding="UTF-8"?>
<kml xmlns="http://www.opengis.net/kml/2.2" xmlns:gx="http://www.google.com/kml/ext/2.2" xmlns:kml="http://www.opengis.net/kml/2.2" xmlns:atom="http://www.w3.org/2005/Atom">
<Placemark>
	<name>Track</name>
	<Style>
		<LineStyle>
			<color>ff0000ff</color>
			<width>3</width>
		</LineStyle>
	</Style>
	<LineString>
		<tessellate>1</tessellate>
		<coordinates>
			121.6224169917405,24.15837991051376,0 121.6223758365959,24.15840388275683,0 121.622381284833,24.15835954248905,0 121.6224864777178,24.15867738425732,0 121.6224807780236,24.15886824019253,0 121.6224293131381,24.15879582054913,0 121.622148770839,24.15887670591474,0 121.6217694059014,24.15926436893642,0 121.6213405877352,24.15939663536847,0 121.6212633065879,24.15946100838482,0 121.6211362369359,24.15942689403892,0 121.6209746338427,24.15950803086162,0 121.6210374981165,24.15959972888231,0 121.621287195012,24.15959830395877,0 121.6217419970781,24.15968312881887,0 121.6210493166,24.15978312492371,0 121.6210067365319,24.15981656871736,0 121.6214495524764,24.15992377325892,0 121.6210286132991,24.15998655371368,0 121.6211675852537,24.16007766500115,0 121.6216795518994,24.16000281460583,0 121.6219565737993,24.16005277074873,0 121.6222676262259,24.15998512879014,0 121.6222391277552,24.15995101444423,0 121.6222952026874,24.16000910103321,0 121.6224364377558,24.15993173606694,0 121.6225222684443,24.15995210409164,0 121.6225868929178,24.16002192534506,0 121.6225809417665,24.16008453816175,0 121.6226790100336,24.16009887121618,0 121.6227782517672,24.16019978933036,0 121.6229479853064,24.16012845933437,0 121.6229216661304,24.16007045656443,0 121.6231339797378,24.16020724922419,0 121.6232335567474,24.16010683402419,0 121.6232348140329,24.16006391867995,0 121.6231509950012,24.16002276353538,0 121.6232069861144,24.16007791645825,0 121.623274711892,24.16005872189999,0 121.6230828501284,24.16000650264323,0 121.6230851132423,24.15997289121151,0 121.6231392603368,24.16003768332303,0 121.6233171243221,24.16004707105458,0 121.6232223249972,24.1600215062499,0 121.6232594568282,24.15998219512403,0 121.6231416910887,24.16003776714206,0 121.6232038009912,24.16004824452102,0 121.6231947485358,24.16009853594005,0 121.623277394101,24.15969369001687,0 121.6230815090239,24.1596419736743,0 121.6232250910252,24.15957391262054,0 121.6232028789818,24.15947115048766,0 121.6232869494706,24.15949461981654,0 121.6232566069812,24.1593864094466,0 121.6234027035534,24.15956737473607,0 121.6234778054059,24.15958154015243,0 121.623642090708,24.15975420735776,0 121.6240192763507,24.1599924210459,0 121.6241614334285,24.16000658646226,0 121.624207617715,24.1599215939641,0 121.6241808794439,24.1599697060883,0 121.6242585796863,24.15999946184456,0 121.6240561567247,24.15995746850967,0 121.6244300734252,24.15999510325491,0 121.6244208533317,24.15983081795275,0 121.6244727373123,24.15991304442286,0 121.6245789360255,24.15993198752403,0 121.6246406268328,24.16004522703588,0 121.6249466501176,24.16021965444088,0 121.6248919162899,24.16024530306458,0 121.6249091830105,24.16029660031199,0 121.6250167228281,24.16026131249964,0 121.624945057556,24.16034521535039,0 121.6251682676375,24.16039961390197,0 121.6250706184655,24.16046222671866,0 121.6251502465457,24.16049349121749,0 121.6250193212181,24.16055048815906,0 121.6251305490732,24.1606293618679,0 121.625063996762,24.16063346900046,0 121.6250777430832,24.16073547676206,0 121.6252263542265,24.16080295108259,0 121.6253846045583,24.16077621281147,0 121.6253112629056,24.16077948175371,0 121.6253429464996,24.16079046204686,0 121.6253134422004,24.16081929579377,0 121.6254040505737,24.16086439043283,0 121.6252772323787,24.16088207624853,0 121.6253348998725,24.16089942678809,0 121.6252798307687,24.16093337349594,0 121.6253499034792,24.16094854474068,0 121.6253723669797,24.16104418225586,0 121.6259326972067,24.1611719224602,0 121.625967817381,24.16111459024251,0 121.6259245667607,24.16110310703516,0 121.6260346211493,24.16112112812698,0 121.6261562425643,24.16105683892965,0 121.6264201048762,24.16110008955002,0 121.6265055164695,24.16107033379376,0 121.6263558156788,24.16117527522147,0 121.6263522114605,24.16123210452497,0 121.6261933743954,24.16130184195936,0 121.6261849086732,24.16136093437672,0 121.626506773755,24.16138633154333,0 121.6266643535346,24.16133201681077,0 121.6264479327947,24.16147635318339,0 121.6264421492815,24.16157023049891,0 121.6263427399099,24.16160468012094,0 121.6262344457209,24.16177843697369,0 121.6260322742164,24.16190022602677,0 121.6261301748455,24.16191003285348,0 121.6259032767266,24.16191682219505,0 121.6258082259446,24.16195630095899,0 121.6258311085403,24.1619991324842,0 121.62568224594,24.16197759099305,0 121.6254896298051,24.1621529404074,0 121.6254000272602,24.16230699978769,0 121.625492144376,24.16236525401473,0 121.6256312839687,24.16231906972826,0 121.6258088126779,24.16263381019235,0 121.6259486228228,24.16259533725679,0 121.6260667238384,24.16248804889619,0 121.6261705756187,24.16251252405345,0 121.6261349525303,24.16254320181906,0 121.6262067854404,24.16258377023041,0 121.6261666361243,24.16256398893893,0 121.6260540671647,24.1626431979239,0 121.625988939777,24.16259843856096,0 121.6260212101042,24.16262836195529,0 121.6259898617864,24.16258787736297,0 121.6260479483753,24.16258393786848,0 121.6259774565697,24.16257362812757,0 121.6260322742164,24.16259391233325,0 121.625996902585,24.16265300475061,0 121.6261082980782,24.16259869001806,0 121.6260533966124,24.16262953542173,0 121.6259535681456,24.16253339499235,0 121.6260236408561,24.16253188624978,0 121.6259873472154,24.16246793232858,0 121.6260552406311,24.16244496591389,0 121.6259601898491,24.16244622319937,0 121.6261167638004,24.16278015822172,0 121.6260342858732,24.16264772415161,0 121.6261072084308,24.16274428367615,0 121.6261039394885,24.16269449517131,0 121.6261733416468,24.16269608773291,0 121.6261564940214,24.16279952041805,0 121.6262568254024,24.16287059895694,0 121.6263644490391,24.16288987733424,0 121.626483220607,24.16279415600002,0 121.6264110524207,24.16287939995527,0 121.6265505272895,24.16296355426311,0 121.6266049258411,24.1629505623132,0 121.6266025789082,24.1630353871733,0 121.626689163968,24.16303027421236,0 121.6265910118818,24.16308098472655,0 121.6265920177102,24.1631387360394,0 121.6266543790698,24.16317427530885,0 121.6269448958337,24.16300320066512,0 121.6268985439092,24.16303278878331,0 121.6269183252007,24.16310537606478,0 121.6271613165736,24.16299515403807,0 121.6270373482257,24.16310135275126,0 121.6275069862604,24.162971181795,0 121.6273374203593,24.16309322230518,0 121.6273374203593,24.16320445016026,0 121.6274554375559,24.16313404217362,0 121.6274203173816,24.16326672770083,0 121.6273292060941,24.1633218806237,0 121.6273217462003,24.16328399442136,0 121.6273189801723,24.16337661445141,0 121.6274022962898,24.16341114789248,0 121.6274157073349,24.1634875908494,0 121.6275215707719,24.16346579790115,0 121.6275027114898,24.16343185119331,0 121.6275755502284,24.16345397941768,0 121.627553338185,24.16348122060299,0 121.6274811699986,24.16348750703037,0 121.6275016218424,24.16344517841935,0 121.6274739615619,24.16347401216626,0 121.6274052299559,24.16341156698763,0 121.6273783240467,24.16345423087478,0 121.6274565272033,24.16342187672853,0 121.6273861192167,24.16333445347846,0 121.6274669207633,24.16322314180434,0 121.6274273581803,24.16310923174024,0 121.6273431200534,24.16316589340568,0 121.6273924894631,24.16307277046144,0 121.6275189723819,24.16299716569483,0 121.6273537650704,24.16294955648482,0 121.6271062474698,24.16302097029984,0 121.62712007761,24.16296313516796,0 121.6270005516708,24.16300705634058,0 121.6269604861736,24.16297973133624,0 121.6268678661436,24.16302314959466,0 121.6268268786371,24.16311350651085,0 121.6267879027873,24.16301828809083,0 121.6267806943506,24.16307562030852,0 121.6267243679613,24.16308836080134,0 121.6266699694097,24.1629574354738,0 121.6266042552888,24.16302055120468,0 121.6265921853483,24.16291259229183,0 121.6265210229903,24.16287370026112,0 121.6265547182411,24.16284277103841,0 121.6264610923827,24.16281888261437,0 121.6265035048127,24.16279734112322,0 121.62632714957,24.16281653568149,0 121.62617912516,24.16274017654359,0 121.6261624451727,24.16265233419836,0 121.626073345542,24.16267362423241,0 121.6260785423219,24.16258628480136,0 121.6262336075306,24.16251755319536,0 121.6261215414852,24.16233549825847,0 121.6261041071266,24.16237724013627,0 121.6259982436895,24.16238729842007,0 121.625954657793,24.16250062175095,0 121.6258503869176,24.16255317628384,0 121.625864636153,24.16260254569352,0 121.6256425157189,24.16227950714529,0 121.6254896298051,24.16227766312659,0 121.6256178729236,24.16216869838536,0 121.6256840899587,24.16201623156667,0 121.6257791407406,24.16196870617568,0 121.6259115748107,24.16197658516467,0 121.6260568331927,24.16186762042344,0 121.6261273249984,24.16190911084414,0 121.6261961404234,24.16187239810824,0 121.6262292489409,24.16179059073329,0 121.6263579111546,24.16172596625984,0 121.6263548936695,24.1616780217737,0 121.6264289896935,24.16165597736835,0 121.62652538158,24.16148984804749,0 121.6266031656414,24.161446262151,0 121.6266345139593,24.16128113865852,0 121.6261994093657,24.16124383918941,0 121.6263934504241,24.16121257469058,0 121.6265283152461,24.1610767878592,0 121.6264922730625,24.16104233823717,0 121.6262330207974,24.16098525747657,0 121.6259291768074,24.16099280118942,0 121.6258788853884,24.16105147451162,0 121.625383682549,24.16097930632532,0 121.6253353189677,24.16090688668191,0 121.6253929026425,24.16085148230195,0 121.6253093350679,24.16078811511397,0 121.6253224108368,24.16071779094636,0 121.6253814194351,24.16073019616306,0 121.6252415254712,24.16061762720346,0 121.6250904835761,24.16065149009228,0 121.6251440439373,24.16064310818911,0 121.6250212490559,24.16051176376641,0 121.6251467261463,24.16052324697375,0 121.6251689381897,24.16048049926758,0 121.6250931657851,24.16041570715606,0 121.6251634899527,24.16036843322217,0 121.6250142082572,24.16023331694305,0 121.6249329037964,24.16022066026926,0 121.6250145435333,24.16023725643754,0 121.6248779185116,24.16015276685357,0 121.6249018069357,24.16012929752469,0 121.6248218435794,24.16000306606293,0 121.6247611586004,24.16005587205291,0 121.624640962109,24.16001069359481,0 121.624548509717,24.15990038774908,0 121.6244506090879,24.15990851819515,0 121.624405849725,24.15981522761285,0 121.6244329232723,24.15997448377311,0 121.6243468411267,24.15999887511134,0 121.6242312546819,24.15994489565492,0 121.6240651253611,24.15997532196343,0 121.6237094812095,24.15979351848364,0 121.6234955750406,24.15955857373774,0 121.6232659108937,24.15948699228466,0 121.6233425214887,24.15966200642288,0 121.6232613008469,24.15973283350468,0 121.6232392564416,24.16007246822119,0 121.6231356561184,24.16019174270332,0 121.6230418626219,24.16010607965291,0 121.6227350849658,24.16013650596142,0 121.6224212665111,24.15989535860717,0 121.6223053447902,24.16000708937645,0 121.6219787020236,24.16007808409631,0 121.6218027658761,24.15999024175107,0 121.6210686787963,24.16002066805959,0 121.6213068924844,24.16006417013705,0 121.6214541625232,24.16002477519214,0 121.62129515782,24.1598819475621,0 121.6210234165192,24.15984112769365,0 121.6213336307555,24.15989074856043,0 121.6216422524303,24.15984154678881,0 121.6217509657145,24.15976133197546,0 121.6211931500584,24.15960593149066,0 121.6210254281759,24.159622695297,0 121.6213199682534,24.15957910940051,0 121.621149815619,24.15946821682155,0 121.6211167071015,24.15933083742857,0 121.6214164439589,24.1592410672456,0 121.6213300265372,24.15919915772974,0 121.6217937972397,24.15897804312408,0 121.6217715013772,24.15891182608902,0 121.6219753492624,24.15895826183259,0 121.6218005865812,24.15888659656048,0 121.6217085532844,24.15864846669137,0 121.6217352915555,24.15866321884096,0 121.6216215491295,24.15863840840757,0 
		</coordinates>
	</LineString>
	<atom:link rel="app" href="https://www.google.com/earth/about/versions/#earth-pro" title="Google Earth Pro 7.3.7.1155"></atom:link>
</Placemark>
</kml>
