<?xml version="1.0" encoding="UTF-8"?>
<kml xmlns="http://www.opengis.net/kml/2.2" xmlns:gx="http://www.google.com/kml/ext/2.2" xmlns:kml="http://www.opengis.net/kml/2.2" xmlns:atom="http://www.w3.org/2005/Atom">
<Placemark>
	<name>Track</name>
	<Style>
		<LineStyle>
			<color>ff0000ff</color>
			<width>3</width>
		</LineStyle>
	</Style>
	<LineString>
		<tessellate>1</tessellate>
		<coordinates>
			175.8418147824705,-38.03593539632857,0 175.841467352584,-38.03599155507982,0 175.8410964533687,-38.03612901829183,0 175.8406298328191,-38.0363929644227,0 175.8403643779457,-38.03642288781703,0 175.8402884379029,-38.03661148063838,0 175.8402577601373,-38.03703409619629,0 175.8400209713727,-38.03733626380563,0 175.8399481326342,-38.03751152940094,0 175.8398330491036,-38.03759182803333,0 175.8398370724171,-38.03771428763866,0 175.8392338268459,-38.03761454299092,0 175.839255200699,-38.0376366712153,0 175.8392441365868,-38.03760062903166,0 175.8392245229334,-38.03764362819493,0 175.838945992291,-38.03747615776956,0 175.838427990675,-38.03738462738693,0 175.8384383842349,-38.03748772479594,0 175.8384499512613,-38.03743944503367,0 175.8384187705815,-38.03746978752315,0 175.8381026890129,-38.03740273229778,0 175.8378881961107,-38.03728588856757,0 175.8375710248947,-38.03706946782768,0 175.837524253875,-38.03698221221566,0 175.8375594578683,-38.03697760216892,0 175.8374663349241,-38.03692513145506,0 175.8373509999365,-38.03695145063102,0 175.8372971881181,-38.03684315644205,0 175.8370165619999,-38.03665934130549,0 175.8370448090136,-38.03635097108781,0 175.8370678592473,-38.03628953173757,0 175.8371698670089,-38.03631350398064,0 175.8371643349528,-38.03625902161002,0 175.83705117926,-38.03609197027981,0 175.8369132131338,-38.03605106659234,0 175.8365970477462,-38.03607017733157,0 175.8364180102944,-38.03614377044141,0 175.8362222928554,-38.03614217787981,0 175.8362020924687,-38.03617930971086,0 175.8359664771706,-38.03610890172422,0 175.8360110688955,-38.03616237826645,0 175.8358828257769,-38.03623345680535,0 175.8357231505215,-38.03612382151186,0 175.8357672393322,-38.03610311821103,0 175.8358753658831,-38.03617268800735,0 175.8357723522931,-38.03613631054759,0 175.8357909601182,-38.03610286675394,0 175.8356520719826,-38.03609222173691,0 175.8355319593102,-38.0362222250551,0 175.835338672623,-38.03625835105777,0 175.8350290451199,-38.03622499108315,0 175.8349857944995,-38.03614335134625,0 175.8349189907312,-38.03616958670318,0 175.8349070884287,-38.03613094612956,0 175.8346552960575,-38.03609901107848,0 175.8344326727092,-38.03616053424776,0 175.8341818023473,-38.03640084341168,0 175.8340274076909,-38.03633864969015,0 175.8340610191226,-38.03636094555259,0 175.8340520504862,-38.03654551506042,0 175.8338015154004,-38.03681474179029,0 175.8333333861083,-38.03775946609676,0 175.8327404502779,-38.03797488100827,0 175.8322936110198,-38.03799633868039,0 175.8320775255561,-38.03808367811143,0 175.8320338558406,-38.03811670280993,0 175.8320312574506,-38.03830889984965,0 175.831812992692,-38.03841996006668,0 175.8311199769378,-38.03835307247937,0 175.8312135189772,-38.03830646909773,0 175.8311346452683,-38.03825207054615,0 175.8309664204717,-38.03824821487069,0 175.8310022950172,-38.03817227482796,0 175.8309468068182,-38.03808594122529,0 175.8309799153358,-38.03800849243999,0 175.8310462161899,-38.03801494650543,0 175.831030709669,-38.03806314244866,0 175.831139171496,-38.03803699091077,0 175.8310960046947,-38.0380700994283,0 175.8309966791421,-38.03802777081728,0 175.8310462161899,-38.03801000118256,0 175.8310056477785,-38.0377624835819,0 175.831073122099,-38.03769048303366,0 175.8310851920396,-38.0375378485769,0 175.831263391301,-38.03750624880195,0 175.8310380857438,-38.03726828657091,0 175.8310152869672,-38.03714540787041,0 175.8310459647328,-38.0371720623225,0 175.8310300391167,-38.03713115863502,0 175.8310758881271,-38.03710333071649,0 175.8310204837471,-38.0370996426791,0 175.8310689311475,-38.03711808286607,0 175.8310795761645,-38.03707835264504,0 175.8310919813812,-38.03712177090347,0 175.8310430310667,-38.0370840523392,0 175.8310086652637,-38.0371358525008,0 175.8310892991722,-38.03713979199529,0 175.8310697693378,-38.03709520027041,0 175.831141686067,-38.03714716807008,0 175.8310400974005,-38.03713962435722,0 175.8310262672603,-38.03710207343102,0 175.8310921490192,-38.03710701875389,0 175.8310658298433,-38.03708799183369,0 175.8310183044523,-38.03714976646006,0 175.8306707069278,-38.03698296658695,0 175.8304529450834,-38.03700593300164,0 175.8302056789398,-38.03693795576692,0 175.8292674925178,-38.0368972197175,0 175.8292413409799,-38.03696863353252,0 175.8291717711836,-38.03694818168879,0 175.8292531594634,-38.03687995299697,0 175.8292861003429,-38.03690392524004,0 175.8290933165699,-38.0369614250958,0 175.8289768081158,-38.03695555776358,0 175.8289442025125,-38.03691205568612,0 175.829233713448,-38.03696033544838,0 175.8290153648704,-38.03695262409747,0 175.8289235830307,-38.03719854913652,0 175.8288578689098,-38.03725621663034,0 175.8282895758748,-38.03732159547508,0 175.8278464246541,-38.03719494491816,0 175.8277065306902,-38.03721372038126,0 175.8275256492198,-38.0369405541569,0 175.827494552359,-38.03680183365941,0 175.8277613483369,-38.03649304434657,0 175.8282457385212,-38.0362481251359,0 175.828527873382,-38.03585015237331,0 175.828226627782,-38.0353535246104,0 175.828020432964,-38.0351719725877,0 175.8274077158421,-38.03492923267186,0 175.827296487987,-38.03467375226319,0 175.8271288499236,-38.03444903343916,0 175.8270881138742,-38.03421107120812,0 175.8268961682916,-38.03398123942316,0 175.8264767378569,-38.03380899131298,0 175.8257302455604,-38.03333256393671,0 175.8254949655384,-38.03326886147261,0 175.8253259863704,-38.03308848291636,0 175.8250723499805,-38.03293978795409,0 175.8251062128693,-38.032894609496,0 175.8249980863184,-38.03295529447496,0 175.8247902989388,-38.03297792561352,0 175.8245406020433,-38.03293702192605,0 175.8242775779217,-38.03272236138582,0 175.8240273781121,-38.0324093811214,0 175.823332183063,-38.03228692151606,0 175.8232213743031,-38.03194393403828,0 175.8227072283626,-38.03170815110207,0 175.8223625645041,-38.03133255802095,0 175.8223173860461,-38.03103265352547,0 175.8224025461823,-38.03098336793482,0 175.822348902002,-38.03072855807841,0 175.8223450463265,-38.03027182817459,0 175.822298694402,-38.0302023421973,0 175.8221758995205,-38.03004241548479,0 175.8215488493443,-38.02952424623072,0 175.8212797902524,-38.02907656878233,0 175.8210946340114,-38.02895679138601,0 175.8208522293717,-38.02857876755297,0 175.8203730359674,-38.02836410701275,0 175.8200113568455,-38.02844239398837,0 175.8196077682078,-38.02872830070555,0 175.819354550913,-38.02884556353092,0 175.818828670308,-38.02878177724779,0 175.818736217916,-38.028644900769,0 175.8187802229077,-38.02843149751425,0 175.8187278360128,-38.02823938429356,0 175.8184465393424,-38.02797325886786,0 175.8180151227862,-38.02770939655602,0 175.8179041463882,-38.02733732387424,0 175.8177883923054,-38.02727018482983,0 175.8174965344369,-38.02726926282048,0 175.8172781858593,-38.02718963474035,0 175.8166779577732,-38.02708846516907,0 175.8164834976196,-38.02695192396641,0 175.8163478784263,-38.02668806165457,0 175.816452652216,-38.02618112415075,0 175.8163590263575,-38.02557528018951,0 175.8161446172744,-38.02515702322125,0 175.8161588665098,-38.02510765381157,0 175.8160623069853,-38.02498754113913,0 175.8160345628858,-38.02482065744698,0 175.8160735387355,-38.02472091279924,0 175.8163197152317,-38.02466140128672,0 175.816312758252,-38.02455796860158,0 175.8162292744964,-38.02444841712713,0 175.816085441038,-38.02440734580159,0 175.8160894643515,-38.02448722533882,0 175.8158225007355,-38.02463474683464,0 175.8153674472123,-38.02473742514849,0 175.814983220771,-38.0245762411505,0 175.8145653828979,-38.02427968941629,0 175.8143479563296,-38.02379379048944,0 175.8142070565373,-38.02361777052283,0 175.8142000157386,-38.02350511774421,0 175.8142919652164,-38.02313991822302,0 175.8142874389887,-38.02296197041869,0 175.8143732696772,-38.02284521050751,0 175.8145401533693,-38.02280237898231,0 175.814737631008,-38.02262904122472,0 175.8145861700177,-38.02256894297898,0 175.8142283465713,-38.02256785333157,0 175.8137830998749,-38.02240792661905,0 175.8137044776231,-38.02232435904443,0 175.8135395217687,-38.02185958251357,0 175.8137582056224,-38.02124418318272,0 175.8135714568198,-38.02085903473198,0 175.8136047329754,-38.02043717354536,0 175.8137577027082,-38.02015176974237,0 175.8135366719216,-38.01983987912536,0 175.8132298104465,-38.01980752497911,0 175.81314121373,-38.01975547336042,0 175.8130685426295,-38.01979411393404,0 175.8130862284452,-38.01969562657177,0 175.8132314030081,-38.01978908479214,0 175.8132711332291,-38.01976008340716,0 175.8134332392365,-38.01985152997077,0 175.8132678642869,-38.01974038593471,0 175.8132192492485,-38.01974239759147,0 175.8133956883103,-38.01984348334372,0 175.8136358298361,-38.01989511586726,0 175.8137672580779,-38.0200672801584,0 175.8137681800872,-38.02019049413502,0 175.8136048167944,-38.02054136060178,0 175.813574641943,-38.02082642912865,0 175.8137256000191,-38.02127217873931,0 175.8135031443089,-38.02171767689288,0 175.813474142924,-38.0218874104321,0 175.8136456366628,-38.02235218696296,0 175.8140773884952,-38.02255108952522,0 175.8144808094949,-38.02254790440202,0 175.814716340974,-38.02262451499701,0 175.8145695738494,-38.02279852330685,0 175.8143687434494,-38.02291159518063,0 175.8142177853733,-38.02324645221233,0 175.8142216410488,-38.02360268309712,0 175.8144668955356,-38.02399193868041,0 175.8145853318274,-38.02432989701629,0 175.8153179939836,-38.0247231759131,0 175.815456463024,-38.02469216287136,0 175.8160550985485,-38.02437876351178,0 175.8162404224277,-38.02445470355451,0 175.8163124229759,-38.02454380318522,0 175.8163319528103,-38.02464555948973,0 175.8160939905792,-38.02476190030575,0 175.8160664979368,-38.02483515813947,0 175.8161313738674,-38.02528006955981,0 175.8162823319435,-38.02548710256815,0 175.8162754587829,-38.02557293325663,0 175.8163378201425,-38.0256431736052,0 175.8163464535028,-38.02590938284993,0 175.8164067193866,-38.0259991530329,0 175.8163804002106,-38.02663508802652,0 175.8164312783629,-38.02682770416141,0 175.8166009280831,-38.02701964974403,0 175.817198054865,-38.02712107077241,0 175.8173784334213,-38.0272251740098,0 175.8177705388516,-38.02725937217474,0 175.8179548569024,-38.02741318009794,0 175.8178977761418,-38.02758995443583,0 175.8179903961718,-38.02776002325118,0 175.8185098227113,-38.02808457054198,0 175.8186713419855,-38.02823904901743,0 175.8187223877758,-38.02833921276033,0 175.8187196217477,-38.02866158075631,0 175.8188608568162,-38.02880449220538,0 175.8194146491587,-38.02880935370922,0 175.8200448006392,-38.02839956246316,0 175.8202826790512,-38.02832571789622,0 175.8205250836909,-38.02851875312626,0 175.8207801450044,-38.02862444892526,0 175.8213112223893,-38.02917614579201,0 175.8214595820755,-38.0295115057379,0 175.8223359100521,-38.03032807074487,0 175.8223023824394,-38.03090298548341,0 175.8223680127412,-38.03101404570043,0 175.8224241714925,-38.03100247867405,0 175.8223239239305,-38.03118361160159,0 175.8223348204046,-38.03125083446503,0 175.8224012050778,-38.03128888830543,0 175.8224621415138,-38.0314820073545,0 175.822589378804,-38.03162877447903,0 175.8231461048126,-38.03191585466266,0 175.823239479214,-38.03223461844027,0 175.8233115635812,-38.03230184130371,0 175.823924029246,-38.03236981853843,0 175.8240412920713,-38.03244953043759,0 175.824254527688,-38.03275597281754,0 175.8243779931217,-38.03284708410501,0 175.8247177116573,-38.03296945989132,0 175.8246986847371,-38.03300600498915,0 175.8249433524907,-38.03291690535843,0 175.825068494305,-38.03293325006962,0 175.8254250604659,-38.03327615372837,0 175.8256222866476,-38.03331714123487,0 175.8259413857013,-38.03354152478278,0 175.8268337231129,-38.0339686665684,0 175.8269760478288,-38.03411073982716,0 175.8269649837166,-38.03430461324751,0 175.8272371441126,-38.03484189324081,0 175.8274619467556,-38.03492059931159,0 175.8274917863309,-38.03499243222177,0 175.8279809542,-38.03515353240073,0 175.828266274184,-38.03549576550722,0 175.8284769114107,-38.03583799861372,0 175.8284548670053,-38.03593631833792,0 175.8282014820725,-38.03624477237463,0 175.8274698257446,-38.0366937071085,0 175.8274398185313,-38.03676554001868,0 175.8274747710675,-38.03702982142568,0 175.8276885095984,-38.03720852360129,0 175.8286454714835,-38.03734380751848,0 175.828924421221,-38.0372257065028,0 175.8290601242334,-38.03695832379162,0 175.8291339688003,-38.03693560883403,0 175.8298403117806,-38.03700584918261,0 175.8302676212043,-38.03692328743637,0 175.8308410272002,-38.0370996426791,0 175.8310124371201,-38.03719460964203,0 175.8312384132296,-38.03741740062833,0 175.8308677654713,-38.03808409720659,0 175.8309301268309,-38.03819540888071,0 175.8310686796904,-38.03830646909773,0 175.8312281034887,-38.03835391066968,0 175.8318406529725,-38.03839146159589,0 175.8319728355855,-38.03830412216485,0 175.8321079518646,-38.03809130564332,0 175.8324942737818,-38.03801821544766,0 175.8326853811741,-38.03804118186235,0 175.8328629098833,-38.0379094183445,0 175.8331524208188,-38.03782568313181,0 175.8332846872509,-38.03773096762598,0 175.8334352262318,-38.03753701038659,0 175.8337967377156,-38.03683946840465,0 175.8341132383794,-38.03652036935091,0 175.8343390468508,-38.03616832941771,0 175.8344851434231,-38.03608803078532,0 175.8347244467586,-38.03613857366145,0 175.8351987786591,-38.03635876625776,0 175.8354462962598,-38.03628944791853,0 175.8358315285295,-38.03628651425242,0 175.836416753009,-38.03606070578098,0 175.8369641751051,-38.03603354841471,0 175.8370436355472,-38.03612683899701,0 175.836995607242,-38.03632356226444,0 175.8372986130416,-38.03682890720665,0 175.8377177920192,-38.03709821775556,0 175.8380770403892,-38.03740809671581,0 175.8389102853835,-38.03752988576889,0 175.839337259531,-38.03764681331813,0 175.8396972622722,-38.03758537396789,0 175.839961040765,-38.03744849748909,0 175.8402373082936,-38.03706770762801,0 175.8403280843049,-38.03663260303438,0 175.8404106460512,-38.03651567548513,0 175.8406590856612,-38.03646027110517,0 175.8412152249366,-38.03613086231053,0 175.8419027086347,-38.03593480959535,0 175.8421032037586,-38.03581771440804,0 
		</coordinates>
	</LineString>
	<atom:link rel="app" href="https://www.google.com/earth/about/versions/#earth-pro" title="Google Earth Pro 7.3.7.1155"></atom:link>
</Placemark>
</kml>
