<?xml version="1.0" encoding="UTF-8"?>
<kml xmlns="http://www.opengis.net/kml/2.2" xmlns:gx="http://www.google.com/kml/ext/2.2" xmlns:kml="http://www.opengis.net/kml/2.2" xmlns:atom="http://www.w3.org/2005/Atom">
<Document>
	<name>track.kml</name>
	<Style id="style">
		<LineStyle>
			<color>ff0000ff</color>
			<width>4</width>
		</LineStyle>
	</Style>
	<Style id="style0">
		<LineStyle>
			<color>ff0000ff</color>
			<width>4</width>
		</LineStyle>
	</Style>
	<StyleMap id="stylemap_id0">
		<Pair>
			<key>normal</key>
			<styleUrl>#style</styleUrl>
		</Pair>
		<Pair>
			<key>highlight</key>
			<styleUrl>#style0</styleUrl>
		</Pair>
	</StyleMap>
	<Placemark>
		<name>track</name>
		<styleUrl>#stylemap_id0</styleUrl>
		<MultiGeometry>
			<LineString>
				<coordinates>
					-6.272226003929973,57.25055499002337,104.44 -6.272415015846491,57.25051098503172,104.92 -6.272476958110929,57.25049103610218,104.44 -6.272729001939297,57.25037897005677,105.88 -6.27275699749589,57.25036296062171,105.88 -6.272795973345637,57.2503359708935,105.88 -6.272773006930947,57.25034896284342,105.4 -6.272787004709244,57.25033001974225,104.92 -6.272765966132283,57.25030998699367,105.4 -6.272754985839129,57.25030101835728,105.4 -6.272744005545974,57.25029297173023,105.4 -6.272700000554323,57.25028299726546,106.84 -6.272708969190717,57.25028400309384,106.84 -6.272725984454155,57.2503000125289,106.84 -6.272738976404071,57.25030998699367,106.84 -6.272762026637793,57.25030596368015,106.84 -6.272753980010748,57.25029900670052,107.32 -6.272727996110916,57.25031300447881,107.32 -6.272826986387372,57.25025701336563,106.36 -6.272759009152651,57.25029096007347,107.32 -6.272753980010748,57.25027997978032,106.84 -6.27273503690958,57.25030696950853,107.32 -6.272721961140633,57.25029297173023,107.32 -6.272740988060832,57.25032599642873,107.32 -6.2727340310812,57.25034100003541,107.32 -6.272717015817761,57.2503600269556,107.32 -6.272600004449487,57.25042901001871,106.84 -6.272593969479203,57.25043999031186,107.32 -6.27258600667119,57.25045298226178,107.32 -6.272493973374367,57.25050603970885,106.36 -6.272451980039477,57.25050796754658,105.88 -6.272408980876207,57.25050603970885,105.4 -6.272305967286229,57.25050796754658,104.92 -6.27226104028523,57.25051500834525,104.44 -6.272246036678553,57.25052196532488,104.92 -6.272218963131309,57.2505209594965,105.4 -6.272193985059857,57.25052800029516,104.92 -6.272158026695252,57.25054300390184,103.96 -6.272144028916955,57.25055297836661,104.44 -6.272088959813118,57.25056898780167,104.44 -6.272054007276893,57.25062397308648,105.4 -6.272028023377061,57.25066596642137,105.4 -6.271990975365043,57.25065800361335,105.88 -6.271982006728649,57.25066303275526,106.36 -6.271889973431826,57.25066496059299,103.48 -6.271882010623813,57.25065196864307,102.52 -6.271886033937335,57.25065196864307,104.44 -6.271878993138671,57.25065196864307,104.92 -6.271878993138671,57.25065196864307,101.08 -6.271878993138671,57.25065196864307,101.08 -6.271872036159039,57.25065196864307,103.96 -6.271872036159039,57.25065196864307,100.11 -6.271872958168387,57.25065297447145,103.48 -6.271872958168387,57.25065297447145,103.48 -6.271872958168387,57.25065297447145,103 -6.271872958168387,57.25065297447145,106.36 -6.271872958168387,57.25065297447145,102.04 -6.271872958168387,57.25065297447145,105.88 -6.271872958168387,57.25065297447145,101.56 -6.271872958168387,57.25065297447145,103.48 -6.271870024502277,57.25065004080534,100.11 -6.271870024502277,57.25065004080534,104.92 -6.271870024502277,57.25065004080534,104.44 -6.271847980096936,57.2506470233202,102.52 -6.271824007853866,57.25064098834991,103 -6.2715769931674,57.25063595920801,99.63000000000001 -6.271552015095949,57.25063998252153,100.6 -6.271527037024498,57.25064601749182,100.6 -6.271507004275918,57.25065096281469,100.11 -6.27149099484086,57.25065699778497,100.6 -6.271464005112648,57.25066001527011,99.63000000000001 -6.271436009556055,57.25066303275526,99.15000000000001 -6.271343976259232,57.25067501887679,97.23 -6.271328972652555,57.25067200139165,97.70999999999998 -6.271311035379767,57.25067300722003,97.23 -6.271292008459568,57.25067401304841,96.27 -6.271273987367749,57.25066496059299,95.31 -6.27125303260982,57.25065699778497,95.31 -6.271021021530032,57.25060997530818,94.34999999999999 -6.271014986559749,57.25060502998531,92.90000000000001 -6.270928988233209,57.25060201250017,95.79000000000001 -6.270906021818519,57.25060201250017,94.34999999999999 -6.270862016826868,57.25058499723673,91.94 -6.270706029608846,57.25054903887212,91.94 -6.270689014345408,57.25054400973022,91.45999999999999 -6.270669987425208,57.25053797475994,90.98 -6.270628999918699,57.25053403526545,90.98 -6.270604021847248,57.25053797475994,90.98 -6.270580971613526,57.25053596310318,91.45999999999999 -6.270469995215535,57.25052900612354,90.02 -6.270364969968796,57.25050997920334,88.09999999999999 -6.270338986068964,57.25050897337496,88.58 -6.270212000235915,57.25050000473857,88.58 -6.270193979144096,57.25050897337496,87.62 -6.270178975537419,57.25051601417363,86.66 -6.270155003294349,57.25052003748715,86.18000000000001 -6.270130025222898,57.2505259886384,85.69 -6.270109992474318,57.25053202360868,86.18000000000001 -6.270091971382499,57.2505310177803,86.18000000000001 -6.270066993311048,57.2505259886384,83.77 -6.270004967227578,57.25052498281002,84.25 -6.269913017749786,57.25050402805209,82.81 -6.269894996657968,57.25049698725343,82.33 -6.269854009151459,57.25048298947513,82.81 -6.269831964746118,57.25048399530351,83.29000000000001 -6.269811009988189,57.25048298947513,82.33 -6.26979298889637,57.25047896616161,80.89 -6.269773961976171,57.25047502666712,80.89 -6.269755018875003,57.25046798586845,81.84999999999999 -6.269738003611565,57.25046102888882,81.84999999999999 -6.269615041092038,57.25042004138231,78 -6.269591990858316,57.25041501224041,78 -6.269571036100388,57.25039900280535,76.56 -6.26955502666533,57.25038601085544,77.04000000000001 -6.269529964774847,57.2503740247339,77.04000000000001 -6.269510015845299,57.25036698393524,76.56 -6.269307006150484,57.25033697672188,77.04000000000001 -6.269142972305417,57.25033496506512,74.16 -6.268872991204262,57.25029003806412,70.31 -6.268855975940824,57.25028299726546,70.31 -6.268844995647669,57.25027696229517,68.87 -6.268815994262695,57.25025500170887,67.43000000000001 -6.268677022308111,57.25017000921071,64.55 -6.268663024529815,57.25016104057431,65.51000000000001 -6.2686119787395,57.25009398534894,65.51000000000001 -6.268535032868385,57.24999298341572,63.58 -6.268515000119805,57.24999499507248,63.58 -6.268501002341509,57.25000103004277,64.55 -6.268493961542845,57.25001201033592,63.58 -6.268490022048354,57.25002299062908,63.58 -6.268458003178239,57.25005500949919,61.66 -6.268437970429659,57.25005500949919,62.61999999999999 -6.268410980701447,57.25006096065044,62.14 -6.268403017893434,57.25005802698433,62.14 -6.268381979316473,57.25006397813559,62.14 -6.268368987366557,57.25004302337766,62.14 -6.268382985144854,57.25008602254093,62.61999999999999 -6.268392959609628,57.25009197369218,62.61999999999999 -6.268413998186588,57.25014695897698,62.14 -6.26843998208642,57.25016900338233,62.61999999999999 -6.268444005399942,57.25016598589718,61.66 -6.268429001793265,57.2502030339092,63.58 -6.268425984308124,57.25021996535361,64.06999999999999 -6.268432019278407,57.2502339631319,63.58 -6.268462026491761,57.25023798644543,63.58 -6.268476024270058,57.25022901780903,63.09999999999999 -6.268476024270058,57.25022901780903,62.14 -6.26843897625804,57.2502669878304,63.58 -6.268470995128155,57.25030696950853,63.58 -6.268470995128155,57.25030403584242,64.06999999999999 -6.268456997349858,57.25030998699367,64.55 -6.268488010391593,57.25031501613557,63.09999999999999 -6.268488010391593,57.25031501613557,63.09999999999999 -6.268497984856367,57.25031501613557,64.06999999999999 -6.268447022885084,57.25025801919401,64.06999999999999 -6.268423972651362,57.25020898506045,63.58 -6.26841701567173,57.25019498728216,64.06999999999999 -6.268421038985252,57.25014695897698,64.55 -6.26843897625804,57.25015198811889,63.09999999999999 -6.268435958772898,57.25015399977565,62.61999999999999 -6.268402012065053,57.25011100061238,62.61999999999999 -6.268350966274738,57.2500959970057,63.58 -6.268365969881415,57.25007797591388,63.58 -6.268278965726495,57.25005903281271,64.06999999999999 -6.268225992098451,57.25005400367081,65.51000000000001 -6.2681819871068,57.25005098618567,64.55 -6.268050977960229,57.25005601532757,65.51000000000001 -6.26800898462534,57.25004696287215,64.55 -6.2679039593786,57.2500079870224,65.51000000000001 -6.267849979922175,57.24998996593058,64.06999999999999 -6.267672032117844,57.24994202144444,64.06999999999999 -6.2676000315696,57.24992701783776,66.47 -6.267554014921188,57.249925006181,65.51000000000001 -6.267512021586299,57.24990799091756,63.58 -6.26751302741468,57.24990497343242,65.03 -6.26751302741468,57.24990497343242,64.55 -6.267490983009338,57.24990899674594,65.51000000000001 -6.267447983846068,57.24990698508918,66.95 -6.267400039359927,57.24990002810955,65.98999999999999 -6.267205998301506,57.24987396039069,64.06999999999999 -6.267047999426723,57.24982400424778,64.06999999999999 -6.267010029405356,57.24982501007617,63.58 -6.266883965581656,57.24981503561139,64.55 -6.266739964485169,57.24980598315597,65.98999999999999 -6.266694031655788,57.24980195984244,65.51000000000001 -6.266603004187346,57.24978896789253,65.03 -6.266455985605717,57.24972300231457,65.98999999999999 -6.266438970342279,57.24971897900105,66.95 -6.266401000320911,57.24969500675797,66.47 -6.266348026692867,57.24968897178769,68.39 -6.266218023374677,57.24968402646482,68.39 -6.266120038926601,57.24968696013093,66.95 -6.26611802726984,57.24968603812158,67.91 -6.266042003408074,57.24968100897968,68.87 -6.265970002859831,57.24968302063644,68.39 -6.265976959839463,57.2496710345149,65.98999999999999 -6.265971008688211,57.249591993168,65.03 -6.265970002859831,57.24953700788319,70.79000000000001 -6.265970002859831,57.24953700788319,67.91 -6.265971008688211,57.24953499622643,67.43000000000001 -6.265971008688211,57.24953499622643,67.43000000000001 -6.265912000089884,57.24959098733962,67.43000000000001 -6.26590495929122,57.24960800260305,67.91 -6.265896996483207,57.24964597262442,68.87 -6.265832958742976,57.2496800031513,68.87 -6.265751989558339,57.24970003589988,68.39 -6.265554009005427,57.24977396428585,68.87 -6.26538603566587,57.24981302395463,69.34999999999999 -6.265305988490582,57.24984596483409,69.83 -6.265267012640834,57.24987697787583,69.34999999999999 -6.265116976574063,57.24992098286748,68.87 -6.265035001561046,57.24991100840271,67.43000000000001 -6.264926958829165,57.24990698508918,68.39 -6.264878008514643,57.24989801645279,69.34999999999999 -6.264770971611142,57.24990002810955,68.87 -6.264746999368072,57.24989097565413,68.87 -6.264715986326337,57.24989701062441,69.83 -6.264661001041532,57.24991402588785,71.76000000000001 -6.264627976343036,57.24991695955396,71.27 -6.264510964974761,57.24992701783776,72.23999999999999 -6.264457991346717,57.24993598647416,72.23999999999999 -6.264454973861575,57.24993498064578,69.34999999999999 -6.264454973861575,57.24993498064578,69.83 -6.264454973861575,57.24993498064578,72.23999999999999 -6.264454973861575,57.24993498064578,68.87 -6.264454973861575,57.24993498064578,70.31 -6.264411974698305,57.24994000978768,71.27 -6.26420795917511,57.24995099008083,71.27 -6.263936972245574,57.24987898953259,71.76000000000001 -6.263921968638897,57.24987203255296,72.23999999999999 -6.263833958655596,57.2498700208962,70.31 -6.263781990855932,57.24988100118935,66.95 -6.263767993077636,57.24988401867449,70.31 -6.263724993914366,57.24988301284611,70.31 -6.263586021959782,57.24987396039069,71.76000000000001 -6.263446966186166,57.24984998814762,70.79000000000001 -6.263416036963463,57.24986599758267,71.27 -6.263425005599856,57.24982501007617,70.79000000000001 -6.263425005599856,57.24982501007617,73.68000000000001 -6.263430034741759,57.24982199259102,70.31 -6.263407990336418,57.24981998093426,72.23999999999999 -6.263306988403201,57.24982601590455,71.27 -6.263168016448617,57.24978402256966,72.23999999999999 -6.262941034510732,57.24976097233593,73.68000000000001 -6.262869033962488,57.2497489862144,73.68000000000001 -6.262787980958819,57.24972400814295,73.2 -6.262683961540461,57.24970397539437,73.68000000000001 -6.262571979314089,57.2496990300715,78 -6.262405011802912,57.2497489862144,73.2 -6.262267967686057,57.24981000646949,73.68000000000001 -6.262174006551504,57.2498369961977,74.16 -6.262087002396584,57.24986599758267,74.64 -6.262087002396584,57.24986599758267,75.59999999999999 -6.262046014890075,57.24986599758267,74.64 -6.262053977698088,57.24986901506782,73.68000000000001 -6.262053977698088,57.24986901506782,75.59999999999999 -6.262053977698088,57.24986901506782,74.16 -6.262038974091411,57.24988896399736,73.2 -6.262024976313114,57.24990002810955,72.23999999999999 -6.262026987969875,57.24989600479603,72.72 -6.26203696243465,57.24989499896765,72.72 -6.262027993798256,57.24989499896765,74.16 -6.262026987969875,57.24989399313927,78 -6.262023970484734,57.24989600479603,73.68000000000001 -6.261990023776889,57.24989198148251,73.68000000000001 -6.261933026835322,57.24990899674594,73.68000000000001 -6.261913999915123,57.24993196316063,74.16 -6.261889021843672,57.24994202144444,73.68000000000001 -6.261794976890087,57.24995501339436,74.16 -6.261660028249025,57.25000698119402,74.64 -6.261576041579247,57.25004402920604,75.12 -6.261530024930835,57.25007797591388,76.56 -6.261480990797281,57.25011602975428,76.56 -6.261436985805631,57.25014997646213,75.12 -6.261375965550542,57.25020102225244,75.59999999999999 -6.261360961943865,57.25023304112256,76.08 -6.261344030499458,57.25024896673858,75.12 -6.261316034942865,57.25025701336563,75.12 -6.261245962232351,57.25029699504375,75.59999999999999 -6.261100033298135,57.25036296062171,75.12 -6.261017974466085,57.25038902834058,77.04000000000001 -6.26089601777494,57.25042297504842,76.56 -6.26070499420166,57.25046102888882,76.08 -6.26068496145308,57.25046698004007,76.56 -6.260649003088474,57.25046698004007,76.56 -6.260413974523544,57.25052003748715,75.12 -6.260393019765616,57.25051098503172,75.59999999999999 -6.260367035865784,57.25049396976829,75.59999999999999 -6.260281037539244,57.25048500113189,77.04000000000001 -6.260229991748929,57.25050101056695,77.52 -6.26003704033792,57.25055499002337,77.52 -6.259982977062464,57.25056395865977,77.04000000000001 -6.259951964020729,57.25057996809483,78.97 -6.25980100594461,57.25060603581369,78.97 -6.259796982631087,57.25061299279332,78 -6.259714001789689,57.25061098113656,79.45 -6.259675025939941,57.25062003359199,78 -6.259603025391698,57.25062397308648,79.45 -6.259442009031773,57.25063503719866,79.45 -6.259198011830449,57.25066303275526,77.52 -6.259075971320272,57.25064903497696,77.04000000000001 -6.259032972157002,57.25062397308648,73.2 -6.259022997692227,57.25062003359199,76.56 -6.258947979658842,57.25060301832855,76.08 -6.258915960788727,57.25059296004474,77.04000000000001 -6.258829040452838,57.25057200528681,76.56 -6.258732983842492,57.25054903887212,76.56 -6.25857699662447,57.25050201639533,77.04000000000001 -6.2585339974612,57.25049698725343,76.08 -6.258497033268213,57.25048298947513,74.64 -6.258450010791421,57.2504379786551,75.59999999999999 -6.258314978331327,57.25041400641203,74.16 -6.258305003866553,57.25040595978498,78.48 -6.258305003866553,57.25040595978498,75.12 -6.258305003866553,57.25040595978498,75.12 -6.258297963067889,57.25040503777564,78.48 -6.258297963067889,57.25040503777564,78.48 -6.258297963067889,57.25040503777564,76.56 -6.258229985833168,57.25040595978498,75.59999999999999 -6.258196961134672,57.25040101446211,75.59999999999999 -6.258094031363726,57.25036597810686,74.16 -6.258089002221823,57.25036497227848,75.59999999999999 -6.258086990565062,57.25036296062171,76.56 -6.258086990565062,57.25036296062171,75.59999999999999 -6.258058995008469,57.25036698393524,75.59999999999999 -6.258028987795115,57.25039196200669,75.59999999999999 -6.258022030815482,57.25043496116996,76.08 -6.258022030815482,57.25043496116996,76.08 -6.258043991401792,57.25041501224041,74.16 -6.258058995008469,57.25039103999734,74.16 -6.258116997778416,57.25036698393524,75.12 -6.258137030526996,57.250368995592,73.2 -6.258137030526996,57.250368995592,73.68000000000001 -6.258113980293274,57.25036798976362,74.64 -6.258027981966734,57.25038902834058,75.59999999999999 -6.257992023602128,57.25039900280535,75.12 -6.257898984476924,57.2503499686718,78.48 -6.257843999192119,57.25034703500569,78.97 -6.257807034999132,57.25035298615694,80.41 -6.257777027785778,57.25033898837864,79.45 -6.257728999480605,57.25032800808549,80.89 -6.2576740141958,57.2503549978137,79.45 -6.257587010040879,57.25037201307714,80.89 -6.257471004500985,57.25040998309851,80.41 -6.257423982024193,57.25040403194726,80.41 -6.257430016994476,57.25040503777564,79.93000000000001 -6.257434040307999,57.25040595978498,79.93000000000001 -6.257432028651238,57.25040897727013,78.97 -6.257432028651238,57.25040897727013,80.41 -6.257432028651238,57.25042599253356,81.84999999999999 -6.257404033094645,57.25043001584709,81.37 -6.257258020341396,57.25041802972555,81.37 -6.257222983986139,57.25042498670518,82.33 -6.257151989266276,57.25040897727013,82.81 -6.257116030901671,57.25041903555393,82.81 -6.256898017600179,57.25038198754191,84.73 -6.256801960989833,57.25034301169217,85.69 -6.256761979311705,57.25032297894359,86.66 -6.256616972386837,57.25031099282205,87.14 -6.256510019302368,57.25030202418566,87.14 -6.256293011829257,57.2502720169723,88.09999999999999 -6.256253030151129,57.25026103667915,87.14 -6.256124032661319,57.25021300837398,88.09999999999999 -6.255909958854318,57.25023597478867,90.02 -6.25589101575315,57.25023304112256,90.02 -6.2558279838413,57.25023597478867,90.98 -6.255788002163172,57.25022499449551,91.45999999999999 -6.255684988573194,57.2502030339092,92.90000000000001 -6.255646012723446,57.25016296841204,92.42 -6.255644001066685,57.25011100061238,92.42 -6.255632014945149,57.25009197369218,93.39 -6.255627991631627,57.25007403641939,92.90000000000001 -6.255588009953499,57.24999097175896,93.39 -6.255559008568525,57.24993296898901,95.79000000000001 -6.255522966384888,57.24988996982574,96.27 -6.255566971376538,57.24985904060304,95.31 -6.255546016618609,57.24982400424778,94.34999999999999 -6.255548028275371,57.24980195984244,95.79000000000001 -6.255576023831964,57.2497540153563,95.79000000000001 -6.255516009405255,57.24976499564946,96.75 -6.255560014396906,57.24976197816432,96.27 -6.255560014396906,57.24976197816432,97.23 -6.255564037710428,57.24976097233593,96.27 -6.255576023831964,57.24977002479136,96.27 -6.255576023831964,57.24977002479136,97.70999999999998 -6.255550039932132,57.2497680131346,95.31 -6.255538975819945,57.24976600147784,96.27 -6.255542999133468,57.24976600147784,94.83 -6.255544004961848,57.24978402256966,96.27 -6.255521038547158,57.2498039714992,96.75 -6.255510980263352,57.24979399703443,96.27 -6.25546102412045,57.24979902617633,96.27 -6.25546102412045,57.24979902617633,97.23 -6.25546102412045,57.24980103783309,96.27 -6.255466975271702,57.24981402978301,97.23 -6.255472004413605,57.24981696344912,97.23 -6.255564037710428,57.2498420253396,96.27 -6.255570994690061,57.2498420253396,96.27 -6.255611982196569,57.24986599758267,96.27 -6.25565598718822,57.24987102672458,97.23 -6.255659004673362,57.24984596483409,93.87 -6.255656993016601,57.24984303116798,95.31 -6.255673002451658,57.24983800202608,93.39 -6.255670990794897,57.24983297288418,91.94 -6.255670990794897,57.24978796206415,91.45999999999999 -6.255644001066685,57.24977597594261,91.45999999999999 -6.255639977753162,57.24977497011423,91.45999999999999 -6.255677025765181,57.24976197816432,91.45999999999999 -6.255709966644645,57.24974798038602,90.02 -6.255707032978535,57.24975099787116,89.54000000000001 -6.255697980523109,57.24974798038602,90.5 -6.255694041028619,57.24979600869119,89.06 -6.255678031593561,57.24977396428585,88.58 -6.255685994401574,57.24977002479136,90.02 -6.255695968866348,57.24975896067917,89.06 -6.255729999393225,57.24973901174963,90.02 -6.255722958594561,57.24973901174963,91.94 -6.255742991343141,57.24975602701306,92.42 -6.255683982744813,57.24975803866982,94.34999999999999 -6.255696974694729,57.24978402256966,94.83 -6.255680965259671,57.24983096122742,97.23 -6.255642995238304,57.24985199980438,98.66999999999999 -6.255634026601911,57.24987396039069,101.08 -6.255617011338472,57.24987697787583,100.11 -6.255515003576875,57.24990002810955,101.56 -6.255495976656675,57.24990103393793,102.52 -6.255480973049998,57.24990103393793,101.56 -6.255433028563857,57.24988896399736,100.6 -6.25541802495718,57.24988301284611,101.56 -6.255392041057348,57.24988100118935,102.04 -6.255237981677055,57.24983096122742,103.48 -6.2551389914006,57.24981201812625,104.44 -6.255057016387582,57.24979902617633,103.96 -6.255046958103776,57.24979500286281,104.92 -6.254960037767887,57.24980103783309,105.88 -6.254855012521148,57.24981101229787,107.32 -6.254835985600948,57.24981402978301,107.32 -6.254798015579581,57.24983397871256,107.32 -6.254757028073072,57.24979299120605,107.32 -6.254658037796617,57.24978997372091,107.81 -6.254598023369908,57.24980497732759,109.73 -6.25451697036624,57.24983498454094,110.69 -6.25445201061666,57.2498229984194,111.17 -6.254356037825346,57.24981402978301,111.65 -6.254261992871761,57.24980195984244,112.61 -6.254227962344885,57.24977899342775,113.57 -6.254174988716841,57.24975996650755,114.53 -6.254128972068429,57.24976499564946,115.01 -6.254029981791973,57.24972400814295,113.57 -6.253968961536884,57.24972903728485,113.57 -6.253923028707504,57.24971797317266,114.05 -6.253879023715854,57.24970900453627,115.01 -6.253883969038725,57.2497159615159,115.01 -6.253939960151911,57.24974303506315,114.53 -6.254030987620354,57.24974798038602,116.46 -6.254030987620354,57.24974798038602,115.98 -6.254025958478451,57.24975300952792,111.17 -6.254025958478451,57.24975300952792,115.01 -6.254025958478451,57.24975300952792,110.21 -6.254025958478451,57.24975300952792,114.53 -6.254002992063761,57.24974596872926,112.61 -6.253985976800323,57.24973398260772,114.05 -6.253934009000659,57.24972601979971,114.53 -6.253771986812353,57.2496990300715,115.98 -6.253624968230724,57.24966198205948,115.5 -6.2535709887743,57.24963398650289,116.94 -6.253536036238074,57.24962803535163,117.42 -6.253410978242755,57.24961403757334,116.94 -6.253354987129569,57.2496110200882,119.34 -6.253325985744596,57.24961495958269,118.38 -6.25329396687448,57.24961697123945,119.34 -6.25329396687448,57.24961697123945,117.42 -6.253294972702861,57.24960196763277,116.46 -6.253288015723229,57.24958897568285,115.98 -6.253276029601693,57.24959501065314,117.9 -6.253230012953281,57.24961403757334,119.82 -6.253216015174985,57.24961403757334,119.82 -6.253138985484839,57.24960196763277,119.82 -6.253063967451453,57.24962996318936,121.26 -6.253027003258467,57.24962702952325,121.26 -6.252953996881843,57.24959501065314,122.22 -6.252812007442117,57.24958897568285,124.63 -6.252793986350298,57.24958101287484,125.11 -6.252728020772338,57.24957397207618,125.11 -6.252694996073842,57.24956701509655,124.63 -6.25249701552093,57.24958696402609,124.63 -6.252357037737966,57.24958796985447,125.59 -6.252269027754664,57.24958503618836,126.07 -6.252146987244487,57.24960498511791,126.55 -6.252078004181385,57.24958403035998,126.55 -6.251994017511606,57.249591993168,127.03 -6.251871977001429,57.24958998151124,127.51 -6.251823026686907,57.24958696402609,127.99 -6.251768041402102,57.24957003258169,127.51 -6.251611970365048,57.24953901953995,127.99 -6.251607025042176,57.24953399039805,127.51 -6.251522032544017,57.24948302842677,128.47 -6.251536030322313,57.24947397597134,126.55 -6.251517003402114,57.24945603869855,128.47 -6.251426981762052,57.24944204092026,129.92 -6.251395968720317,57.24943600594997,129.92 -6.251261020079255,57.24938001483679,130.88 -6.251190025359392,57.24934003315866,131.36 -6.2511430028826,57.24929803982377,131.36 -6.251199999824166,57.2493139654398,131.36 -6.251235036179423,57.24931597709656,131.36 -6.251270994544029,57.24930801428854,130.88 -6.251270994544029,57.24931103177369,129.92 -6.251255990937352,57.24930298514664,129.92 -6.251203017309308,57.24930298514664,132.32 -6.251129005104303,57.24929099902511,133.28 -6.251078965142369,57.24929401651025,135.2 -6.251063039526343,57.24928999319673,132.32 -6.251049041748047,57.24928496405482,132.8 -6.251022974029183,57.24927800707519,133.76 -6.250953990966082,57.24926099181175,133.28 -6.250814013183117,57.24924699403346,135.2 -6.250791968777776,57.2492550406605,135.2 -6.250658025965095,57.24928001873195,134.72 -6.250621983781457,57.24928203038871,134.72 -6.250555012375116,57.24928898736835,134.24 -6.250494997948408,57.24928203038871,135.2 -6.250468008220196,57.24928798153996,135.68 -6.250451998785138,57.24928898736835,134.72 -6.250462979078293,57.2492859698832,133.28 -6.250472031533718,57.24928303621709,134.24 -6.250445963814855,57.24930801428854,136.16 -6.250257035717368,57.24933299236,136.64 -6.250188974663615,57.24933500401676,137.13 -6.250060983002186,57.24932704120874,138.09 -6.249981019645929,57.24929602816701,137.61 -6.249910024926066,57.24926501512527,137.13 -6.2498530279845,57.24922603927553,136.64 -6.249834001064301,57.24921204149723,138.09 -6.249768035486341,57.24923903122544,138.09 -6.249689999967814,57.24925998598337,139.05 -6.249564019963145,57.24928798153996,139.53 -6.249521020799875,57.24929803982377,140.01 -6.249487996101379,57.24932100623846,140.01 -6.249419013038278,57.24936501123011,140.01 -6.249247016385198,57.24937599152327,141.45 -6.249196976423264,57.24937498569489,140.49 -6.249194964766502,57.24934196099639,141.93 -6.249183984473348,57.24934699013829,140.97 -6.249174010008574,57.24933902733028,141.93 -6.249154983088374,57.24932301789522,139.05 -6.249154983088374,57.24932301789522,140.01 -6.249136961996555,57.24931798875332,143.37 -6.249120030552149,57.24930801428854,142.89 -6.249068984761834,57.24926702678204,143.85 -6.249009976163507,57.24924003705382,143.37 -6.248920038342476,57.24919402040541,144.34 -6.248891036957502,57.24919896572828,144.34 -6.248782994225621,57.24919703789055,144.82 -6.248719040304422,57.24917700514197,145.3 -6.248662965372205,57.24913702346385,147.22 -6.248552994802594,57.24913199432194,146.74 -6.248446041718125,57.2491340059787,148.18 -6.248265998438001,57.24913601763546,148.18 -6.248196009546518,57.24914398044348,147.22 -6.248256023973227,57.24913300015032,148.66 -6.248250994831324,57.24914004094899,150.58 -6.248246971517801,57.2491429746151,149.62 -6.248133983463049,57.24915596656501,150.1 -6.248095007613301,57.24916300736368,150.58 -6.247971039265394,57.24915697239339,151.06 -6.247817985713482,57.249148003757,150.1 -6.247638026252389,57.24914599210024,150.58 -6.247397968545556,57.24908396601677,151.54 -6.247334014624357,57.24907197989523,151.06 -6.24708297662437,57.24905102513731,151.06 -6.246944004669786,57.24905303679407,152.03 -6.246833028271794,57.24906099960208,152.03 -6.246606968343258,57.24908698350191,150.58 -6.246461039409041,57.24909704178572,151.54 -6.246431032195687,57.24909201264381,151.06 -6.246303962543607,57.24908798933029,151.54 -6.246082009747624,57.24908798933029,152.51 -6.245820997282863,57.24904398433864,153.95 -6.245725024491549,57.24903602153063,153.47 -6.245561996474862,57.24900802597404,152.99 -6.245431993156672,57.24900199100375,153.47 -6.24538698233664,57.24900601431727,154.43 -6.24519201926887,57.24897298961878,154.91 -6.245152959600091,57.24895999766886,153.95 -6.245165029540658,57.24895496852696,153.47 -6.245109038427472,57.24894097074866,153.47 -6.245115995407105,57.24894097074866,152.03 -6.245113983750343,57.24892596714199,152.03 -6.245119012892246,57.24892496131361,151.06 -6.245095040649176,57.24891901016235,150.58 -6.245095040649176,57.24891901016235,150.58 -6.245096968486905,57.24892303347588,150.58 -6.24508598819375,57.24892596714199,150.1 -6.245080959051848,57.24892303347588,151.06 -6.245094034820795,57.24892303347588,150.58 -6.245090011507273,57.24891096353531,151.06 -6.245075007900596,57.24891699850559,151.54 -6.245075007900596,57.24891699850559,151.06 -6.245091017335653,57.2489030007273,151.06 -6.245082970708609,57.24890400655568,151.06 -6.245104009285569,57.24889202043414,151.54 -6.245099985972047,57.24889101460576,150.1 -6.245104009285569,57.24889101460576,150.1 -6.245096968486905,57.24889302626252,150.58 -6.24508498236537,57.24888699129224,150.1 -6.245072996243835,57.24888196215034,151.06 -6.245078025385737,57.2488750051707,148.18 -6.245074002072215,57.24887198768556,150.58 -6.245066961273551,57.24887601099908,151.54 -6.245086994022131,57.24886301904917,150.1 -6.245078025385737,57.2488699760288,150.1 -6.245080959051848,57.24887802265584,153.47 -6.245081964880228,57.24889503791928,151.06 -6.24506201595068,57.24890501238406,151.06 -6.245081964880228,57.24888003431261,150.58 -6.245081964880228,57.24888003431261,151.06 -6.245089005678892,57.24888003431261,152.03 -6.245089005678892,57.24888003431261,151.54 -6.245090011507273,57.24888104014099,151.06 -6.245086994022131,57.24889503791928,152.03 -6.245090011507273,57.24889696575701,153.47 -6.245090011507273,57.24889696575701,154.91 -6.245177015662193,57.24892496131361,155.39 -6.245110966265202,57.2489719837904,156.83 -6.245110966265202,57.24897399544716,156.35 -6.245108032599092,57.24895999766886,157.31 -6.24521498568356,57.24899000488222,156.83 -6.24534398317337,57.24901598878205,156.35 -6.245440039783716,57.24901397712529,155.87 -6.245459988713265,57.24901498295367,155.39 -6.245517991483212,57.24901297129691,154.91 -6.245596027001739,57.24902403540909,156.35 -6.245777998119593,57.24904499016702,154.43 -6.245920993387699,57.24907801486552,155.39 -6.245938008651137,57.24907801486552,155.87 -6.24602903611958,57.24909704178572,153.95 -6.246068011969328,57.24909997545183,153.95 -6.246249983087182,57.24908203817904,152.99 -6.24635299667716,57.24909402430058,152.99 -6.246451986953616,57.24908597767353,153.47 -6.246620966121554,57.24906301125884,153.47 -6.246749041602016,57.24905798211694,152.99 -6.246875021606684,57.24904197268188,152.99 -6.247009970247746,57.24905597046018,152.51 -6.247160006314516,57.24905395880342,152.03 -6.247263019904494,57.24908002652228,151.54 -6.247270982712507,57.24908203817904,152.03 -6.247479021549225,57.24912101402879,151.06 -6.247630985453725,57.24914699792862,152.51 -6.247669039294124,57.24914599210024,152.51 -6.247718995437026,57.24912302568555,150.1 -6.247710026800633,57.24910399876535,150.1 -6.247779009863734,57.24908798933029,149.62 -6.247744979336858,57.24905898794532,149.14 -6.247724024578929,57.24905798211694,149.62 -6.24770600348711,57.24903903901577,150.1 -6.247709020972252,57.24903702735901,150.1 -6.247650012373924,57.24903199821711,149.62 -6.247630985453725,57.2490459959954,149.14 -6.247649006545544,57.24905203096569,150.58 -6.24768496491015,57.24901800043881,150.1 -6.247732993215323,57.24897801876068,150.1 -6.24768203124404,57.24899897351861,148.18 -6.24768203124404,57.24899897351861,148.66 -6.247674990445375,57.24900500848889,149.62 -6.247701980173588,57.24899696186185,149.14 -6.24764196574688,57.24901900626719,147.7 -6.24764196574688,57.24901800043881,147.7 -6.24764196574688,57.24901800043881,147.7 -6.247666021808982,57.24902504123747,147.22 -6.247713966295123,57.24904398433864,147.7 -6.247673984616995,57.24902596324682,147.22 -6.247650012373924,57.24903199821711,147.7 -6.24763903208077,57.24903702735901,147.22 -6.247637020424008,57.24903602153063,146.74 -6.247654035687447,57.24904499016702,148.18 -6.24763903208077,57.24903702735901,147.22 -6.24763903208077,57.24903702735901,148.18 -6.247573988512158,57.24904499016702,148.18 -6.247573988512158,57.24904499016702,148.18 -6.247552027925849,57.24907298572361,146.74 -6.247552027925849,57.24907298572361,146.74 -6.24755303375423,57.24907298572361,146.74 -6.24755403958261,57.24907298572361,146.74 -6.247611958533526,57.24908497184515,146.26 -6.247678007930517,57.24899503402412,146.74 -6.247632997110486,57.24902302958071,145.78 -6.247658981010318,57.24903702735901,146.26 -6.247658981010318,57.24903602153063,147.7 -6.247673984616995,57.24903300404549,146.74 -6.247657975181937,57.24902898073196,146.74 -6.247634002938867,57.24903199821711,146.26 -6.247686976566911,57.24906703457236,147.22 -6.247731987386942,57.24910198710859,150.1 -6.247738022357225,57.24910601042211,150.1 -6.247783033177257,57.24912503734231,151.54 -6.247867019847035,57.24912998266518,147.7 -6.247922005131841,57.24914599210024,149.14 -6.247965004295111,57.24915001541376,150.1 -6.248098025098443,57.24915202707052,148.66 -6.24824495986104,57.24911598488688,145.78 -6.248275972902775,57.24911598488688,148.18 -6.248300028964877,57.24911397323012,147.7 -6.248341016471386,57.24911003373563,146.74 -6.248476970940828,57.24911598488688,146.26 -6.248561041429639,57.24911699071527,145.3 -6.248604962602258,57.24912696518004,145.3 -6.248719040304422,57.24916803650558,144.34 -6.248767990618944,57.24918496794999,143.85 -6.248858012259007,57.24918999709189,140.49 -6.248896988108754,57.24918304011226,142.89 -6.248896988108754,57.24918304011226,141.45 -6.248896988108754,57.24918304011226,143.85 -6.24895297922194,57.24918999709189,141.45 -6.248992038890719,57.24917801097035,142.89 -6.248987009748817,57.24918496794999,143.85 -6.248980974778533,57.24918496794999,143.85 -6.248902017250657,57.24917499348521,145.78 -6.248902017250657,57.24917499348521,145.3 -6.248886007815599,57.24917298182845,142.41 -6.248850971460342,57.24917097017169,140.49 -6.248809983953834,57.24916300736368,138.57 -6.248810989782214,57.24916602484882,139.05 -6.248837979510427,57.24917197600007,140.49 -6.248843008652329,57.24916996434331,139.53 -6.248843008652329,57.24916996434331,140.49 -6.248848037794232,57.24916996434331,139.05 -6.248847031965852,57.2491670306772,139.05 -6.248847031965852,57.2491670306772,140.01 -6.248847031965852,57.2491670306772,140.01 -6.248867986723781,57.24918496794999,140.01 -6.248871004208922,57.24922696128488,140.01 -6.249580029398203,57.24935302510858,139.53 -6.248981980606914,57.2492500115186,140.49 -6.248937975615263,57.24921799264848,140.01 -6.248902017250657,57.24921103566885,141.45 -6.248861029744148,57.24920198321342,141.45 -6.248919032514095,57.24918999709189,142.41 -6.248954990878701,57.24919502623379,142.41 -6.249011987820268,57.24921899847686,142.41 -6.249021962285042,57.2492309845984,142.41 -6.249026991426945,57.24924498237669,142.41 -6.249067978933454,57.24928798153996,142.41 -6.24912497587502,57.24930700846016,139.05 -6.249140985310078,57.24930700846016,139.53 -6.249178033322096,57.24931002594531,141.45 -6.249194964766502,57.2493139654398,141.93 -6.249332008883357,57.24931295961142,138.57 -6.249363021925092,57.24933299236,137.13 -6.249390011653304,57.24934497848153,139.53 -6.249422030523419,57.24932997487485,137.61 -6.249520014971495,57.24926501512527,138.09 -6.24953200109303,57.24925797432661,137.13 -6.249582041054964,57.24925696849823,137.13 -6.24976996332407,57.24924095906317,135.2 -6.249796031042934,57.24924095906317,134.24 -6.249975990504026,57.24928697571158,134.72 -6.249998034909368,57.24929502233863,134.24 -6.250273967161775,57.24931203760207,133.76 -6.250314032658935,57.2493189945817,133.76 -6.250385027378798,57.24931103177369,134.72 -6.250485023483634,57.24930399097502,131.36 -6.250500027090311,57.2492999676615,133.76 -6.250617960467935,57.24927297793329,131.84 -6.250721979886293,57.24926501512527,131.36 -6.250861035659909,57.24924095906317,131.36 -6.250970000401139,57.24926501512527,131.84 -6.251025991514325,57.24926996044815,132.32 -6.251103021204472,57.24926702678204,129.92 -6.251193964853883,57.24931295961142,127.51 -6.251190025359392,57.24931698292494,128.47 -6.251236964017153,57.24933600984514,128.47 -6.251221038401127,57.24932896904647,128.47 -6.251193964853883,57.24929896183312,127.51 -6.251211985945702,57.24928496405482,128.47 -6.251240987330675,57.24927398376167,126.55 -6.251237969845533,57.24927498959005,127.51 -6.251237969845533,57.24927498959005,127.51 -6.251190025359392,57.24929703399539,127.99 -6.251199999824166,57.24932201206684,129.43 -6.251276023685932,57.24937297403812,127.99 -6.25146402977407,57.24944698624313,126.07 -6.251477021723986,57.2494569607079,126.07 -6.251504011452198,57.24947498179972,125.59 -6.251748008653522,57.24954103119671,124.63 -6.251969961449504,57.2495779953897,124.63 -6.252028970047832,57.24958101287484,124.63 -6.252353014424443,57.2495729662478,124.15 -6.252708993852139,57.24958503618836,123.67 -6.252935975790024,57.24959400482476,121.26 -6.25299297273159,57.2495970223099,119.82 -6.253116019070149,57.24959802813828,119.34 -6.253241999074817,57.2496110200882,116.94 -6.253348030149937,57.24958101287484,115.98 -6.253366973251104,57.24957598373294,116.46 -6.253428999334574,57.24957698956132,115.01 -6.253424976021051,57.24957397207618,114.05 -6.253372002393007,57.24952703341842,114.05 -6.253310982137919,57.24951697513461,115.01 -6.253288015723229,57.24949903786182,114.05 -6.253288015723229,57.24949903786182,115.01 -6.253476021811366,57.24955201148987,114.53 -6.253535030409694,57.2495729662478,114.53 -6.253664027899504,57.24964597262442,113.57 -6.253695962950587,57.24965703673661,109.73 -6.253695962950587,57.24965703673661,110.21 -6.253695962950587,57.24965703673661,113.09 -6.253718007355928,57.24967204034328,114.05 -6.253908025100827,57.24970699287951,114.53 -6.253991005942226,57.24971302784979,114.05 -6.254036016762257,57.24972702562809,112.61 -6.254110028967261,57.24974202923477,109.73 -6.254110028967261,57.24974202923477,110.69 -6.254212958738208,57.24976097233593,110.21 -6.254317983984947,57.24977396428585,108.29 -6.25438897870481,57.24979600869119,108.77 -6.254428960382938,57.24978997372091,107.32 -6.254426026716828,57.24978301674128,104.92 -6.254405993968248,57.24972300231457,106.36 -6.254399036988616,57.24972501397133,104.92 -6.254396019503474,57.24972501397133,106.36 -6.254457961767912,57.24977203644812,107.32 -6.254461985081434,57.24979701451957,106.84 -6.254529040306807,57.24979802034795,108.29 -6.254641022533178,57.24979399703443,106.36 -6.254691984504461,57.24980195984244,104.92 -6.254828022792935,57.24978603422642,103.48 -6.254871021956205,57.24979399703443,103 -6.254943022504449,57.24977899342775,103 -6.25503396615386,57.24979299120605,101.56 -6.255153995007277,57.24978603422642,100.11 -6.255195988342166,57.24979198537767,100.6 -6.255196994170547,57.24979701451957,100.11 -6.255258014425635,57.24979600869119,99.15000000000001 -6.25531098805368,57.24982601590455,98.66999999999999 -6.25539698638022,57.24986298009753,98.19 -6.255521960556507,57.24993598647416,96.75 -6.255562026053667,57.25001896731555,95.31 -6.255594966933131,57.25011896342039,95.31 -6.255638971924782,57.25018903613091,94.34999999999999 -6.255667973309755,57.2502030339092,93.87 -6.255727987736464,57.25022600032389,92.90000000000001 -6.255844999104738,57.25023798644543,91.45999999999999 -6.255894033238292,57.25021803751588,90.5 -6.256030993536115,57.2501980047673,90.5 -6.256100982427597,57.25023496896029,88.58 -6.256120009347796,57.25023597478867,87.14 -6.256120009347796,57.25023597478867,82.81 -6.256122021004558,57.25023899227381,83.77 -6.256122021004558,57.25023899227381,85.69 -6.256159991025925,57.25025399588048,89.54000000000001 -6.256252024322748,57.25028299726546,89.06 -6.256315978243947,57.25028702057898,88.58 -6.256349002942443,57.25029498338699,89.06 -6.25642997212708,57.25029397755861,83.77 -6.25642997212708,57.25029397755861,85.20999999999999 -6.256445981562138,57.25029498338699,88.09999999999999 -6.256484035402536,57.25030101835728,89.54000000000001 -6.256576990708709,57.25030998699367,87.14 -6.256753010675311,57.25031401030719,86.18000000000001 -6.256825011223555,57.25037503056228,85.20999999999999 -6.256864992901683,57.25039196200669,85.20999999999999 -6.257033972069621,57.25040595978498,84.25 -6.25707202591002,57.25040302611887,85.20999999999999 -6.257130028679967,57.25041501224041,83.29000000000001 -6.257207980379462,57.25040998309851,84.25 -6.257348963990808,57.25042004138231,82.81 -6.257410990074277,57.25040302611887,81.37 -6.257452983409166,57.25039598532021,83.29000000000001 -6.257534958422184,57.25037201307714,81.84999999999999 -6.257683988660574,57.25032297894359,78.48 -6.257736962288618,57.25031996145844,81.37 -6.257878029718995,57.25034100003541,78.97 -6.257971990853548,57.25038601085544,77.04000000000001 -6.25797500833869,57.25040503777564,77.04000000000001 -6.257971990853548,57.25040101446211,76.08 -6.257982971146703,57.25039699114859,76.08 -6.258076010271907,57.2503740247339,76.56 -6.258153039962053,57.25038601085544,77.52 -6.258153039962053,57.25038601085544,75.59999999999999 -6.258176006376743,57.25039103999734,77.04000000000001 -6.258201990276575,57.25040503777564,73.68000000000001 -6.258205007761717,57.25040302611887,76.56 -6.25821297056973,57.25040998309851,73.2 -6.258222023025155,57.25041400641203,77.04000000000001 -6.258310033008456,57.25042297504842,76.56 -6.258375998586416,57.25044200196862,77.04000000000001 -6.25840600579977,57.25045801140368,76.08 -6.258460991084576,57.2504760324955,77.52 -6.258484963327646,57.25049396976829,76.08 -6.258559981361032,57.2505119908601,78.97 -6.258601974695921,57.25051702000201,77.04000000000001 -6.258677998557687,57.25055197253823,77.52 -6.258824011310935,57.25057896226645,76.56 -6.259003970772028,57.2506139986217,76.56 -6.259074965491891,57.25063696503639,77.04000000000001 -6.259232964366674,57.25065004080534,78 -6.259255008772016,57.2506470233202,77.52 -6.259297002106905,57.25064601749182,78 -6.259340001270175,57.25064802914858,77.52 -6.259474027901888,57.25064098834991,78 -6.259611994028091,57.25063595920801,78 -6.259655999019742,57.25063696503639,78.48 -6.259709978476167,57.2506279964,78.48 -6.259794970974326,57.25061701610684,78 -6.259904019534588,57.25060704164207,74.16 -6.260018013417721,57.25057602860034,76.56 -6.260119015350938,57.25053898058832,78 -6.260127983987331,57.25054099224508,72.72 -6.260183975100517,57.25053202360868,77.04000000000001 -6.260272990912199,57.25050897337496,74.64 -6.260408023372293,57.25052800029516,75.59999999999999 -6.260568033903837,57.25049698725343,76.08 -6.260622013360262,57.25048198364675,77.04000000000001 -6.260824017226696,57.25044099614024,77.04000000000001 -6.260870033875108,57.25043496116996,78 -6.260917978361249,57.25042498670518,77.04000000000001 -6.261039013043046,57.2503880225122,72.72 -6.261029038578272,57.2503880225122,76.08 -6.261045970022678,57.25037603639066,76.56 -6.261045970022678,57.25037503056228,72.72 -6.261058961972594,57.25037503056228,76.08 -6.261072037741542,57.25036798976362,72.23999999999999 -6.2610690202564,57.25036296062171,76.08 -6.2610690202564,57.25036296062171,76.08 -6.261088969185948,57.25036698393524,75.59999999999999 -6.261113025248051,57.2503549978137,74.16 -6.261122999712825,57.25034896284342,75.59999999999999 -6.261169016361237,57.25033102557063,73.68000000000001 -6.261183014139533,57.25032398477197,73.2 -6.261365991085768,57.25022499449551,73.2 -6.261489959433675,57.25014402531087,73.2 -6.261588027700782,57.25006397813559,70.31 -6.261635972186923,57.25003900006413,72.72 -6.2616509757936,57.25003195926547,72.72 -6.261664973571897,57.25002299062908,71.76000000000001 -6.26173303462565,57.2500079870224,71.76000000000001 -6.261809980496764,57.2499749623239,74.64 -6.261834958568215,57.24996297620237,71.27 -6.262019025161862,57.24989499896765,70.79000000000001 -6.26212103292346,57.24987697787583,74.16 -6.262206025421619,57.24985300563276,73.2 -6.262328987941146,57.24979399703443,70.79000000000001 -6.262347009032965,57.24978603422642,70.79000000000001 -6.262389002367854,57.24975996650755,69.34999999999999 -6.262432001531124,57.2497489862144,71.27 -6.26246502622962,57.24972903728485,70.79000000000001 -6.262597963213921,57.24969098344445,72.72 -6.262804996222258,57.24974999204278,72.23999999999999 -6.263047987595201,57.24978796206415,70.31 -6.263168016448617,57.24980900064111,73.68000000000001 -6.263186959549785,57.24981696344912,73.2 -6.263271030038595,57.2498420253396,69.83 -6.263408996164799,57.24986700341105,67.91 -6.263661039993167,57.24988996982574,67.91 -6.263743015006185,57.24989499896765,67.43000000000001 -6.263858014717698,57.24988996982574,67.43000000000001 -6.263897996395826,57.24989801645279,68.39 -6.263942001387477,57.24990396760404,67.91 -6.264044009149075,57.24992701783776,67.43000000000001 -6.264121038839221,57.24994202144444,70.79000000000001 -6.264337040483952,57.24995099008083,69.83 -6.264457991346717,57.24993598647416,68.87 -6.264619007706642,57.24992400035262,68.39 -6.264911033213139,57.24991796538234,66.95 -6.264969035983086,57.24991695955396,66.47 -6.26508797518909,57.249925006181,65.51000000000001 -6.26519501209259,57.2499059792608,66.47 -6.265291990712285,57.24986800923944,65.98999999999999 -6.265328032895923,57.24985501728952,65.51000000000001 -6.265547974035144,57.24978796206415,65.03 -6.265698010101914,57.24975200369954,65.51000000000001 -6.265787025913596,57.24971202202141,65.51000000000001 -6.265933960676193,57.2496850322932,65.03 -6.266016019508243,57.24967597983778,65.03 -6.266281977295876,57.24968796595931,63.09999999999999 -6.266503008082509,57.2497299592942,62.61999999999999 -6.266561010852456,57.2497629839927,61.66 -6.266609039157629,57.24977899342775,61.18 -6.266640974208713,57.24979299120605,61.66 -6.266751028597355,57.24980497732759,61.18 -6.267027966678143,57.24982501007617,59.73999999999999 -6.267069038003683,57.24984596483409,58.3 -6.267143972218037,57.24986398592591,60.7 -6.26738402992487,57.24992198869586,60.7 -6.26755703240633,57.24992902949452,63.09999999999999 -6.267582010477781,57.2499390039593,61.66 -6.267784014344215,57.24998099729419,60.7 -6.267958022654057,57.25005299784243,61.66 -6.267976965755224,57.25005802698433,61.18 -6.268061958253384,57.25006196647882,60.22 -6.268140999600291,57.2500769700855,60.22 -6.268297992646694,57.2500769700855,58.78 -6.268316013738513,57.25007998757064,59.25999999999999 -6.268335962668061,57.25008996203542,58.78 -6.268363958224654,57.25010395981371,59.73999999999999 -6.268407963216305,57.25019096396863,59.73999999999999 -6.268410980701447,57.25024100393057,60.22 -6.268470995128155,57.25030898116529,61.18 -6.268472000956535,57.25031199865043,59.25999999999999 -6.268472000956535,57.25031199865043,62.14 -6.268476024270058,57.25030998699367,59.73999999999999 -6.268445011228323,57.25035198032856,60.7 -6.268470995128155,57.25036798976362,58.78 -6.268466971814632,57.25036296062171,58.78 -6.268467977643013,57.25034100003541,61.18 -6.268483987078071,57.25030696950853,61.66 -6.268410980701447,57.25021300837398,59.73999999999999 -6.268404023721814,57.25018601864576,60.22 -6.268391031771898,57.25010002031922,56.37 -6.268384996801615,57.25007303059101,57.34 -6.268407963216305,57.25005299784243,57.34 -6.26843897625804,57.25003003142774,57.82 -6.268513994291425,57.2499889601022,59.73999999999999 -6.268536960706115,57.25003296509385,60.7 -6.268550958484411,57.25008501671255,62.14 -6.268608039245009,57.2501290217042,62.14 -6.268642991781235,57.2501649800688,63.09999999999999 -6.268791016191244,57.25025600753725,64.55 -6.26880400814116,57.25026799365878,65.03 -6.268859999254346,57.25028702057898,65.51000000000001 -6.268871985375881,57.25030202418566,66.47 -6.268866034224629,57.25032499060035,66.47 -6.268814988434315,57.25034502334893,66.47 -6.268800990656018,57.25037695840001,67.91 -6.268814988434315,57.25037301890552,67.43000000000001 -6.268949015066028,57.25034896284342,68.87 -6.269080024212599,57.2503359708935,69.83 -6.269212039187551,57.2503499686718,71.27 -6.269356962293387,57.25034401752055,72.72 -6.269402978941798,57.25034301169217,73.2 -6.269528958946466,57.25036497227848,74.64 -6.269532982259989,57.250368995592,74.64 -6.269645970314741,57.25040797144175,76.08 -6.269692992791534,57.25043496116996,76.08 -6.269840011373162,57.25047896616161,78.48 -6.269950987771154,57.25051098503172,79.93000000000001 -6.270098006352782,57.25052196532488,79.93000000000001 -6.270189033821225,57.25049598142505,80.89 -6.270169001072645,57.2504900302738,80.89 -6.270292969420552,57.25050302222371,83.29000000000001 -6.270486004650593,57.25053001195192,84.73 -6.270639980211854,57.25054199807346,85.69 -6.270658001303673,57.25054602138698,85.69 -6.270817006006837,57.25058801472187,88.09999999999999 -6.270903004333377,57.25059798918664,89.06 -6.271079024299979,57.2506229672581,90.02 -6.271194024011493,57.25064098834991,91.45999999999999 -6.271322015672922,57.25064802914858,92.42 -6.271470040082932,57.25065498612821,94.34999999999999 -6.271607000380755,57.25066403858364,94.34999999999999 -6.271708002313972,57.25066303275526,95.79000000000001 -6.271770028397441,57.25066403858364,96.27 -6.271770028397441,57.25066403858364,96.27 -6.271848985925317,57.25067602470517,97.23 -6.271956022828817,57.25068599916995,99.15000000000001 -6.272054007276893,57.25068097002804,99.15000000000001 -6.272169006988406,57.25062900222838,99.15000000000001 -6.272090971469879,57.2505450155586,98.66999999999999 -6.272072028368712,57.25053001195192,98.66999999999999 -6.272079991176724,57.25053504109383,98.66999999999999 -6.272317031398416,57.25052699446678,99.15000000000001 -6.272352989763022,57.25051601417363,100.11 -6.272402023896575,57.25052003748715,100.6 -6.272560022771359,57.25049497559667,101.08 -6.272698994725943,57.25042297504842,100.6 -6.272722966969013,57.25040595978498,100.6 -6.272716009989381,57.25037695840001,100.6 -6.272753980010748,57.25031803362072,101.08 -6.272750962525606,57.25031401030719,100.6 -6.272742999717593,57.25031996145844,101.08 -6.272735958918929,57.25033001974225,100.6 -6.272731013596058,57.2503190394491,100.6 -6.272706035524607,57.25029397755861,100.6 -6.272690026089549,57.25029699504375,100.11 -6.272706035524607,57.25029699504375,101.08 -6.272706035524607,57.25029498338699,101.08 -6.272698994725943,57.25029196590185,101.08 -6.272697988897562,57.25029297173023,100.6 -6.272698994725943,57.25029297173023,100.6 -6.272696983069181,57.25029699504375,101.08 -6.27269103191793,57.2503000125289,102.04 -6.272678961977363,57.25029800087214,101.56 -6.272674016654491,57.25029699504375,102.04 -6.272666975855827,57.25029297173023,100.6 -6.272667981684208,57.25029096007347,99.63000000000001 -6.27269396558404,57.2503050416708,100.6 -6.272674016654491,57.25034703500569,100.6 -6.27256203442812,57.2504710033536,100.11 
				</coordinates>
			</LineString>
		</MultiGeometry>
		<atom:link rel="app" href="https://www.google.com/earth/about/versions/#earth-pro" title="Google Earth Pro 7.3.7.1155"></atom:link>
	</Placemark>
</Document>
</kml>
