<?xml version="1.0" encoding="UTF-8"?>
<kml xmlns="http://www.opengis.net/kml/2.2" xmlns:gx="http://www.google.com/kml/ext/2.2" xmlns:kml="http://www.opengis.net/kml/2.2" xmlns:atom="http://www.w3.org/2005/Atom">
<Placemark>
	<name>Track</name>
	<Style>
		<LineStyle>
			<color>ff0000ff</color>
			<width>3</width>
		</LineStyle>
	</Style>
	<LineString>
		<tessellate>1</tessellate>
		<coordinates>
			168.5478601790965,-45.06661844439805,0 168.5479189362377,-45.06665498949587,0 168.5478544794023,-45.06672631949186,0 168.5478734225035,-45.06679521873593,0 168.5481928568333,-45.0668554008007,0 168.5482321679592,-45.06679731421173,0 168.5480608418584,-45.06691214628518,0 168.5478757694364,-45.0669108889997,0 168.5478583350778,-45.06710300222039,0 168.5477652121335,-45.0672927685082,0 168.5478845704347,-45.06733635440469,0 168.5479494463652,-45.06753793917596,0 168.5482701379806,-45.06756945513189,0 168.5481850616634,-45.06755453534424,0 168.5480812937021,-45.06776534020901,0 168.5479349456728,-45.06781253032386,0 168.5477055329829,-45.06817605346441,0 168.5475368890911,-45.06828962825239,0 168.5472912993282,-45.0682925619185,0 168.5472750384361,-45.06825911812484,0 168.547222064808,-45.06833053193986,0 168.5469749663025,-45.06837705150247,0 168.5462228581309,-45.06828409619629,0 168.5458340216428,-45.06817244924605,0 168.5456223785877,-45.06795225664973,0 168.5451799817383,-45.06782661192119,0 168.5448129381984,-45.06755797192454,0 168.544314885512,-45.06760206073523,0 168.5435520485044,-45.067775901407,0 168.5431815683842,-45.06772737018764,0 168.5426480602473,-45.06777070462704,0 168.5423336550593,-45.06785376928747,0 168.5418952815235,-45.06780230440199,0 168.5415329318494,-45.0678691919893,0 168.5414214525372,-45.06783314980567,0 168.5413756873459,-45.06776039488614,0 168.5411729291081,-45.06784949451685,0 168.5411254875362,-45.0678277015686,0 168.5412171017379,-45.06781403906643,0 168.5411438439041,-45.06784211844206,0 168.5412097256631,-45.06784547120333,0 168.5409299377352,-45.06785075180233,0 168.5405203141272,-45.06803104653955,0 168.5402385145426,-45.06828459911048,0 168.5396293178201,-45.06853027269244,0 168.5395651124418,-45.06863563321531,0 168.5393339395523,-45.06880863569677,0 168.5389858391136,-45.06896361708641,0 168.5390302632004,-45.06916863843799,0 168.5392202809453,-45.06929445080459,0 168.5395669564605,-45.06945085711777,0 168.5399131290615,-45.06949603557587,0 168.540120581165,-45.06947700865567,0 168.5402229242027,-45.06937399506569,0 168.5403390973806,-45.06933451630175,0 168.5408511478454,-45.06925966590643,0 168.5410295147449,-45.06934449076653,0 168.5417852271348,-45.06922454573214,0 168.5418758355081,-45.06925027817488,0 168.5425068251789,-45.06910904310644,0 168.5427600424737,-45.06912035867572,0 168.5429626330733,-45.06920208223164,0 168.5426593758166,-45.06911331787705,0 168.5423731338233,-45.06910912692547,0 168.5424809250981,-45.06908909417689,0 168.5429534129798,-45.06920048967004,0 168.5423201601952,-45.06914936006069,0 168.5418539587408,-45.06922353990376,0 168.5414652060717,-45.06920099258423,0 168.5412450134754,-45.06926611997187,0 168.5411826521158,-45.06933116354048,0 168.5412857495248,-45.06946141831577,0 168.5413595940918,-45.06945337168872,0 168.5412349551916,-45.06953794509172,0 168.5411688219756,-45.06965763866901,0 168.5419936012477,-45.07003993727267,0 168.5422356706113,-45.07008184678853,0 168.5423048213124,-45.07013750262558,0 168.5424241796136,-45.07042407989502,0 168.5428087413311,-45.07079514674842,0 168.5428083222359,-45.07090939208865,0 168.5427183005959,-45.07103512063622,0 168.5419464111328,-45.07095146924257,0 168.5417338460684,-45.07084191776812,0 168.5415472649038,-45.07062088698149,0 168.541584732011,-45.07062499411404,0 168.5407208930701,-45.07077159360051,0 168.5396287310869,-45.07113394327462,0 168.5386717692018,-45.07133552804589,0 168.5381356626749,-45.07154113613069,0 168.5349427442998,-45.07227019406855,0 168.5343931429088,-45.07246515713632,0 168.5339985229075,-45.07272901944816,0 168.5336726345122,-45.07283513434231,0 168.5325370542705,-45.07286447100341,0 168.5322760418057,-45.0731104798615,0 168.5320712719113,-45.07323084399104,0 168.5318106785417,-45.0733055267483,0 168.5310902539641,-45.07313378155231,0 168.5302927996963,-45.07313143461943,0 168.5297533404082,-45.07300922647119,0 168.5296776518226,-45.07324039936066,0 168.5295708663762,-45.07336621172726,0 168.5290856380016,-45.0734921079129,0 168.5287710651755,-45.07348858751357,0 168.5287495236844,-45.0736575666815,0 168.5290302336216,-45.07377181202173,0 168.5291583929211,-45.07390667684376,0 168.5287984739989,-45.07364616729319,0 168.5287423990667,-45.0734625197947,0 168.5280249919742,-45.07340962998569,0 168.5277952440083,-45.07331709377468,0 168.5275077447295,-45.07334307767451,0 168.5271774977446,-45.07349814288318,0 168.5266993939877,-45.07354700937867,0 168.5264225397259,-45.07371900603175,0 168.5261448472738,-45.07408060133457,0 168.5257317870855,-45.07420113310218,0 168.5252614784986,-45.07398898713291,0 168.5248440597206,-45.07387960329652,0 168.5239749401808,-45.07376083172858,0 168.5241735912859,-45.07402771152556,0 168.5245004855096,-45.07419384084642,0 168.5248851310462,-45.07447161711752,0 168.5249780025333,-45.07456943392754,0 168.524889824912,-45.07460908032954,0 168.5244787763804,-45.07444990798831,0 168.524337541312,-45.07446398958564,0 168.5241947136819,-45.0744157936424,0 168.5237000137568,-45.07417506538332,0 168.5232899710536,-45.07408378645778,0 168.5228713788092,-45.07407674565911,0 168.5226717218757,-45.07414254359901,0 168.5215886961669,-45.07409744895995,0 168.5210620611906,-45.07415059022605,0 168.5205041617155,-45.0743280351162,0 168.5203612502664,-45.07430800236762,0 168.5196229722351,-45.07448276504874,0 168.5188015457243,-45.07445828989148,0 168.5162456519902,-45.07465425878763,0 168.5157795343548,-45.07477822713554,0 168.5147918947041,-45.07491518743336,0 168.5137967951596,-45.07523965090513,0 168.5127976723015,-45.07520620711148,0 168.5124701075256,-45.07532606832683,0 168.5122278705239,-45.0753571651876,0 168.511509289965,-45.07577030919492,0 168.5108679067343,-45.07574373856187,0 168.5108435153961,-45.07579998113215,0 168.5106701776385,-45.07581657730043,0 168.5106705967337,-45.07599955424666,0 168.510782327503,-45.07601439021528,0 168.511007046327,-45.0762034021318,0 168.5107258334756,-45.0762377679348,0 168.5106071457267,-45.07638168521225,0 168.5106664057821,-45.07640238851309,0 168.5106879472733,-45.07633944042027,0 168.5109687410295,-45.0762914121151,0 168.5106138512492,-45.07639216259122,0 168.5106205567718,-45.07631488144398,0 168.5107214748859,-45.07625486701727,0 168.511009728536,-45.07622100412846,0 168.5107509791851,-45.07600223645568,0 168.5106488037854,-45.075992513448,0 168.5107138473541,-45.07581892423332,0 168.5108745284379,-45.07581674493849,0 168.5109533183277,-45.07576335221529,0 168.5113466810435,-45.07583853788674,0 168.5117811150849,-45.07568439468741,0 168.5121834464371,-45.07542002946138,0 168.5127136856318,-45.07524359039962,0 168.5140060074627,-45.07519497536123,0 168.5149856004864,-45.07490194402635,0 168.5155774466693,-45.07487872615457,0 168.5166916530579,-45.07459927350283,0 168.517365725711,-45.07451151497662,0 168.5175575036556,-45.07441403344274,0 168.5177610162646,-45.07443683221936,0 168.5178766865283,-45.07450011558831,0 168.5186963528395,-45.07440858520567,0 168.5195346269757,-45.0744657497853,0 168.5204673651606,-45.07433784194291,0 168.5211250092834,-45.07406568154693,0 168.5225892439485,-45.07402796298265,0 168.5229393560439,-45.07393894717097,0 168.5237885266542,-45.07410624995828,0 168.5240508802235,-45.07420842535794,0 168.5241444222629,-45.07432166486979,0 168.5242937877774,-45.07439617998898,0 168.5245455801487,-45.0744210742414,0 168.5248526092619,-45.07454671896994,0 168.524993089959,-45.07454294711351,0 168.5245382878929,-45.07419191300869,0 168.5240616090596,-45.07392084226012,0 168.5239827353507,-45.07374289445579,0 168.5243683867157,-45.07371447980404,0 168.5249486658722,-45.0738116260618,0 168.5253996122628,-45.07399401627481,0 168.5256483033299,-45.07416349835694,0 168.5257969144732,-45.07415964268148,0 168.5259860940278,-45.07406978867948,0 168.5261619463563,-45.07418990135193,0 168.5265015810728,-45.07383853197098,0 168.5267589055002,-45.07368698716164,0 168.5272893123329,-45.07353460416198,0 168.5274732112885,-45.0733937881887,0 168.5278338007629,-45.07331684231758,0 168.5282556619495,-45.0733795389533,0 168.5285046044737,-45.07330586202443,0 168.5287128109485,-45.07339605130255,0 168.5287461709231,-45.07347383536398,0 168.5288299061358,-45.07351281121373,0 168.5288051795214,-45.073550529778,0 168.52877760306,-45.07351834326982,0 168.5288470052183,-45.07344475015998,0 168.529491070658,-45.07334961555898,0 168.5296820942312,-45.07322028279305,0 168.5297908075154,-45.07305457256734,0 168.530458342284,-45.0731313508004,0 168.5311749111861,-45.07309195585549,0 168.5314483288676,-45.07319882512093,0 168.5319102555513,-45.07323168218136,0 168.5326171014458,-45.07287536747754,0 168.5337268654257,-45.07278350181878,0 168.5341790691018,-45.07264486514032,0 168.5350547265261,-45.07225158624351,0 168.53630178608,-45.07192008197308,0 168.5369614418596,-45.07180198095739,0 168.5372920241207,-45.07166518829763,0 168.5376334190369,-45.07163702510297,0 168.5382117703557,-45.07150006480515,0 168.5388243198395,-45.07124391384423,0 168.5392391402274,-45.07121985778213,0 168.540414031595,-45.0707789696753,0 168.5408644750714,-45.0706756208092,0 168.5412840731442,-45.07067796774209,0 168.5414987336844,-45.07063136436045,0 168.5416398849338,-45.07071677595377,0 168.5417218599468,-45.07085281424224,0 168.5418563894928,-45.0708725117147,0 168.5419420525432,-45.07095121778548,0 168.5420890711248,-45.07095607928932,0 168.5423878859729,-45.07109672762454,0 168.5426527541131,-45.07108557969332,0 168.5427596233785,-45.07094275206327,0 168.5427738726139,-45.07082423195243,0 168.5423101857305,-45.07041988894343,0 168.5422963555902,-45.07014378905296,0 168.5420185793191,-45.07006047293544,0 168.5415273159742,-45.06978755816817,0 168.5407963301986,-45.06949620321393,0 168.5401186533272,-45.06941632367671,0 168.5396840516478,-45.0694599095732,0 168.539438964799,-45.06942889653146,0 168.5390748549253,-45.0692733284086,0 168.5389675665647,-45.06913410499692,0 168.5389752779156,-45.06900787353516,0 168.5391474422067,-45.06888750940561,0 168.5392967239022,-45.06885054521263,0 168.5396966245025,-45.06855768151581,0 168.540244968608,-45.06837353110313,0 168.5403670091182,-45.06816876120865,0 168.5404702741653,-45.0680869538337,0 168.541463362053,-45.06777539849281,0 168.5414914414287,-45.06779886782169,0 168.5414560697973,-45.06784848868847,0 168.5415089596063,-45.06788277067244,0 168.5419278033078,-45.06780766882002,0 168.5420204233378,-45.06786215119064,0 168.5423166397959,-45.06790422834456,0 168.5425346530974,-45.06784840486944,0 168.5429422650486,-45.06785435602069,0 168.5436373762786,-45.0677690282464,0 168.5437860712409,-45.06770381703973,0 168.5448105074465,-45.06756635382771,0 168.545771157369,-45.06799609400332,0 168.5458961315453,-45.06816901266575,0 168.5460524540395,-45.06823321804404,0 168.5465024784207,-45.06835928186774,0 168.5473681613803,-45.06849858909845,0 168.5475940536708,-45.06861492991447,0 168.5476331133395,-45.06879346445203,0 168.5478698182851,-45.06888608448207,0 168.547568237409,-45.06874568760395,0 168.5475192870945,-45.06864761933684,0 168.5475129168481,-45.068264817819,0 168.5476202890277,-45.06786081008613,0 168.547615930438,-45.06759359501302,0 168.5478335246444,-45.06721707992256,0 168.5478176828474,-45.06681407801807,0 168.5479258093983,-45.06650302559137,0 
		</coordinates>
	</LineString>
	<atom:link rel="app" href="https://www.google.com/earth/about/versions/#earth-pro" title="Google Earth Pro 7.3.7.1155"></atom:link>
</Placemark>
</kml>
