<?xml version="1.0" encoding="UTF-8"?>
<kml xmlns="http://www.opengis.net/kml/2.2" xmlns:gx="http://www.google.com/kml/ext/2.2" xmlns:kml="http://www.opengis.net/kml/2.2" xmlns:atom="http://www.w3.org/2005/Atom">
<Placemark>
	<name>Track</name>
	<Style>
		<LineStyle>
			<color>ff0000ff</color>
			<width>3</width>
		</LineStyle>
	</Style>
	<LineString>
		<tessellate>1</tessellate>
		<coordinates>
			175.4957674071193,-39.32953362353146,0 175.4957632161677,-39.32957871817052,0 175.4958213865757,-39.32958517223597,0 175.496054822579,-39.32950562797487,0 175.4961979854852,-39.32941292412579,0 175.4961415752769,-39.32943530380726,0 175.4962509591132,-39.32929440401495,0 175.4963065311313,-39.3293175380677,0 175.496459165588,-39.32924939319491,0 175.4968861397356,-39.32937503792346,0 175.4971349984407,-39.32924972847104,0 175.4973379243165,-39.32906708680093,0 175.4974916484207,-39.32872074656188,0 175.4977650661021,-39.32860398665071,0 175.4977414291352,-39.32844456285238,0 175.497888782993,-39.32814817875624,0 175.4979088157415,-39.32819503359497,0 175.4978799819946,-39.32820098474622,0 175.4978871066123,-39.3281726539135,0 175.4979448579252,-39.32817030698061,0 175.4980919603258,-39.32821598835289,0 175.4983957204968,-39.32814734056592,0 175.4986575711519,-39.32826175354421,0 175.4989003948867,-39.32808296754956,0 175.4992651753128,-39.3279221188277,0 175.4994652513415,-39.32787157595158,0 175.4995872918516,-39.32787685655057,0 175.4995915666223,-39.32789898477495,0 175.4994687717408,-39.32793494313955,0 175.4993878863752,-39.32801817543805,0 175.4993268661201,-39.32828010991216,0 175.4995119385421,-39.3285418767482,0 175.4995427839458,-39.32870817370713,0 175.4996112640947,-39.32880917564034,0 175.4996768105775,-39.32900279760361,0 175.4999400023371,-39.3291605450213,0 175.5000487156212,-39.32906080037355,0 175.5002486240119,-39.32906976900995,0 175.5003892723471,-39.32900631800294,0 175.5005372967571,-39.32901092804968,0 175.500700911507,-39.3289150390774,0 175.5011285562068,-39.32896004989743,0 175.5012707132846,-39.32903976179659,0 175.5013625789434,-39.32914713397622,0 175.5012160632759,-39.32935249060392,0 175.5012304801494,-39.32937109842896,0 175.501385461539,-39.32934721000493,0 175.5018314626068,-39.32936212979257,0 175.5019764695317,-39.32933111675084,0 175.5021510645747,-39.3293674942106,0 175.5024079699069,-39.32954711839557,0 175.5025418289006,-39.32973445393145,0 175.5025636218488,-39.32981173507869,0 175.5028983950615,-39.3301566503942,0 175.5031177494675,-39.33027449995279,0 175.5036334041506,-39.33046267367899,0 175.504001788795,-39.3305467441678,0 175.5041349772364,-39.33071538805962,0 175.5041555128992,-39.33069879189134,0 175.5041526630521,-39.33086441829801,0 175.5042963288724,-39.33132492005825,0 175.5045446846634,-39.33159984648228,0 175.5046570021659,-39.33182288892567,0 175.5047057848424,-39.33200997300446,0 175.504865963012,-39.33212564326823,0 175.505006108433,-39.33229487389326,0 175.5051440745592,-39.33232261799276,0 175.5053806118667,-39.33229797519743,0 175.5054505169392,-39.3323671258986,0 175.5055130459368,-39.33255395852029,0 175.5055523570627,-39.33255747891963,0 175.5055458191782,-39.3327852152288,0 175.5056743975729,-39.33296299539506,0 175.5057233478874,-39.33298545889556,0 175.5059342365712,-39.33302317745984,0 175.5060646589845,-39.33300280943513,0 175.5061892140657,-39.33308344334364,0 175.5063985940069,-39.33314647525549,0 175.5067606084049,-39.33319349773228,0 175.5070068687201,-39.33314831927419,0 175.5072372872382,-39.33315854519606,0 175.5075599066913,-39.33311462402344,0 175.5076787620783,-39.33306382969022,0 175.5080351606011,-39.3330769892782,0 175.5082309618592,-39.33303566649556,0 175.5083475541323,-39.33296349830925,0 175.5086696706712,-39.33290591463447,0 175.5092522129416,-39.33263744227588,0 175.5095879081637,-39.33240484446287,0 175.5096909217536,-39.33229135349393,0 175.5097514390945,-39.3321200273931,0 175.5097465775907,-39.33202950283885,0 175.5097706336528,-39.332021959126,0 175.5098408740014,-39.33205506764352,0 175.509845232591,-39.33214986696839,0 175.5098977033049,-39.33218163438141,0 175.5099154729396,-39.33260483667254,0 175.5099689494818,-39.33265588246286,0 175.5100303888321,-39.33266066014767,0 175.5100966058671,-39.33261984027922,0 175.5101380962878,-39.33244901709259,0 175.5102054029703,-39.33237550780177,0 175.510524334386,-39.33234021998942,0 175.5104724504054,-39.33230929076672,0 175.5102765653282,-39.33231608010828,0 175.510273296386,-39.33226277120411,0 175.5103481467813,-39.33228054083884,0 175.5104705225676,-39.33214752003551,0 175.5104880407453,-39.33226863853633,0 175.5105488933623,-39.33221868239343,0 175.5105592869222,-39.33229831047356,0 175.5104996077716,-39.33240844868124,0 175.5105363205075,-39.33229923248291,0 175.5103069916368,-39.33236016891897,0 175.5101803410798,-39.33256762102246,0 175.5101152136922,-39.33259746059775,0 175.5100287962705,-39.33261967264116,0 175.5098986253142,-39.33252235874534,0 175.5099235195667,-39.33245731517673,0 175.5098992958665,-39.33232890442014,0 175.509876916185,-39.3323309160769,0 175.5098815262318,-39.33227668516338,0 175.5098375212401,-39.33221206068993,0 175.5098956078291,-39.33191718533635,0 175.5098565481603,-39.3319476954639,0 175.5098886508495,-39.33193311095238,0 175.5098431371152,-39.33194006793201,0 175.5098472442478,-39.33191735297441,0 175.5098970327526,-39.33189698494971,0 175.5098674446344,-39.33190159499645,0 175.5098984576762,-39.33185189031065,0 175.5098755750805,-39.33184635825455,0 175.5100284609944,-39.33173588477075,0 175.5101246852428,-39.33161384426057,0 175.5100822728127,-39.33172733522952,0 175.5100213363767,-39.33177234604955,0 175.5100507568568,-39.33168567717075,0 175.510000968352,-39.33160621672869,0 175.5100121162832,-39.33158023282886,0 175.5100132059306,-39.33160982094705,0 175.5100681073964,-39.33162407018244,0 175.5100535228848,-39.33169037103653,0 175.5100350826979,-39.33163546957076,0 175.5101277027279,-39.33153295889497,0 175.5098482500762,-39.33183453977108,0 175.5099899042398,-39.33171417564154,0 175.5099780019373,-39.33175172656775,0 175.5099332425743,-39.33171132579446,0 175.5099426303059,-39.33161225169897,0 175.5101220030338,-39.33149381540716,0 175.5101160518825,-39.33156564831734,0 175.5100077576935,-39.33166061528027,0 175.5099947657436,-39.33173462748528,0 175.5098256189376,-39.3318179436028,0 175.5100649222732,-39.33161493390799,0 175.5099142994732,-39.33172666467726,0 175.5099906586111,-39.33174971491098,0 175.5101537704468,-39.33173127472401,0 175.5104649066925,-39.33148233219981,0 175.5103844404221,-39.33153639547527,0 175.5103777348995,-39.33149146847427,0 175.5100527685136,-39.33179003186524,0 175.5100576300174,-39.33176765218377,0 175.5100026447326,-39.3317904509604,0 175.5100178997964,-39.33168064802885,0 175.5100555345416,-39.33167209848762,0 175.5100241862237,-39.33168215677142,0 175.5100615695119,-39.33180302381516,0 175.5100178159773,-39.33191064745188,0 175.5100290477276,-39.33184107765555,0 175.509982528165,-39.33187276124954,0 175.5100103560835,-39.33191643096507,0 175.5099472403526,-39.33196781203151,0 175.5099869705737,-39.33198482729495,0 175.5098974518478,-39.33199714869261,0 175.5099319014698,-39.33200662024319,0 175.5099228490144,-39.33220527134836,0 175.5097310710698,-39.33239738456905,0 175.509686479345,-39.33249067515135,0 175.5094023328274,-39.33266887441278,0 175.5092455912381,-39.33270634151995,0 175.5090975668281,-39.3328145518899,0 175.5090688169003,-39.33280432596803,0 175.5086502246559,-39.33304295875132,0 175.5085762962699,-39.33301127515733,0 175.5085137672722,-39.3330354988575,0 175.508446963504,-39.33301697485149,0 175.5079306382686,-39.33316198177636,0 175.5078393593431,-39.33311755768955,0 175.5077659338713,-39.33314521797001,0 175.5075869802386,-39.33312845416367,0 175.5072624329478,-39.33321202173829,0 175.5070261470973,-39.33314220048487,0 175.5068258196115,-39.33316566981375,0 175.5066892784089,-39.33322425931692,0 175.5063224863261,-39.3331198208034,0 175.506229698658,-39.33303155936301,0 175.50576207228,-39.33295151218772,0 175.5056921672076,-39.33289811946452,0 175.5056659318507,-39.33283458463848,0 175.5055205896497,-39.33273106813431,0 175.5054941866547,-39.33252353221178,0 175.5055349227041,-39.33253962546587,0 175.5053925979882,-39.33229294605553,0 175.5053188372403,-39.33226712979376,0 175.5051444098353,-39.33230945840478,0 175.5050888378173,-39.33229353278875,0 175.5047009233385,-39.33196177706122,0 175.5046065431088,-39.33169338852167,0 175.5045107379556,-39.33154100552201,0 175.504297921434,-39.33131569996476,0 175.5041745398194,-39.33100339025259,0 175.504112681374,-39.33065872639418,0 175.5040364060551,-39.33054473251104,0 175.5036260280758,-39.33047625236213,0 175.5035389401019,-39.33041254989803,0 175.5033354274929,-39.33039804920554,0 175.5029203556478,-39.33019277639687,0 175.5025837384164,-39.32987694628537,0 175.5025699920952,-39.32978315278888,0 175.5024698283523,-39.32962163351476,0 175.5024515558034,-39.32953169569373,0 175.5022262502462,-39.32938375510275,0 175.5020405910909,-39.32934192940593,0 175.5015398561954,-39.32940328493714,0 175.5013372655958,-39.32939758524299,0 175.5012590624392,-39.32931879535317,0 175.5013540294021,-39.32920161634684,0 175.5013497546315,-39.32913715951145,0 175.5013077612966,-39.32904185727239,0 175.5011946894228,-39.3289842735976,0 175.5009976308793,-39.32903691194952,0 175.5007830541581,-39.32899366132915,0 175.5004791263491,-39.32904588058591,0 175.500301932916,-39.3290965911001,0 175.5001752823591,-39.32919667102396,0 175.5000812374055,-39.32922936044633,0 175.500085093081,-39.32911218144,0 175.5000479612499,-39.32901796884835,0 175.4998664092273,-39.32884220033884,0 175.4997343942523,-39.3287543579936,0 175.4996532574296,-39.32875217869878,0 175.4995523393154,-39.32863080874085,0 175.4994599707425,-39.32836527004838,0 175.4993261955678,-39.32831372134387,0 175.4993613157421,-39.32805606164038,0 175.4993989504874,-39.32804935611784,0 175.4994329810143,-39.32796930894256,0 175.4995344020426,-39.32791742496192,0 175.4995109327137,-39.3278824724257,0 175.4991529416293,-39.328070897609,0 175.49909921363,-39.32819704525173,0 175.4989257920533,-39.32824155315757,0 175.4986807890236,-39.32820416986942,0 175.4984154179692,-39.32811842299998,0 175.4982549045235,-39.32822336442769,0 175.4980002623051,-39.32815153151751,0 175.4979653097689,-39.32811473496258,0 175.497904876247,-39.3281240388751,0 175.4978754557669,-39.32808489538729,0 175.4979045409709,-39.32810693979263,0 175.4978754557669,-39.32812822982669,0 175.4979378171265,-39.32816536165774,0 175.4979401640594,-39.32823560200632,0 175.4978547524661,-39.32860851287842,0 175.4978104121983,-39.3286438845098,0 175.4976654052734,-39.32865830138326,0 175.4975510761142,-39.32875745929778,0 175.4974856134504,-39.32876726612449,0 175.4974013753235,-39.32904210872948,0 175.4971132893115,-39.32928744703531,0 175.4969892371446,-39.32936866767704,0 175.4966699704528,-39.32927956804633,0 175.496490933001,-39.3292726110667,0 175.4963108897209,-39.32930714450777,0 175.4962525516748,-39.32934628799558,0 175.496184322983,-39.32949523441494,0 175.496012577787,-39.32955114170909,0 175.4958349652588,-39.32956078089774,0 175.4957843385637,-39.32953731156886,0 175.4957432672381,-39.32945810258389,0 175.4958342108876,-39.32946396991611,0 
		</coordinates>
	</LineString>
	<atom:link rel="app" href="https://www.google.com/earth/about/versions/#earth-pro" title="Google Earth Pro 7.3.7.1155"></atom:link>
</Placemark>
</kml>
