<?xml version="1.0" encoding="UTF-8"?>
<kml xmlns="http://www.opengis.net/kml/2.2" xmlns:gx="http://www.google.com/kml/ext/2.2" xmlns:kml="http://www.opengis.net/kml/2.2" xmlns:atom="http://www.w3.org/2005/Atom">
<Placemark>
	<name>Track</name>
	<Style>
		<LineStyle>
			<color>ff0000ff</color>
			<width>3</width>
		</LineStyle>
	</Style>
	<LineString>
		<tessellate>1</tessellate>
		<coordinates>
			6.703163534402847,49.64737496338785,0 6.703365873545408,49.64747982099652,0 6.703305691480637,49.64747311547399,0 6.703412225469947,49.64754838496447,0 6.704814601689577,49.64757202193141,0 6.704891799017787,49.6475360635668,0 6.704887943342328,49.64762658812106,0 6.704773530364037,49.64763346128166,0 6.70494519174099,49.64766707271338,0 6.705027502030134,49.64776740409434,0 6.7051035258919,49.64774678461254,0 6.705102017149329,49.64782842434943,0 6.705169910565019,49.64793831110001,0 6.705165468156338,49.64801156893373,0 6.704815775156021,49.64808968827128,0 6.703916732221842,49.64818675071001,0 6.70381304807961,49.6482253074646,0 6.703897370025516,49.64825632050633,0 6.703474335372448,49.6482961345464,0 6.703345505520701,49.64833653531969,0 6.703210975974798,49.6483286563307,0 6.70286413282156,49.6484478469938,0 6.702718874439597,49.64846469461918,0 6.702318973839283,49.64869100600481,0 6.701862076297402,49.64910121634603,0 6.701561668887734,49.6491939201951,0 6.701401155441999,49.64931730180979,0 6.701800636947155,49.64949348941445,0 6.702011022716761,49.64954797178507,0 6.702131135389209,49.64952366426587,0 6.702819373458624,49.64958753436804,0 6.703324634581804,49.64977445080876,0 6.704035336151719,49.6499156858772,0 6.704039024189115,49.64999397285283,0 6.704130219295621,49.64998341165483,0 6.70415217988193,49.64993756264448,0 6.704193837940693,49.65001526288688,0 6.704503297805786,49.65011567808688,0 6.704580076038837,49.65019463561475,0 6.70493395999074,49.65035640634596,0 6.705083409324288,49.65037652291358,0 6.705213245004416,49.65047660283744,0 6.705413488671184,49.65056888759136,0 6.705468976870179,49.65066393837333,0 6.705290107056499,49.65078715234995,0 6.704549817368388,49.6510658506304,0 6.704156370833516,49.6513753104955,0 6.704091913998127,49.65152475982904,0 6.704033324494958,49.6515806671232,0 6.703874655067921,49.65166373178363,0 6.703722607344389,49.65171083807945,0 6.703662341460586,49.65169742703438,0 6.703197732567787,49.65213906951249,0 6.702832616865635,49.6523423306644,0 6.702493401244283,49.65268699452281,0 6.702238507568836,49.65285027399659,0 6.702242195606232,49.65294356457889,0 6.70235694386065,49.6529309079051,0 6.702271113172174,49.6529776789248,0 6.702243704348803,49.65294850990176,0 6.702139433473349,49.65294691734016,0 6.702087633311749,49.65290333144367,0 6.701760906726122,49.65290861204267,0 6.701722098514438,49.65286569669843,0 6.701763505116105,49.65286527760327,0 6.701751770451665,49.65283652767539,0 6.700994716957211,49.6522818133235,0 6.700259037315845,49.65157127939165,0 6.699955444782972,49.65099410153925,0 6.699919737875462,49.6507743280381,0 6.699950750917196,49.65065421536565,0 6.700369007885456,49.65037987567484,0 6.700431033968925,49.6502611041069,0 6.700426004827023,49.6502870041877,0 6.70086563564837,49.64996924623847,0 6.700990945100784,49.64971175417304,0 6.701184567064047,49.64946356602013,0 6.701368885114789,49.64931109920144,0 6.701347762718797,49.64926751330495,0 6.701091192662716,49.64915519580245,0 6.700711157172918,49.6490802615881,0 6.700690202414989,49.64914463460445,0 6.700496664270759,49.64925745502114,0 6.700200783088803,49.64951109141111,0 6.699763499200344,49.64972466230392,0 6.699507851153612,49.64977386407554,0 6.699264692142606,49.64974301867187,0 6.699170060455799,49.64954813942313,0 6.699072746559978,49.64952693320811,0 6.698848698288202,49.64935845695436,0 6.698405127972364,49.64919651858509,0 6.698125004768372,49.6491907350719,0 6.697705741971731,49.64925519190729,0 6.696213176473975,49.64971141889691,0 6.695661228150129,49.64994971640408,0 6.694951867684722,49.65032455511391,0 6.694951364770532,49.65037400834262,0 6.695081954821944,49.65036629699171,0 6.695047924295068,49.65036277659237,0 6.695087403059006,49.65034349821508,0 6.694927224889398,49.65036755427718,0 6.6948027536273,49.65041424147785,0 6.694242255762219,49.65071515180171,0 6.694136057049036,49.65062621980906,0 6.69413186609745,49.65065195225179,0 6.694154413416982,49.65065773576498,0 6.69414502568543,49.65063116513193,0 6.694142259657383,49.65065740048885,0 6.69419439509511,49.65066595003009,0 6.694227084517479,49.65072319842875,0 6.694144019857049,49.65060970745981,0 6.693880073726177,49.65038565918803,0 6.69336324557662,49.65000059455633,0 6.693302895873785,49.6500108204782,0 6.693252185359597,49.64991057291627,0 6.692886734381318,49.6496273484081,0 6.692906599491835,49.6495808288455,0 6.692705517634749,49.64954252354801,0 6.69283309020102,49.64957043528557,0 6.692839628085494,49.64963832870126,0 6.692272089421749,49.65017569251359,0 6.691070208325982,49.65097649954259,0 6.690944563597441,49.65109820477664,0 6.690690172836185,49.65122267603874,0 6.690329918637872,49.65146415866911,0 6.690270071849227,49.6515444573015,0 6.690029762685299,49.65172349475324,0 6.689778137952089,49.65178929269314,0 6.689075818285346,49.65178837068379,0 6.687845187261701,49.65169373899698,0 6.686051459982991,49.65142744593322,0 6.685888096690178,49.65137941762805,0 6.685317624360323,49.65132795274258,0 6.684465520083904,49.65108244679868,0 6.683376962319016,49.6508604940027,0 6.683007823303342,49.65086711570621,0 6.683022575452924,49.65088555589318,0 6.682988964021206,49.65090801939368,0 6.682719653472304,49.65104858390987,0 6.682749157771468,49.65105537325144,0 6.682728119194508,49.65111983008683,0 6.682276586070657,49.65144865214825,0 6.682043401524425,49.65165962465107,0 6.681975089013577,49.65168326161802,0 6.681836787611246,49.6518346387893,0 6.681342674419284,49.65221995487809,0 6.680971272289753,49.65265665203333,0 6.680993987247348,49.65274005196989,0 6.680930787697434,49.65282496064901,0 6.680978313088417,49.65281993150711,0 6.679296316578984,49.65264743193984,0 6.679324144497514,49.65272479690611,0 6.67936940677464,49.65266620740294,0 6.679274858906865,49.65266956016421,0 6.679301094263792,49.65269629843533,0 6.679284414276481,49.65266830287874,0 6.679343087598681,49.65267341583967,0 6.679234961047769,49.65274290181696,0 6.679136976599693,49.65291816741228,0 6.67908794246614,49.65294138528407,0 6.678935559466481,49.65289863757789,0 6.678935559466481,49.65296837501228,0 6.678820643573999,49.65321941301227,0 6.678648730739951,49.65339115820825,0 6.678549237549305,49.6535334829241,0 6.67856901884079,49.65356885455549,0 6.678482433781028,49.65367572382092,0 6.679195817559958,49.65413496829569,0 6.679262286052108,49.65414678677917,0 6.679328922182322,49.65410361997783,0 6.679240493103862,49.65415910817683,0 6.679311404004693,49.65410755947232,0 6.67930880561471,49.65416623279452,0 6.679394133388996,49.65428533963859,0 6.679905345663428,49.6546783670783,0 6.680348161607981,49.65512730181217,0 6.680643958970904,49.6553123742342,0 6.68065058067441,49.6552346739918,0 6.680687209591269,49.6552555449307,0 6.680709170177579,49.65530826710165,0 6.681068167090416,49.6556559484452,0 6.681274445727468,49.6557923220098,0 6.681494638323784,49.65601477771997,0 6.681646099314094,49.65610454790294,0 6.682332074269652,49.65666546486318,0 6.682690819725394,49.65714180842042,0 6.682747732847929,49.65713828802109,0 6.68271210975945,49.65714708901942,0 6.682858625426888,49.65733157470822,0 6.682901373133063,49.65734448283911,0 6.682928530499339,49.65744875371456,0 6.682851919904351,49.65734280645847,0 6.68294076807797,49.65736837126315,0 6.682846220210195,49.65731455944479,0 6.682892320677638,49.65733819641173,0 6.682805316522717,49.6573275513947,0 6.682873545214534,49.65737138874829,0 6.682889219373465,49.65734984725714,0 6.682802299037576,49.65736711397767,0 6.683315020054579,49.65790565125644,0 6.683525908738375,49.65829675085843,0 6.684003006666899,49.65868198312819,0 6.684589656069875,49.65893109329045,0 6.684593930840492,49.65898850932717,0 6.684836251661181,49.65916846878827,0 6.684974301606417,49.65916846878827,0 6.685364646837115,49.65931825339794,0 6.685852725058794,49.65936561115086,0 6.686614137142897,49.65930165722966,0 6.687884079292417,49.65928472578526,0 6.688629733398557,49.65942897833884,0 6.689147651195526,49.65948672965169,0 6.689837900921702,49.65941472910345,0 6.690322961658239,49.65928883291781,0 6.690649688243866,49.6592806186527,0 6.691322838887572,49.65938773937523,0 6.691664233803749,49.65947952121496,0 6.691921474412084,49.65949980542064,0 6.692096656188369,49.65940450318158,0 6.69211677275598,49.65942361392081,0 6.692107217386365,49.65940198861063,0 6.692037982866168,49.65942629612982,0 6.692268988117576,49.65951179154217,0 6.692720102146268,49.6595295611769,0 6.693133413791656,49.65947533026338,0 6.693770857527852,49.65931858867407,0 6.694122143089771,49.65915489010513,0 6.694376450031996,49.65901876799762,0 6.695057395845652,49.65851484797895,0 6.695510018616915,49.6580958366394,0 6.695766840130091,49.65799508616328,0 6.695858705788851,49.65799508616328,0 6.696291211992502,49.65803515166044,0 6.696657333523035,49.65812995098531,0 6.697313217446208,49.65860361233354,0 6.697388989850879,49.65949938632548,0 6.697733150795102,49.65975830331445,0 6.697930041700602,49.65982762165368,0 6.698535801842809,49.65950760059059,0 6.699114656075835,49.65927441604435,0 6.701308619230986,49.65817395597696,0 6.701449519023299,49.6581357344985,0 6.701822932809591,49.65817638672888,0 6.701907590031624,49.65816289186478,0 6.701890407130122,49.65814864262938,0 6.702318973839283,49.65814218856394,0 6.702391896396875,49.6581029612571,0 6.702659111469984,49.65809256769717,0 6.703438712283969,49.65796985663474,0 6.703543402254581,49.65793289244175,0 6.703630574047565,49.6578579582274,0 6.703590424731374,49.65778738260269,0 6.703451704233885,49.65769191272557,0 6.703132102265954,49.65737189166248,0 6.702807890251279,49.65712336823344,0 6.702318722382188,49.65679127722979,0 6.702254852280021,49.65680175460875,0 6.702159382402897,49.65671399608254,0 6.701898872852325,49.65657913126051,0 6.700064241886139,49.65596565976739,0 6.699856203049421,49.65592316351831,0 6.699870703741908,49.65594210661948,0 6.699838349595666,49.65589374303818,0 6.698809890076518,49.65556031093001,0 6.697725187987089,49.65525252744555,0 6.697591412812471,49.6551863104105,0 6.697578253224492,49.6551604103297,0 6.698243441060185,49.65427653864026,0 6.698750210925937,49.65343306772411,0 6.698942240327597,49.65331899002194,0 6.699359742924571,49.65314213186502,0 6.69995435513556,49.65314934030175,0 6.700388537719846,49.65320147573948,0 6.70147692784667,49.65324128977954,0 6.701603075489402,49.65316576883197,0 6.701812706887722,49.65294415131211,0 6.702110935002565,49.65288505889475,0 6.702274801209569,49.65292009525001,0 6.702285530045629,49.65290140360594,0 6.702233059331775,49.65291070751846,0 6.702254265546799,49.65292411856353,0 6.702235490083694,49.65290375053883,0 6.702290726825595,49.65283183380961,0 6.702482001855969,49.65266360901296,0 6.70261200517416,49.65260677970946,0 6.702799256891012,49.65239178389311,0 6.703164288774133,49.65217393822968,0 6.703508784994483,49.65184746310115,0 6.703873900696635,49.65162542648613,0 6.704255025833845,49.6512474026531,0 6.70443557202816,49.65111538767815,0 6.705073267221451,49.65080592781305,0 6.705493703484535,49.65067986398935,0 6.705537289381027,49.65065756812692,0 6.705461433157325,49.6506670396775,0 6.705682463943958,49.65059076435864,0 6.706054285168648,49.65049671940506,0 6.706573376432061,49.65029530227184,0 6.706727854907513,49.65027091093361,0 6.707191625609994,49.65006731450558,0 6.707524722442031,49.64997871778905,0 6.70805144123733,49.64992792345583,0 6.70845259912312,49.64984301477671,0 6.709469491615891,49.64976229704916,0 6.70991649851203,49.6497999317944,0 6.710390662774444,49.6497761271894,0 6.710678078234196,49.64967981912196,0 6.710310112684965,49.6493701916188,0 6.709555657580495,49.64903793297708,0 6.709440238773823,49.64891907759011,0 6.708657871931791,49.64869854971766,0 6.708383951336145,49.64855505153537,0 6.707903165370226,49.64856368489563,0 6.707232277840376,49.6484446618706,0 6.706652417778969,49.64842370711267,0 6.706276489421725,49.64846586808562,0 6.705313744023442,49.64846109040082,0 6.70510545372963,49.64843141846359,0 6.704281847923994,49.64854725636542,0 6.704124938696623,49.64852102100849,0 6.703829057514668,49.64855924248695,0 6.703505348414183,49.64853728190064,0 6.702992795035243,49.64841406792402,0 6.702982736751437,49.64838221669197,0 6.703035291284323,49.64836520142853,0 6.703401664271951,49.64831231161952,0 6.703647589311004,49.64831809513271,0 6.70398211106658,49.64822220616043,0 6.704608406871557,49.64814626611769,0 6.705238558351994,49.64800368994474,0 6.705245934426785,49.64797561056912,0 6.705195475369692,49.64797837659717,0 6.705224057659507,49.64794283732772,0 6.705160522833467,49.64782725088298,0 6.704782834276557,49.6472598798573,0 6.704705553129315,49.64723657816648,0 6.704642856493592,49.6471546869725,0 6.704512350261211,49.64717145077884,0 6.70469943434,49.64706516824663,0 6.704810578376055,49.64682921767235,0 6.704804878681898,49.64677381329238,0 6.704740254208446,49.64665479026735,0 6.704420819878578,49.64632957242429,0 6.704305484890938,49.64619244448841,0 6.704313866794109,49.64614709839225,0 6.704149581491947,49.64598247781396,0 6.704295845702291,49.64588331989944,0 
		</coordinates>
	</LineString>
	<atom:link rel="app" href="https://www.google.com/earth/about/versions/#earth-pro" title="Google Earth Pro 7.3.7.1155"></atom:link>
</Placemark>
</kml>
