<?xml version="1.0" encoding="UTF-8"?>
<kml xmlns="http://www.opengis.net/kml/2.2" xmlns:gx="http://www.google.com/kml/ext/2.2" xmlns:kml="http://www.opengis.net/kml/2.2" xmlns:atom="http://www.w3.org/2005/Atom">
<Placemark>
	<name>Track</name>
	<Style>
		<LineStyle>
			<color>ff0000ff</color>
			<width>3</width>
		</LineStyle>
	</Style>
	<LineString>
		<tessellate>1</tessellate>
		<coordinates>
			174.7863418143243,-41.29438047297299,0 174.7863840591162,-41.29436228424311,0 174.7862035129219,-41.29462589509785,0 174.7863151598722,-41.29470845684409,0 174.7879193723202,-41.29520894028246,0 174.7887388709933,-41.29538672044873,0 174.7888587322086,-41.29547355696559,0 174.7891992889345,-41.29558403044939,0 174.7891841176897,-41.29564865492284,0 174.7900011856109,-41.29583816975355,0 174.7900846693665,-41.29592349752784,0 174.7901316918433,-41.29590723663568,0 174.790078215301,-41.2960029579699,0 174.7901694942266,-41.29605961963534,0 174.790313411504,-41.29591695964336,0 174.7902748547494,-41.29590069875121,0 174.7903419937938,-41.29593548364937,0 174.7902506310493,-41.29591645672917,0 174.7902715858072,-41.29600513726473,0 174.7907014936209,-41.29601502791047,0 174.7909392043948,-41.29607713781297,0 174.7906959615648,-41.29621275700629,0 174.7906776051968,-41.29631845280528,0 174.7905041836202,-41.29656965844333,0 174.7903720848262,-41.29661844111979,0 174.7903072927147,-41.29681742750108,0 174.790329253301,-41.29714147187769,0 174.7905812133104,-41.29733392037451,0 174.7906398866326,-41.29743919707835,0 174.7905681375414,-41.29755687899888,0 174.7903997451067,-41.2976145464927,0 174.7903703246266,-41.29770859144628,0 174.7902953904122,-41.29774119704962,0 174.7903094720095,-41.29778620786965,0 174.7901821509004,-41.29797119647264,0 174.7901913709939,-41.29814134910703,0 174.7901412472129,-41.29811813123524,0 174.7900674026459,-41.2982395850122,0 174.789932705462,-41.29828811623156,0 174.7898291889578,-41.2983915489167,0 174.7897644806653,-41.29872623831034,0 174.789602290839,-41.29883637651801,0 174.7895726189017,-41.2990493606776,0 174.7894416935742,-41.29931992851198,0 174.7892339900136,-41.29934130236506,0 174.7890252806246,-41.29944272339344,0 174.7890258673579,-41.29952511750162,0 174.7887134738266,-41.29965059459209,0 174.7885229531676,-41.3001268543303,0 174.7886183392256,-41.30035609938204,0 174.7886313311756,-41.30051468499005,0 174.7885550558567,-41.30060143768787,0 174.7885434050113,-41.30069464445114,0 174.7885860688984,-41.30089597776532,0 174.7882538940758,-41.30123058333993,0 174.7880255710334,-41.30133317783475,0 174.7879749443382,-41.30145899020135,0 174.7883156687021,-41.30190541036427,0 174.7882802132517,-41.30171748809516,0 174.7881285846233,-41.30148187279701,0 174.7880385629833,-41.30144750699401,0 174.788035210222,-41.30138807930052,0 174.7881728410721,-41.30130719393492,0 174.7883771080524,-41.30129747092724,0 174.7886169143021,-41.301214909181,0 174.7889260388911,-41.30081643350422,0 174.7888785135001,-41.30080888979137,0 174.7889043297619,-41.30085482262075,0 174.7887071035802,-41.30118892528117,0 174.7885752562433,-41.30125572904944,0 174.7883090469986,-41.30128347314894,0 174.7883196081966,-41.30133108235896,0 174.7883872501552,-41.30128808319569,0 174.7884186822921,-41.30117098800838,0 174.7883731685579,-41.30119169130921,0 174.7884971369058,-41.30122538655996,0 174.7884650342166,-41.30128355696797,0 174.7885102964938,-41.30125028081238,0 174.7885221149772,-41.30129688419402,0 174.7885847277939,-41.30114424973726,0 174.7886678762734,-41.30119680427015,0 174.7887656092644,-41.30111047066748,0 174.7887112107128,-41.30107350647449,0 174.7886506933719,-41.30118062719703,0 174.7884552273899,-41.30124097689986,0 174.788275687024,-41.30119915120304,0 174.7881955560297,-41.30124097689986,0 174.7881835699081,-41.30119948647916,0 174.7884296625853,-41.30125313065946,0 174.7886485140771,-41.30111834965646,0 174.7887189220637,-41.30118691362441,0 174.7887535393238,-41.30108373239636,0 174.788714395836,-41.30112228915095,0 174.788783127442,-41.30105858668685,0 174.7886794432998,-41.30131230689585,0 174.7887096181512,-41.30123360082507,0 174.78869587183,-41.30127978511155,0 174.7886656131595,-41.30120786838233,0 174.7885816264898,-41.30120099522173,0 174.7886206861585,-41.30115246400237,0 174.7884926106781,-41.30120174959302,0 174.7884387988597,-41.30130937322974,0 174.7884372901171,-41.30125899799168,0 174.7883869986981,-41.30124541930854,0 174.7886231169105,-41.30116587504745,0 174.7884070314467,-41.30135455168784,0 174.7886040899903,-41.30126276984811,0 174.7887904196978,-41.30109605379403,0 174.7885986417532,-41.3011628575623,0 174.7886301577091,-41.30127567797899,0 174.7886832151562,-41.3011958822608,0 174.788619345054,-41.30120082758367,0 174.7886270564049,-41.30108817480505,0 174.7888483386487,-41.30089002661407,0 174.788825372234,-41.30086094141006,0 174.7888865601271,-41.30088650621474,0 174.7888553794473,-41.3008467759937,0 174.7889076825231,-41.30072481930256,0 174.7892029769719,-41.30057176575065,0 174.7890900727361,-41.30062465555966,0 174.7892075870186,-41.30082682706416,0 174.7891514282674,-41.30128934048116,0 174.7890211734921,-41.30123460665345,0 174.7891457285732,-41.30145622417331,0 174.7890942636877,-41.30147868767381,0 174.7891062498093,-41.30155898630619,0 174.7891422919929,-41.30162185057998,0 174.7892002947628,-41.30162302404642,0 174.7894838545471,-41.30143702961504,0 174.7893933299929,-41.30151716060936,0 174.7891244385391,-41.30159117281437,0 174.789055287838,-41.30167541094124,0 174.7892766539007,-41.3017950206995,0 174.7894377540797,-41.30228972062469,0 174.7890847083181,-41.30256121046841,0 174.7890774160624,-41.30264393985271,0 174.7891323175281,-41.30240698345006,0 174.7890823613852,-41.3022974319756,0 174.7887401282787,-41.30206357687712,0 174.7884292434901,-41.30196793936193,0 174.7883026767522,-41.30165948532522,0 174.7880163509399,-41.30140802823007,0 174.7880597691983,-41.30131918005645,0 174.7883762698621,-41.30106093361974,0 174.7884429898113,-41.30093864165246,0 174.7883685585111,-41.30081836134195,0 174.7882605995983,-41.30081500858068,0 174.7884678840637,-41.30090662278235,0 174.7884161677212,-41.30083931609988,0 174.7883229609579,-41.30083663389087,0 174.7883624397218,-41.30093168467283,0 174.7884188499302,-41.30091802217066,0 174.7883135732263,-41.30091676488519,0 174.7883641999215,-41.30090863443911,0 174.7882767766714,-41.30082322284579,0 174.7883595898747,-41.30083587951958,0 174.7882429137826,-41.30077335052192,0 174.7882481105626,-41.30086194723845,0 174.7883455920964,-41.30093243904412,0 174.788296725601,-41.30081894807518,0 174.7883485257626,-41.30076111294329,0 174.7884398046881,-41.30084342323244,0 174.7882700711489,-41.30086999386549,0 174.7883347794414,-41.30085012875497,0 174.7882793750614,-41.30075700581074,0 174.7883719950914,-41.30083059892058,0 174.7883174289018,-41.3008504640311,0 174.7882428299636,-41.30078684538603,0 174.7883018385619,-41.30075574852526,0 174.7883320972323,-41.3007986638695,0 174.7882854938507,-41.30076848901808,0 174.7883082088083,-41.30073906853795,0 174.7882162593305,-41.30074074491858,0 174.7883477713913,-41.30081031471491,0 174.7882169298828,-41.30085038021207,0 174.788262443617,-41.30081777460873,0 174.7882445063442,-41.30070151761174,0 174.7883465141058,-41.30077016539872,0 174.7883465979248,-41.30082339048386,0 174.7883926145732,-41.30081023089588,0 174.788384065032,-41.30088659003377,0 174.7883343603462,-41.3008779566735,0 174.7883542254567,-41.30080838687718,0 174.7883328516036,-41.30088105797768,0 174.7883024252951,-41.30083185620606,0 174.788262443617,-41.30087041296065,0 174.7884057741612,-41.30095121450722,0 174.7885124757886,-41.3008692394942,0 174.7886537946761,-41.30090670660138,0 174.7883749287575,-41.30112270824611,0 174.7883449215442,-41.30119998939335,0 174.7883877530694,-41.30125338211656,0 174.7883437480778,-41.30122664384544,0 174.7880215477198,-41.30142387002707,0 174.788051135838,-41.30130484700203,0 174.7881871741265,-41.30123041570187,0 174.7883007489145,-41.30125363357365,0 174.7884416487068,-41.3012165017426,0 174.78845003061,-41.30117677152157,0 174.7884999029338,-41.30121189169586,0 174.7884336020797,-41.30122915841639,0 174.788577100262,-41.30118297412992,0 174.7885561455041,-41.30114927887917,0 174.7887286450714,-41.30100200884044,0 174.7887282259762,-41.30095724947751,0 174.7889092750847,-41.30083478987217,0 174.7889360133559,-41.30072398111224,0 174.7890602331609,-41.30068207159638,0 174.7891691140831,-41.30053488537669,0 174.7892152983695,-41.30032885819674,0 174.7891929186881,-41.30016105249524,0 174.7892468143255,-41.30009374581277,0 174.790046364069,-41.29984983243048,0 174.7903051134199,-41.29959066398442,0 174.7906821314245,-41.29932747222483,0 174.7907092049718,-41.29917634651065,0 174.7905259765685,-41.29908682778478,0 174.7904528863728,-41.298942072317,0 174.7905483562499,-41.29889974370599,0 174.7904710751027,-41.29885699599981,0 174.7907575685531,-41.29853068850935,0 174.7908687125891,-41.29829926416278,0 174.7910380270332,-41.29815786145627,0 174.7910946048796,-41.29791998304427,0 174.791275318712,-41.29782878793776,0 174.791508000344,-41.29780204966664,0 174.7916024643928,-41.29772116430104,0 174.7916888818145,-41.29750658757985,0 174.7918320447206,-41.29731455817819,0 174.7918713558465,-41.29711557179689,0 174.7917894646525,-41.29698112607002,0 174.7918210644275,-41.29693209193647,0 174.7923071309924,-41.29708958789706,0 174.7922838293016,-41.29721674136817,0 174.7923374734819,-41.29736652597785,0 174.7925820574164,-41.2976142950356,0 174.7923618648201,-41.29798871465027,0 174.7922732681036,-41.29802417010069,0 174.7922599408776,-41.2981550116092,0 174.7923206258565,-41.29827017895877,0 174.792173774913,-41.29843412898481,0 174.7920660674572,-41.29875750280917,0 174.7922398243099,-41.2987124081701,0 174.792588762939,-41.2984896171838,0 174.7925736755133,-41.29845273680985,0 174.7928232047707,-41.29814369603992,0 174.7929319180548,-41.29784521646798,0 174.7934060823172,-41.29744539968669,0 174.7934442199767,-41.29730039276183,0 174.7936446312815,-41.29708791151643,0 174.7936970181763,-41.29698028787971,0 174.7936787456274,-41.29685824736953,0 174.7938115987927,-41.29653118550777,0 174.7940929792821,-41.29641886800528,0 174.7941547539085,-41.29618048667908,0 174.7942848410457,-41.29599650390446,0 174.7942390758544,-41.29599859938025,0 174.7943094838411,-41.29598904401064,0 174.794251145795,-41.29599893465638,0 174.7943267505616,-41.29608149640262,0 174.7943457774818,-41.29603690467775,0 174.7943062148988,-41.29599625244737,0 174.7942181210965,-41.29602575674653,0 174.7942883614451,-41.29601561464369,0 174.7941477131099,-41.29634242504835,0 174.7938396781683,-41.29651869647205,0 174.7936252690852,-41.29691247828305,0 174.7936223354191,-41.29709134809673,0 174.7933319862932,-41.29746937192976,0 174.7932490054518,-41.29766215570271,0 174.7930957004428,-41.29776852205396,0 174.7930285613984,-41.29792794585228,0 174.7929459996521,-41.29799919202924,0 174.7926797904074,-41.29805878736079,0 174.7926190216094,-41.29811218008399,0 174.7926242183894,-41.29804353229702,0 174.7925543133169,-41.29805032163858,0 174.7922800574452,-41.29830873571336,0 174.7922359686345,-41.29813690669835,0 174.7924342006445,-41.29764924757183,0 174.7922541573644,-41.29721347242594,0 174.7920868545771,-41.29705279134214,0 174.7919022012502,-41.29696662537754,0 174.7917893808335,-41.29697978496552,0 174.791875211522,-41.2970516178757,0 174.7919218987226,-41.29717877134681,0 174.7918042168021,-41.29753869026899,0 174.791629454121,-41.29778855480254,0 174.7916608024389,-41.29783557727933,0 174.7913657594472,-41.29794144071639,0 174.7911850456148,-41.29792048595846,0 174.7912420425564,-41.29776583984494,0 174.7916022129357,-41.29735537804663,0 174.7915881313384,-41.29726259037852,0 174.7915168851614,-41.29719561897218,0 174.7912612371147,-41.2971462495625,0 174.7908830456436,-41.29723300226033,0 174.7907979693264,-41.29716821014881,0 174.7906306665391,-41.29694131202996,0 174.7906819637865,-41.2966284994036,0 174.7906313370913,-41.29638643004,0 174.7906520403922,-41.29623563960195,0 174.790498316288,-41.29610370844603,0 174.7904281597584,-41.29596456885338,0 174.7902462724596,-41.29600513726473,0 174.7901559993625,-41.2960875313729,0 174.790152227506,-41.29597177729011,0 174.7899448592216,-41.29587069153786,0 174.7896248381585,-41.29580095410347,0 174.7895751334727,-41.29574630409479,0 174.7890299744904,-41.29557036794722,0 174.7885239589959,-41.29546224139631,0 174.7883692290634,-41.29530457779765,0 174.7880174405873,-41.29519997164607,0 174.7877675760537,-41.29518739879131,0 174.787131305784,-41.29493325948715,0 174.7867583949119,-41.2948255520314,0 174.7866180818528,-41.2948289886117,0 174.7860223799944,-41.29456940107048,0 174.7853581979871,-41.2943868432194,0 174.785175640136,-41.29427083767951,0 174.7849432099611,-41.29431199282408,0 174.7847298067063,-41.29423747770488,0 174.7844650223851,-41.29426639527082,0 174.7841666266322,-41.29402709193528,0 174.7841419838369,-41.29416740499437,0 174.7840256430209,-41.29417553544044,0 174.7838379722089,-41.29455196671188,0 174.7838809713721,-41.29465590231121,0 174.7850157134235,-41.29421710968018,0 174.7850013803691,-41.29425717517734,0 174.7850582096726,-41.29430260509253,0 174.7851110156626,-41.29428332671523,0 174.785328945145,-41.29445138387382,0 174.7854911349714,-41.29442632198334,0 174.7857057116926,-41.29449932835996,0 174.786158837378,-41.29450469277799,0 174.786166716367,-41.29461944103241,0 174.7863368690014,-41.29431568086147,0 174.7862122301012,-41.29447896033525,0 174.7862491942942,-41.29447535611689,0 174.7862334363163,-41.29454249516129,0 
		</coordinates>
	</LineString>
	<atom:link rel="app" href="https://www.google.com/earth/about/versions/#earth-pro" title="Google Earth Pro 7.3.7.1155"></atom:link>
</Placemark>
</kml>
