<?xml version="1.0" encoding="UTF-8"?>
<kml xmlns="http://www.opengis.net/kml/2.2" xmlns:gx="http://www.google.com/kml/ext/2.2" xmlns:kml="http://www.opengis.net/kml/2.2" xmlns:atom="http://www.w3.org/2005/Atom">
<Placemark>
	<name>Track</name>
	<Style>
		<LineStyle>
			<color>ff0000ff</color>
			<width>3</width>
		</LineStyle>
	</Style>
	<LineString>
		<tessellate>1</tessellate>
		<coordinates>
			6.509150136262178,49.63391865603626,0 6.509181400761008,49.63374632410705,0 6.508984761312604,49.63380038738251,0 6.509375609457493,49.63380047120154,0 6.510595344007015,49.63404597714543,0 6.511499499902129,49.63435962796211,0 6.513489866629243,49.63476464152336,0 6.51631792075932,49.63405737653375,0 6.516775069758296,49.63396165519953,0 6.516948407515883,49.63398487307131,0 6.517326850444078,49.63382293470204,0 6.517422823235393,49.63380868546665,0 6.517481161281466,49.63397422805429,0 6.51773739606142,49.63396492414176,0 6.517596244812012,49.63400599546731,0 6.517614182084799,49.63395905680954,0 6.517558274790645,49.63410858996212,0 6.517620552331209,49.63398336432874,0 6.517520556226373,49.63398152031004,0 6.517569003626704,49.63401697576046,0 6.517599178478122,49.6339441370219,0 6.517609152942896,49.6335572283715,0 6.517713339999318,49.63338338769972,0 6.518008885905147,49.63324022479355,0 6.518044173717499,49.63341884315014,0 6.518273502588272,49.63355236686766,0 6.518734088167548,49.63408109731972,0 6.518717994913459,49.6344399265945,0 6.518590673804283,49.6344708558172,0 6.518655298277736,49.63456163182855,0 6.518598385155201,49.63465576060116,0 6.518865348771214,49.6347835008055,0 6.51895503513515,49.63507108390331,0 6.519068861380219,49.63517275638878,0 6.51909769512713,49.63510410860181,0 6.519148992374539,49.63511919602752,0 6.519209090620279,49.63521282188594,0 6.519114794209599,49.63541801087558,0 6.518875993788242,49.63540736585855,0 6.518885800614953,49.63550954125822,0 6.518833497539163,49.63548883795738,0 6.518620429560542,49.63571992702782,0 6.518640881404281,49.63568463921547,0 6.518563348799944,49.63570961728692,0 6.518587488681078,49.63565689511597,0 6.518388334661722,49.63564289733768,0 6.518739955499768,49.6357661113143,0 6.518561337143183,49.63569905608892,0 6.518613640218973,49.63567558676004,0 6.518560498952866,49.63565731421113,0 6.518637863919139,49.63567835278809,0 6.518574329093099,49.63564080186188,0 6.518332175910473,49.6357106231153,0 6.518252044916153,49.63562026619911,0 6.517891371622682,49.63569042272866,0 6.51780772022903,49.63604011572897,0 6.518053309991956,49.63616768829525,0 6.518788654357195,49.63620917871594,0 6.519094174727798,49.63639014400542,0 6.519765397533774,49.63658150285482,0 6.519809067249298,49.63670471683145,0 6.519400868564844,49.63662190362811,0 6.518701566383243,49.63663229718804,0 6.517663132399321,49.63697142899036,0 6.517221070826054,49.63722774758935,0 6.517275050282478,49.63722229935229,0 6.51707723736763,49.63741952553391,0 6.51645471341908,49.63771197013557,0 6.515913661569357,49.63846223428845,0 6.515889521688223,49.63857195340097,0 6.515743508934975,49.63858863338828,0 6.515773516148329,49.63865904137492,0 6.515694642439485,49.63874998502433,0 6.516335690394044,49.63926538825035,0 6.516297217458487,49.63945297524333,0 6.515988344326615,49.63928500190377,0 6.515599507838488,49.63938114233315,0 6.515416279435158,49.6394875086844,0 6.515282839536667,49.63972270488739,0 6.515117129310966,49.63977601379156,0 6.514844717457891,49.63999687694013,0 6.514711612835526,49.63994951918721,0 6.514753857627511,49.63990861549973,0 6.514474237337708,49.64010265655816,0 6.514288829639554,49.64011967182159,0 6.514090346172452,49.64004029519856,0 6.513894042000175,49.64008748531342,0 6.513748364523053,49.64002378284931,0 6.513870069757104,49.63974022306502,0 6.513871410861611,49.63940243236721,0 6.514022704213858,49.63889968581498,0 6.513099856674671,49.63889415375888,0 6.512985862791538,49.63944216258824,0 6.512606330215931,49.63996410369873,0 6.512199891731143,49.64078695513308,0 6.511932341381907,49.64099616743624,0 6.511665293946862,49.64108342304826,0 6.511545013636351,49.64150209911168,0 6.511292047798634,49.64151685126126,0 6.511388188228011,49.64155716821551,0 6.511353738605976,49.64152196422219,0 6.511539481580257,49.64118442498147,0 6.511540068313479,49.6408530883491,0 6.511454321444035,49.64063381776214,0 6.511261621490121,49.64043885469437,0 6.510960375890136,49.64041630737484,0 6.509879780933261,49.64007600210607,0 6.509291538968682,49.64005462825298,0 6.508992724120617,49.6399103756994,0 6.508368859067559,49.63994281366467,0 6.508052526041865,49.63979772292078,0 6.507385326549411,49.63977157138288,0 6.507144179195166,49.63982437737286,0 6.506815608590841,49.63969110511243,0 6.506922226399183,49.63968565687537,0 6.506697675213218,49.63978213258088,0 6.506034499034286,49.6396566554904,0 6.505342070013285,49.63976117782295,0 6.505263363942504,49.63983921334147,0 6.50456540286541,49.63973293080926,0 6.504137590527534,49.63953092694283,0 6.504173800349236,49.63969244621694,0 6.504437830299139,49.64002185501158,0 6.504336996003985,49.64025998488069,0 6.504349065944552,49.64043047279119,0 6.504702782258391,49.64100614190102,0 6.504640001803637,49.64197869412601,0 6.504694148898125,49.64214364998043,0 6.50482289493084,49.64232595637441,0 6.504963291808963,49.6423298958689,0 6.505331257358193,49.64262921363115,0 6.506089568138123,49.64300866238773,0 6.506003150716424,49.64324478060007,0 6.505802990868688,49.64339205063879,0 6.505857054144144,49.64347335509956,0 6.506194090470672,49.64361526072025,0 6.506110271438956,49.64360495097935,0 6.506006168201566,49.64378407225013,0 6.50607917457819,49.64386386796832,0 6.50601714849472,49.64393259957433,0 6.506159389391541,49.64411079883575,0 6.505994768813252,49.64409998618066,0 6.50608018040657,49.6443553827703,0 6.505988398566842,49.64440232142806,0 6.506063835695386,49.64461321011186,0 6.506417049095035,49.64487128891051,0 6.507102521136403,49.64493180625141,0 6.507459422573447,49.64487615041435,0 6.507850186899304,49.6450634021312,0 6.507724290713668,49.6450961753726,0 6.5081802662462,49.64519390836358,0 6.508260061964393,49.6453638933599,0 6.508151851594448,49.64571375399828,0 6.507485490292311,49.64571216143668,0 6.507015097886324,49.64558584615588,0 6.506573874503374,49.64556799270213,0 6.505564860999584,49.64538711123168,0 6.505300579592586,49.64543681591749,0 6.504724491387606,49.64540027081966,0 6.504442943260074,49.64533883146942,0 6.504339510574937,49.64521586894989,0 6.503579439595342,49.64524084702134,0 6.503285067155957,49.64514680206776,0 6.503143580630422,49.64517253451049,0 6.502713086083531,49.64499567635357,0 6.502489624544978,49.64503104798496,0 6.501727290451527,49.64494488202035,0 6.501522604376078,49.64480306021869,0 6.499918391928077,49.64465268887579,0 6.499834740534425,49.6445884834975,0 6.499805068597198,49.64461756870151,0 6.499948566779494,49.64476148597896,0 6.499910680577159,49.64481722563505,0 6.499543972313404,49.64470222592354,0 6.498908037319779,49.64496910572052,0 6.499096881598234,49.64508041739464,0 6.499104592949152,49.64522198773921,0 6.499214814975858,49.64534830302,0 6.499276254326105,49.64557067491114,0 6.499384380877018,49.6457627043128,0 6.49945629760623,49.64573537930846,0 6.499165026471019,49.64575725607574,0 6.498788008466363,49.6460341103375,0 6.498505035415292,49.64613050222397,0 6.498002372682095,49.6465050894767,0 6.496749697253108,49.64687473140657,0 6.495692655444145,49.64706315658987,0 6.495492160320282,49.64706097729504,0 6.494809370487928,49.64685268700123,0 6.494554309174418,49.64656166732311,0 6.494477111846209,49.64631582610309,0 6.494615748524666,49.64589731767774,0 6.494538215920329,49.64596470817924,0 6.494327997788787,49.64591047726572,0 6.49418206885457,49.64558433741331,0 6.493975119665265,49.64550890028477,0 6.494043851271272,49.64546615257859,0 6.493966905400157,49.64498469606042,0 6.494202772155404,49.64465805329382,0 6.494134292006493,49.64454774744809,0 6.4941615331918,49.64444783516228,0 6.493627689778805,49.64401918463409,0 6.493209851905704,49.64387241750956,0 6.493340190500021,49.64374576695263,0 6.49336650967598,49.64361442252994,0 6.493142880499363,49.64323874562979,0 6.493232818320394,49.64317227713764,0 6.493159560486674,49.64322089217603,0 6.493183365091681,49.64326079003513,0 6.493148915469646,49.64323128573596,0 6.493200045078993,49.64320664294064,0 6.493059061467648,49.64320614002645,0 6.49298245087266,49.64309323579073,0 6.493043806403875,49.64296717196703,0 6.493431217968464,49.64266726747155,0 6.49355074390769,49.64246492832899,0 6.494392622262239,49.64182958006859,0 6.494697891175747,49.64150704443455,0 6.494964268058538,49.64139682240784,0 6.495409850031137,49.64090405032039,0 6.495816707611084,49.64026895351708,0 6.495796674862504,49.64015848003328,0 6.495883008465171,49.63992470875382,0 6.495814025402069,49.63961809873581,0 6.495870603248477,49.63943864218891,0 6.495960457250476,49.63939572684467,0 6.495902705937624,49.63938818313181,0 6.49599289521575,49.63937963359058,0 6.495785443112254,49.6391127537936,0 6.495616631582379,49.63871419429779,0 6.495620822533965,49.63851202279329,0 6.495499536395073,49.6382908243686,0 6.495147831737995,49.638302475214,0 6.49485832080245,49.63838696479797,0 6.4940095692873,49.63749378919601,0 6.493758028373122,49.63738893158734,0 6.493852073326707,49.63717469014227,0 6.493802033364773,49.63697947561741,0 6.493870681151748,49.6368142683059,0 6.493866071105003,49.63653825223446,0 6.493759620934725,49.63625234551728,0 6.492852447554469,49.63623139075935,0 6.492953281849623,49.63510444387794,0 6.494070421904325,49.63493990711868,0 6.49406916461885,49.63469096459448,0 6.494337720796466,49.63469800539315,0 6.494171926751733,49.63435384444892,0 6.494169076904655,49.63397825136781,0 6.494038654491305,49.63367155753076,0 6.494065560400486,49.63356628082693,0 6.493862634524703,49.63313017040491,0 6.493867747485638,49.63288625702262,0 6.493634646758437,49.6325212251395,0 6.493696924299002,49.63245961815119,0 6.493491902947426,49.63207966648042,0 6.493372712284327,49.63129947893322,0 6.493393834680319,49.63105103932321,0 6.493165930733085,49.63064669631422,0 6.493369275704026,49.62966006249189,0 6.493318900465965,49.6293780952692,0 6.493009189143777,49.62871374562383,0 6.492374259978533,49.62772333994508,0 6.49210050702095,49.6275339089334,0 6.491924738511443,49.62731120176613,0 6.491554761305451,49.62711296975613,0 6.491184532642365,49.62677727453411,0 6.49225733242929,49.62617453187704,0 6.492299409583211,49.6260869409889,0 6.489108754321933,49.62407771497965,0 6.488991742953658,49.62388023734093,0 6.488544652238488,49.62348922155797,0 6.488314820453525,49.62257953360677,0 6.489356691017747,49.62270006537437,0 6.490994514897466,49.62177939713001,0 6.490943804383278,49.62176732718945,0 6.491063497960567,49.62169038131833,0 6.491717034950852,49.62138829752803,0 6.4918268378824,49.62140849791467,0 6.491903951391578,49.62127874605358,0 6.492200335487723,49.6212827693671,0 6.492229085415602,49.62133876048028,0 6.492428574711084,49.62120381183922,0 6.492417678236961,49.62106618098915,0 6.491913255304098,49.62092293426394,0 6.491955164819956,49.62082939222455,0 6.491885762661695,49.62082017213106,0 6.492152558639646,49.62069117464125,0 6.492088437080383,49.62070844136178,0 6.492118276655674,49.62066108360887,0 6.492059016600251,49.62064834311604,0 6.492137471213937,49.62058195844293,0 6.492729904130101,49.62031533010304,0 6.492808861657977,49.62007678113878,0 6.492559248581529,49.62001601234078,0 6.492917239665985,49.62011240422726,0 6.493234075605869,49.62008063681424,0 6.493317056447268,49.62014685384929,0 6.493114717304707,49.61998927406967,0 6.492925370112062,49.62002120912075,0 6.492199581116438,49.61984368041158,0 6.49133482016623,49.61934638209641,0 6.491394750773907,49.61931335739791,0 6.491741677746177,49.61944981478155,0 6.491988943889737,49.61943020112813,0 6.492054825648665,49.61952206678689,0 6.492291446775198,49.61961368098855,0 6.492217937484384,49.61962407454848,0 6.49237266741693,49.61964511312544,0 6.492306031286716,49.61978182196617,0 6.492449780926108,49.61978257633746,0 6.492319526150823,49.61992900818586,0 6.492574336007237,49.62007066234946,0 6.492712302133441,49.61993630044162,0 6.492753122001886,49.61999346502125,0 6.493023270741105,49.62004208005965,0 6.493681753054261,49.61984275840223,0 6.494686240330338,49.6203657053411,0 6.495564412325621,49.62070249021053,0 6.497287480160594,49.62101714685559,0 6.498095663264394,49.62105251848698,0 6.498789098113775,49.62100407108665,0 6.499341549351811,49.6215227432549,0 6.500211926177144,49.62172181345522,0 6.500391969457269,49.62193069048226,0 6.500273030251265,49.62206253781915,0 6.500058956444263,49.62215356528759,0 6.499939514324069,49.62239228188992,0 6.499766847118735,49.62255614809692,0 6.499780593439937,49.62263996712863,0 6.499653607606888,49.62271423079073,0 6.499960804358125,49.62287700735033,0 6.499692164361477,49.6229234430939,0 6.499883523210883,49.62311538867652,0 6.500310497358441,49.62329367175698,0 6.500557512044907,49.62327933870256,0 6.501070819795132,49.6234086714685,0 6.501158159226179,49.6235468890518,0 6.501506343483925,49.62354118935764,0 6.502244370058179,49.62452069856226,0 6.501923510804772,49.62522980757058,0 6.50199031457305,49.62529267184436,0 6.503019444644451,49.6253963559866,0 6.503579439595342,49.6255187317729,0 6.504462137818336,49.62554245255888,0 6.505042668431997,49.62536953389645,0 6.50563015602529,49.62528621777892,0 6.506293583661318,49.62523299269378,0 6.506617041304708,49.62529099546373,0 6.506790546700358,49.62511522695422,0 6.506966650485992,49.62508312426507,0 6.507073268294334,49.62497851811349,0 6.507021468132734,49.62497709318995,0 6.50701493024826,49.62521061301231,0 6.507185753434896,49.62531764991581,0 6.507703922688961,49.62543826550245,0 6.508003324270248,49.62565904483199,0 6.508074402809143,49.62580497376621,0 6.508050179108977,49.62609959766269,0 6.507946830242872,49.6263512223959,0 6.507679866626859,49.62653168477118,0 6.507600322365761,49.62671549990773,0 6.507418435066938,49.62690484710038,0 6.507335118949413,49.62735612876713,0 6.507591856643558,49.62804931215942,0 6.507624462246895,49.62829087860882,0 6.50752161629498,49.62838048115373,0 6.507474509999156,49.62861291132867,0 6.507652038708329,49.62922730483115,0 6.507832836359739,49.62949024513364,0 6.507789753377438,49.62986156344414,0 6.50792277418077,49.63027663528919,0 6.508136512711644,49.63047226890922,0 6.50812896899879,49.63057469576597,0 6.50830339640379,49.63076219893992,0 6.508788540959358,49.63163215667009,0 6.508476817980409,49.63149083778262,0 6.50824380107224,49.63146929629147,0 6.50815729983151,49.63175763376057,0 6.508174063637853,49.63207656517625,0 6.507783802226186,49.63214051909745,0 6.507836105301976,49.63226658292115,0 6.507727978751063,49.63230581022799,0 6.507581127807498,49.63255751878023,0 6.507340986281633,49.63274049572647,0 6.507256161421537,49.63297971524298,0 6.507457327097654,49.63326252065599,0 6.50824774056673,49.63338900357485,0 6.508406912907958,49.63347659446299,0 6.508296355605125,49.63355521671474,0 
		</coordinates>
	</LineString>
	<atom:link rel="app" href="https://www.google.com/earth/about/versions/#earth-pro" title="Google Earth Pro 7.3.7.1155"></atom:link>
</Placemark>
</kml>
