<?xml version="1.0" encoding="UTF-8"?>
<kml xmlns="http://www.opengis.net/kml/2.2" xmlns:gx="http://www.google.com/kml/ext/2.2" xmlns:kml="http://www.opengis.net/kml/2.2" xmlns:atom="http://www.w3.org/2005/Atom">
<Placemark>
	<name>track</name>
	<Style>
		<LineStyle>
			<color>ff0000ff</color>
			<width>4</width>
		</LineStyle>
	</Style>
	<MultiGeometry>
		<LineString>
			<coordinates>
				13.7519540078938,54.33907804079354,31.86 13.7519540078938,54.33908600360155,27.53 13.75194302760065,54.3391249794513,30.42 13.75201301649213,54.33923000469804,30.9 13.75207797624171,54.3393060285598,32.34 13.75210002064705,54.33934902772307,32.34 13.75209700316191,54.33940200135112,33.3 13.75198996625841,54.33944399468601,33.3 13.75189097598195,54.33945396915078,33.78 13.75181503593922,54.3394529633224,33.78 13.75173700042069,54.33944097720087,33.78 13.75160900875926,54.33943997137249,30.42 13.75158998183906,54.33942597359419,28.02 13.751573972404,54.33939697220922,23.69 13.75156802125275,54.33937501162291,20.32 13.75157103873789,54.33935598470271,16.96 13.75157598406076,54.33933000080287,14.08 13.75158403068781,54.33929999358952,10.71 13.75159501098096,54.33927300386131,7.35 13.75159903429449,54.33925699442625,4.46 13.75160096213222,54.33925297111273,3.98 13.7515879701823,54.33923101052642,1.1 13.75158101320267,54.33922296389937,-2.27 13.75158101320267,54.33920301496983,-5.63 13.75158302485943,54.33919304050505,-7.069999999999999 13.7515929993242,54.33916898444295,-10.44 13.7515929993242,54.33916898444295,-13.8 13.7515929993242,54.33916898444295,-14.28 13.75159400515258,54.33914199471474,-15.72 13.75147900544107,54.33899195864797,-19.09 13.75141999684274,54.33892297558486,-20.05 13.75139300711453,54.33885097503662,-20.53 13.75138102099299,54.33868199586868,-23.9 13.75138102099299,54.33868199586868,-23.9 13.75135595910251,54.33854201808572,-24.86 13.75133098103106,54.33847596868873,-24.86 13.75124196521938,54.33841503225267,-24.86 13.75119402073324,54.33839801698923,-25.34 13.75096402131021,54.3383199814707,-24.86 13.75085597857833,54.33827597647905,-25.34 13.75078598968685,54.33825301006436,-24.86 13.75066302716732,54.33817899785936,-24.38 13.75045398250222,54.33812501840293,-24.86 13.75042900443077,54.33811202645302,-24.86 13.75025499612093,54.33804203756154,-24.86 13.75021400861442,54.3379970267415,-24.86 13.7501130066812,54.33796199038625,-25.34 13.7500389944762,54.33793801814318,-25.34 13.74996297061443,54.33788403868675,-24.86 13.74992701224983,54.33786802925169,-24.86 13.74978602863848,54.33777901344001,-25.34 13.74965703114867,54.33770500123501,-25.34 13.74951403588057,54.33762897737324,-25.34 13.74939199537039,54.33755898848176,-25.34 13.74929996207356,54.33755898848176,-25.34 13.74905403703451,54.3374689668417,-24.86 13.74893803149462,54.33746703900397,-24.86 13.74875698238611,54.33742999099195,-25.34 13.74862396158278,54.33742697350681,-25.34 13.74836403876543,54.33742898516357,-25.34 13.74832397326827,54.33744801208377,-25.34 13.74815499410033,54.33745203539729,-24.86 13.74798702076077,54.33747299015522,-24.86 13.74793597497046,54.33749000541866,-24.86 13.74768300913274,54.33749897405505,-24.86 13.74740397557616,54.33752504177392,-24.86 13.74731596559286,54.3375429790467,-25.34 13.74709895811975,54.33758597820997,-24.86 13.74691598117352,54.3375950306654,-24.38 13.74670098535717,54.33759201318026,-23.9 13.7465940322727,54.33757700957358,-24.38 13.74643896706402,54.33754800818861,-24.38 13.74636998400092,54.33753602206707,-24.86 13.74615901149809,54.33748899959028,-24.38 13.745949966833,54.33744398877025,-24.38 13.74591702595353,54.33743502013385,-24.38 13.74584401957691,54.33741800487041,-24.38 13.74577201902866,54.33739696629345,-23.9 13.74562399461865,54.33735597878695,-23.9 13.74556800350547,54.3373529613018,-23.9 13.74552198685706,54.33735103346407,-22.93 13.74543397687376,54.33735497295856,-22.93 13.74532802961767,54.33736201375723,-22.93 13.7452520057559,54.33735203929245,-22.45 13.74511596746743,54.33733301237226,-22.93 13.74495503492653,54.3373030051589,-23.41 13.74483198858798,54.33733996935189,-23.41 13.74478597193956,54.33733401820064,-23.41 13.74460299499333,54.33735002763569,-22.45 13.74450199306011,54.33734399266541,-22.93 13.74443602748215,54.33734902180731,-22.93 13.74438095837831,54.33734097518027,-22.93 13.74435296282172,54.33732102625072,-22.93 13.74425900168717,54.3373030051589,-22.93 13.74415498226881,54.33727500960231,-22.93 13.74395499005914,54.33718398213387,-22.93 13.74385197646916,54.33714400045574,-22.45 13.74380998313427,54.33710603043437,-22.45 13.74372297897935,54.33706998825073,-22.93 13.74363102950156,54.33701600879431,-22.93 13.74357101507485,54.33701299130917,-22.45 13.7433700170368,54.33694803155959,-22.45 13.74330698512495,54.33693503960967,-21.97 13.74325996264815,54.33693998493254,-21.97 13.74310900457203,54.33688902296126,-21.49 13.74299299903214,54.33683303184807,-21.97 13.74283399432898,54.33679103851318,-22.45 13.7427360098809,54.33675901964307,-22.45 13.74265696853399,54.33676203712821,-22.93 13.74261002987623,54.33677201159298,-22.93 13.74249201267958,54.3367850035429,-22.45 13.74249201267958,54.3367850035429,-22.45 13.74238195829093,54.33674996718764,-22.45 13.74226695857942,54.33673102408648,-22.45 13.74219303019345,54.33670998550951,-21.97 13.74211901798844,54.3366779666394,-23.41 13.74209001660347,54.33667000383139,-22.93 13.74205003492534,54.33665600605309,-21.97 13.7417499627918,54.3365590274334,-22.45 13.74149699695408,54.33645400218666,-22.45 13.74147797003388,54.33644696138799,-22.93 13.74121896922588,54.33629097416997,-22.93 13.7411680072546,54.33624202385545,-22.93 13.74115300364792,54.33623900637031,-23.41 13.7410799972713,54.33620003052056,-22.93 13.74094898812473,54.33612098917365,-21.97 13.74082501977682,54.33603297919035,-23.41 13.74072602950037,54.33598302304745,-23.41 13.74055101536214,54.33588302694261,-23.41 13.74039201065898,54.33581697754562,-22.93 13.74022303149104,54.3357490003109,-23.41 13.74018003232777,54.33571496978402,-22.93 13.74006997793913,54.33568697422743,-22.93 13.74003100208938,54.33566995896399,-22.93 13.73980896547437,54.33554699644446,-22.93 13.73976001515985,54.33551497757435,-22.93 13.73957703821361,54.33541296981275,-23.41 13.73944502323866,54.3353190086782,-23.41 13.73922499828041,54.33516997843981,-23.41 13.73903799802065,54.33502396568656,-23.41 13.73898401856422,54.33495196513832,-23.41 13.73879400081933,54.33480997569859,-23.41 13.73861404135823,54.3346799723804,-23.41 13.73850096948445,54.33457997627556,-23.41 13.7383739836514,54.33446799404919,-23.41 13.73828697949648,54.33439800515771,-23.41 13.73822000809014,54.3343570176512,-23.41 13.73808396980166,54.33423296548426,-23.41 13.73796603642404,54.3341310415417,-23.41 13.73782203532755,54.33399500325322,-22.93 13.73772597871721,54.33393096551299,-22.93 13.73764601536095,54.33388402685523,-22.45 13.73744803480804,54.33372996747494,-22.45 13.73731903731823,54.33364103548229,-22.93 13.73710898682475,54.33349896222353,-22.93 13.73694696463645,54.33335999026895,-22.93 13.73679902404547,54.3332050088793,-22.45 13.73667203821242,54.33305899612606,-22.45 13.7365850340575,54.33297702111304,-22.45 13.73644597828388,54.33278298005462,-22.45 13.73633801937103,54.33270997367799,-22.93 13.73626400716603,54.33260696008801,-22.45 13.7361859716475,54.3325440119952,-22.45 13.73609502799809,54.33241300284863,-22.45 13.73606996610761,54.33234795928001,-21.97 13.73592998832464,54.33216003701091,-21.97 13.73592303134501,54.33214603923261,-22.45 13.73580995947123,54.33198401704431,-22.45 13.7356679700315,54.33182400651276,-21.49 13.73557903803885,54.33173297904432,-21.49 13.73550997115672,54.33163298293948,-21.97 13.73543797060847,54.33156601153314,-21.97 13.73537502251565,54.33147900737822,-21.49 13.73527703806758,54.33142896741629,-21.97 13.73521601781249,54.33134799823165,-21.97 13.73510202392936,54.33121296577156,-21.49 13.73508903197944,54.33119301684201,-21.49 13.73497797176242,54.33106997050345,-21.49 13.73485903255641,54.3309480138123,-21.49 13.73480999842286,54.33087701909244,-21.49 13.73468703590333,54.33073402382433,-21.49 13.73461696319282,54.33066898025572,-21.01 13.73454202897847,54.33054300025105,-21.01 13.73441495932639,54.33040603995323,-21.01 13.73440599068999,54.33039799332619,-21.01 13.73434999957681,54.33035700581968,-21.01 13.73429995961487,54.33026497252285,-21.01 13.73421303927898,54.33021803386509,-20.05 13.7341139651835,54.33026597835124,-20.05 13.7341139651835,54.33026597835124,-20.53 13.73411497101188,54.33021803386509,-19.57 13.73416098766029,54.33016195893288,-20.05 13.73418001458049,54.33003203943372,-21.01 13.73399402014911,54.32983699254692,-20.53 13.73386996798217,54.32967295870185,-20.53 13.73371498659253,54.32951495982707,-20.05 13.73366603627801,54.32946198619902,-20.05 13.73360803350806,54.32937900535762,-20.05 13.7335129827261,54.32930801063776,-20.05 13.73338297940791,54.32908597402275,-20.05 13.73329597525299,54.32896502315998,-20.05 13.7332450132817,54.32890601456165,-19.57 13.73321098275483,54.32880400680006,-20.05 13.73316002078354,54.32873301208019,-19.09 13.73308701440692,54.3285149987787,-19.57 13.73308701440692,54.32849898934364,-19.57 13.73304200358689,54.32843101210892,-19.57 13.73301702551544,54.32826898992062,-19.57 13.7329310271889,54.32807897217572,-19.57 13.73292398639023,54.32806799188256,-19.09 13.73286103829741,54.3279140163213,-19.09 13.73276196420193,54.32771502994001,-19.57 13.73275802470744,54.32762903161347,-19.09 13.73267998918891,54.32749098166823,-19.09 13.73254504054785,54.327308004722,-18.61 13.73243900947273,54.32714296504855,-19.09 13.73242098838091,54.32712201029062,-19.09 13.73239299282432,54.32703098282218,-19.09 13.7323469761759,54.32699896395206,-19.09 13.73230900615454,54.32696702890098,-19.09 13.73227698728442,54.32689100503922,-19.09 13.73219903558493,54.32682202197611,-19.09 13.73210901394486,54.32666402310133,-19.09 13.73208696953952,54.32662202976644,-19.09 13.73197196982801,54.32645397260785,-18.61 13.73190801590681,54.32627200149,-18.61 13.73188898898661,54.32623696513474,-18.61 13.7318670284003,54.3261750228703,-19.09 13.73183199204504,54.326087012887,-18.61 13.73178304173052,54.32603797875345,-18.61 13.73177097178996,54.32594996877015,-18.61 13.7317409645766,54.32586799375713,-18.61 13.73168497346342,54.32576598599553,-18.13 13.73157500289381,54.32560999877751,-18.13 13.73156201094389,54.32558502070606,-18.13 13.73152404092252,54.32548502460122,-18.13 13.73148498125374,54.32537497021258,-18.13 13.73144097626209,54.32525301352143,-18.13 13.73143100179732,54.32521495968103,-18.13 13.73134701512754,54.32513499632478,-18.61 13.7313299998641,54.32508504018188,-18.13 13.73128599487245,54.32497498579323,-18.13 13.73123603872955,54.32484598830342,-17.65 13.73119999654591,54.3247970379889,-18.13 13.7311640381813,54.32469201274216,-17.65 13.73113696463406,54.32458899915218,-18.13 13.73112196102738,54.32456796057522,-17.65 13.73107301071286,54.3245190102607,-18.13 13.7310519721359,54.32437098585069,-18.13 13.73103101737797,54.32435497641563,-18.13 13.73095599934459,54.32421701028943,-18.13 13.73090403154492,54.32407300919294,-17.65 13.73090696521103,54.32400000281632,-17.65 13.7309050373733,54.32394702918828,-17.65 13.7308949790895,54.32390998117626,-17.65 13.73086899518967,54.32383898645639,-17.65 13.73087997548282,54.3238249886781,-17.65 13.73087896965444,54.32377603836358,-17.65 13.73084996826947,54.32363396510482,-17.65 13.73077302239835,54.32348996400833,-18.61 13.73074502684176,54.32347403839231,-17.65 13.73070202767849,54.32338703423738,-17.65 13.73070202767849,54.32334202341735,-17.65 13.73070202767849,54.32334202341735,-17.65 13.73065601103008,54.32323196902871,-17.17 13.73064997605979,54.32317597791553,-17.17 13.73065098188818,54.32316097430885,-17.65 13.73061502352357,54.32306198403239,-18.13 13.73058099299669,54.32292401790619,-18.13 13.7305529974401,54.32275000959635,-18.13 13.73048703186214,54.322609025985,-18.13 13.73045803047717,54.32253995910287,-17.65 13.73040203936398,54.32235396467149,-18.61 13.73036096803844,54.32227198965847,-18.13 13.73034495860338,54.32221700437367,-17.65 13.73034495860338,54.32218699716032,-17.17 13.73033096082509,54.32216998189688,-18.13 13.73030598275363,54.32204701937735,-17.65 13.73027899302542,54.32187602855265,-17.17 13.73030003160238,54.32179296389222,-16.69 13.73027002438903,54.32168802246451,-17.17 13.7302749697119,54.32162197306752,-17.17 13.73025803826749,54.32150596752763,-17.17 13.73025300912559,54.32149297557771,-17.17 13.73027002438903,54.32142399251461,-16.69 13.73023901134729,54.32137403637171,-17.17 13.73024596832693,54.32120203971863,-17.17 13.73025602661073,54.32104596868157,-16.69 13.73028703965247,54.32098201476038,-16.69 13.73027396388352,54.32093096897006,-17.17 13.7303130235523,54.32074002921581,-17.65 13.73030900023878,54.32058898732066,-16.69 13.73029701411724,54.32041900232434,-17.17 13.73029500246048,54.32040299288929,-17.17 13.73031604103744,54.32019101455808,-16.69 13.73034101910889,54.32000803761184,-16.69 13.7303489819169,54.31999303400517,-16.69 13.73033297248185,54.31995296850801,-16.69 13.7303079944104,54.31973696686327,-16.69 13.7302939966321,54.3196939677,-16.21 13.73029097914696,54.31963697075844,-17.65 13.73029097914696,54.31963697075844,-16.69 13.73029097914696,54.3195699993521,-20.53 13.73029097914696,54.31955801323056,-17.65 13.73026298359036,54.31937101297081,-16.21 13.73026398941875,54.31935299187899,-16.69 13.73019802384079,54.31921301409602,-16.69 13.73018402606249,54.31915802881122,-16.21 13.73018402606249,54.31915802881122,-16.21 13.73017203994095,54.31908502243459,-16.21 13.73016902245581,54.3189499899745,-16.21 13.73013298027217,54.31890397332609,-16.21 13.73013298027217,54.31890397332609,-15.72 13.73014798387885,54.31883297860622,-15.72 13.73015896417201,54.3187929969281,-16.21 13.73015795834363,54.31870004162192,-15.72 13.73017597943544,54.31859803386033,-15.72 13.73017203994095,54.31858596391976,-14.76 13.73015703633428,54.31855897419155,-15.24 13.73012904077768,54.31845503859222,-14.28 13.73007698915899,54.31839703582227,-14.28 13.73007698915899,54.31834498420358,-14.28 13.72998202219605,54.31825404055417,-14.28 13.72996500693262,54.31824297644198,-14.28 13.72993701137602,54.31817902252078,-14.28 13.72987599112093,54.31809403002262,-13.8 13.72974799945951,54.31802596896887,-14.28 13.72963802888989,54.31797198951244,-14.28 13.72962503693998,54.31796201504767,-14.28 13.72961196117103,54.31795296259224,-14.28 13.72949603945017,54.31794399395585,-14.28 13.72943895868957,54.31793795898557,-14.28 13.72928800061345,54.31789797730744,-14.28 13.72920703142881,54.31785497814417,-14.28 13.72912203893065,54.31783201172948,-14.28 13.72906596399844,54.31781600229442,-14.76 13.72897502034903,54.31780099868774,-14.76 13.72883101925254,54.31777300313115,-14.28 13.72872297652066,54.31776504032314,-14.76 13.72851803898811,54.31777903810143,-14.28 13.72845400124788,54.31779203005135,-14.28 13.72821100987494,54.31784500367939,-14.76 13.72804898768663,54.31789797730744,-14.28 13.7279209960252,54.31790300644934,-14.28 13.7277640029788,54.31791700422764,-14.28 13.72747097164392,54.3179740011692,-14.28 13.72742797248065,54.31797903031111,-14.28 13.72721197083592,54.3179829698056,-14.28 13.72714801691473,54.31797903031111,-14.28 13.7271080352366,54.31798003613949,-13.8 13.72702999971807,54.31798003613949,-13.8 13.72695003636181,54.31799403391778,-14.28 13.72690100222826,54.31798699311912,-14.28 13.72673596255481,54.31797802448273,-13.8 13.72670603916049,54.31798003613949,-13.32 13.72658701613545,54.31796603836119,-13.8 13.7263720203191,54.31791599839926,-13.8 13.72608301229775,54.3178859911859,-13.8 13.72587103396654,54.31785900145769,-13.8 13.72575796209276,54.31786201894283,-13.8 13.72566299512982,54.31784701533616,-13.8 13.7255120370537,54.31778901256621,-13.32 13.72536099515855,54.31774601340294,-13.8 13.72519101016223,54.31769496761262,-13.8 13.72518396936357,54.317695973441,-13.8 13.72514801099896,54.31768801063299,-13.32 13.72507802210748,54.31763201951981,-13.8 13.72494500130415,54.31754099205136,-13.8 13.72481097467244,54.31744703091681,-13.8 13.72475297190249,54.31743898428977,-13.8 13.72466596774757,54.31740202009678,-13.32 13.72462003491819,54.31737100705504,-13.32 13.72456898912787,54.31735902093351,-13.32 13.72453001327813,54.3173320312053,-13.32 13.72447301633656,54.31730504147708,-13.32 13.72440797276795,54.31723899208009,-13.32 13.72430998831987,54.31718199513853,-12.84 13.72424502857029,54.31714301928878,-12.84 13.72418601997197,54.31711996905506,-13.32 13.7240959983319,54.31708903983235,-13.32 13.72396297752857,54.31705299764872,-12.84 13.72393196448684,54.31704302318394,-12.84 13.72388997115195,54.31705199182034,-13.32 13.72384102083743,54.31704201735556,-12.84 13.72372501529753,54.31704998016357,-12.84 13.72363298200071,54.317059032619,-12.84 13.72355000115931,54.31707596406341,-12.36 13.72349501587451,54.31708099320531,-12.36 13.72348302975297,54.31709700264037,-11.88 13.72340097092092,54.31713203899562,-10.92 13.72336803004146,54.31714402511716,-10.92 13.72333399951458,54.31716699153185,-10.44 13.72326501645148,54.31718601845205,-9.48 13.72317700646818,54.31722600013018,-9.960000000000001 13.72302596457303,54.31728903204203,-10.44 13.72299503535032,54.31731401011348,-9.960000000000001 13.72292999178171,54.31734200567007,-10.44 13.72287902981043,54.31736597791314,-10.44 13.72283703647554,54.31738601066172,-9.960000000000001 13.72264601290226,54.31746203452349,-9.960000000000001 13.72260301373899,54.31747896596789,-9.48 13.72239698655903,54.31756001897156,-10.44 13.72232096269727,54.31757099926472,-10.92 13.72227201238275,54.3175910320133,-10.92 13.72212700545788,54.31761701591313,-11.4 13.72195400297642,54.31766496039927,-11.4 13.72182601131499,54.31771701201797,-10.92 13.72178804129362,54.3177429959178,-11.4 13.72160196304321,54.31787601672113,-12.36 13.72153398580849,54.31789596565068,-11.4 13.72141496278346,54.31780803948641,-11.4 13.72127003967762,54.31767703033984,-11.4 13.72112997807562,54.31753202341497,-10.92 13.72098295949399,54.31739196181297,-11.4 13.72089000418782,54.31729800067842,-11.4 13.72069504112005,54.3171089887619,-11.4 13.7206510361284,54.31707998737693,-10.92 13.72062798589468,54.31705299764872,-10.92 13.72043897397816,54.31696398183703,-10.92 13.72041801922023,54.31683800183237,-10.92 13.72046001255512,54.31666298769414,-10.44 13.72045397758484,54.31660599075258,-10.44 13.72044601477683,54.31645201519132,-9.960000000000001 13.72039597481489,54.31624699383974,-9.48 13.72037602588534,54.31621497496963,-9.48 13.72018600814044,54.31619997136295,-9.960000000000001 13.72017997317016,54.31619997136295,-9.48 13.72011995874345,54.31622100993991,-9.48 13.71997201815248,54.3162490054965,-10.44 13.71974302455783,54.31630399078131,-9.48 13.71956700459123,54.31636299937963,-9.960000000000001 13.71948201209307,54.31641697883606,-9.48 13.71927003376186,54.31653197854757,-9.960000000000001 13.7190449796617,54.31664898991585,-9.960000000000001 13.71881699189544,54.31679299101233,-9.48 13.71868900023401,54.31684303097427,-10.44 13.71848699636757,54.31694000959396,-9.960000000000001 13.71837300248444,54.31700999848545,-9.48 13.71831902302802,54.31702399626374,-9 13.71821098029613,54.31709096767008,-9.48 13.71813596226275,54.31713002733886,-9.48 13.71794996783137,54.31723899208009,-9.960000000000001 13.7179069686681,54.31726899929345,-9.960000000000001 13.71777503751218,54.31733697652817,-9.48 13.71772801503539,54.31737503036857,-9.48 13.71755400672555,54.31746899150312,-9.48 13.7173250131309,54.31759798899293,-9.48 13.71731101535261,54.3176079634577,-9 13.71715502813458,54.31771701201797,-9.48 13.71712502092123,54.31775799952447,-9.48 13.71698495931923,54.31787299923599,-9 13.71682000346482,54.31798699311912,-9 13.71671103872359,54.31803099811077,-9 13.71649696491659,54.31810501031578,-9.960000000000001 13.71638498269022,54.31815303862095,-9.48 13.71628800407052,54.31819302029908,-9 13.71625598520041,54.31821397505701,-9.48 13.71599799022079,54.31832302361727,-9.48 13.7157900352031,54.31839100085199,-9.48 13.71565299108624,54.31842695921659,-8.51 13.71550597250462,54.31848202832043,-9 13.71537999249995,54.31854598224163,-9 13.71518603526056,54.31862896308303,-8.51 13.7151700258255,54.31863499805331,-8.51 13.71489400975406,54.31871596723795,-9 13.71473299339414,54.31876198388636,-8.51 13.71469301171601,54.31876399554312,-8.029999999999999 13.71441800147295,54.31881998665631,-8.51 13.71437299065292,54.31883499026299,-8.51 13.71418800204992,54.31883096694946,-8.51 13.71410602703691,54.31883800774813,-9 13.71388197876513,54.3188479822129,-8.51 13.71377703733742,54.31882996112108,-8.51 13.71359095908701,54.31883096694946,-8.51 13.71354200877249,54.31882501579821,-9 13.71325400657952,54.31885099969804,-9 13.71323699131608,54.31885703466833,-9 13.71311402879655,54.31887597776949,-8.51 13.71291403658688,54.31895803660154,-9 13.71284698136151,54.31901101022959,-9 13.71271396055818,54.31911603547633,-9 13.712621005252,54.31917496025562,-9 13.71258202940226,54.31925601325929,-9 13.71251799166203,54.31932801380754,-9.48 13.71249896474183,54.31950202211738,-9 13.71259200386703,54.31974199600518,-9 13.71265302412212,54.31987501680851,-14.76 13.71266098693013,54.31988499127328,-9.48 13.71276601217687,54.32006997987628,-8.51 13.71285796165466,54.32023803703487,-9 13.71292803436518,54.32035597041249,-8.029999999999999 13.71299902908504,54.32042503729463,-9 13.71301998384297,54.32048697955906,-9 13.71307203546166,54.32055504061282,-8.51 13.7130789924413,54.32062997482717,-8.029999999999999 13.71315996162593,54.32075503282249,-8.51 13.71317102573812,54.32081898674369,-8.51 13.71318100020289,54.32103197090328,-8.51 13.71312702074647,54.32122400030494,-8.51 13.71300397440791,54.32140999473631,-8.51 13.71282099746168,54.32158903218806,-8.51 13.71265897527337,54.32171601802111,-8.029999999999999 13.71240802109241,54.32185297831893,-8.029999999999999 13.71231900528073,54.32190201245248,-8.029999999999999 13.71215497143567,54.32194098830223,-7.55 13.71210199780762,54.3219649605453,-7.55 13.71195196174085,54.32198700495064,-7.55 13.71167804114521,54.32207300327718,-8.029999999999999 13.71150101535022,54.32211801409721,-7.55 13.71114201843739,54.32224701158702,-7.55 13.71093800291419,54.32229403406382,-7.55 13.71085502207279,54.32231901213527,-7.55 13.71067900210619,54.32236796244979,-7.069999999999999 13.71040801517665,54.32245496660471,-7.069999999999999 13.71029896661639,54.3224829621613,-7.55 13.71002496220171,54.32257801294327,-6.589999999999999 13.70989898219705,54.32261900044978,-7.069999999999999 13.7095679808408,54.32273500598967,-7.069999999999999 13.70955197140574,54.32274699211121,-7.069999999999999 13.70942599140108,54.3227749876678,-6.589999999999999 13.70910001918674,54.32288596406579,-6.589999999999999 13.70894403196871,54.32292703539133,-6.589999999999999 13.70880103670061,54.32297900319099,-7.069999999999999 13.70847003534436,54.32309098541737,-6.589999999999999 13.7082039937377,54.32319198735058,-6.589999999999999 13.70816300623119,54.32331997901201,-6.589999999999999 13.70814800262451,54.32351603172719,-6.589999999999999 13.70811196044087,54.3237280100584,-6.589999999999999 13.7081019859761,54.32382901199162,-6.589999999999999 13.70807600207627,54.32388701476157,-6.11 13.70807399041951,54.32396597228944,-6.11 13.70804599486291,54.32422002777457,-6.11 13.7080190051347,54.32437299750745,-6.11 13.7080190051347,54.32438598945737,-6.11 13.70799000374973,54.32455304078758,-6.11 13.70798497460783,54.32475403882563,-6.11 13.70795697905123,54.32489200495183,-6.11 13.70793996378779,54.32506601326168,-6.589999999999999 13.70793300680816,54.32522996328771,-5.63 13.70794298127294,54.32535502128303,-5.63 13.70794700458646,54.32542501017451,-5.63 13.7079500220716,54.32551201432943,-5.63 13.70796301402152,54.32566196657717,-6.11 13.70798296295106,54.3257400020957,-6.11 13.7080240342766,54.32594100013375,-5.15 13.70803702622652,54.32610503397882,-5.63 13.70803995989263,54.32611802592874,-7.069999999999999 13.70803099125624,54.32613898068666,-5.15 13.70802101679146,54.3261509668082,-5.15 13.7080139759928,54.32620796374977,-5.63 13.70799603872001,54.32624802924693,-5.63 13.7079999782145,54.3262630328536,-5.63 13.7078670412302,54.32647501118481,-5.63 13.7077600043267,54.32658799923956,-6.11 13.70758700184524,54.32666100561619,-5.63 13.70733998715878,54.32675203308463,-5.63 13.70718399994075,54.32680400088429,-5.63 13.70691100135446,54.32690701447427,-5.63 13.70688401162624,54.32691195979714,-5.63 13.70678896084428,54.32693601585925,-5.63 13.70674797333777,54.32696300558746,-5.63 13.70657999999821,54.32702302001417,-5.63 13.70638000778854,54.32710097171366,-5.63 13.70628998614848,54.32712100446224,-5.63 13.70605596341193,54.32725997641683,-5.15 13.70594599284232,54.32729098945856,-5.15 13.70589503087103,54.32734496891499,-5.63 13.70573401451111,54.3274739664048,-6.11 13.70568296872079,54.32752098888159,-6.11 13.70559303089976,54.32770597748458,-6.11 13.70554600842297,54.327900018543,-6.11 13.70554097928107,54.32797101326287,-5.15 13.705517007038,54.328085007146,-5.15 13.70547300204635,54.32827401906252,-5.63 13.70549001730978,54.32832104153931,-7.069999999999999 13.70546403340995,54.32832397520542,-7.069999999999999 13.70544098317623,54.32832799851894,-5.63 13.7054340261966,54.32853503152728,-5.63 13.70540896430612,54.32870803400874,-4.67 13.70536998845637,54.3289119657129,-4.67 13.70535297319293,54.32896200567484,-5.15 13.70531399734318,54.32898899540305,-4.67 13.70524300262332,54.32901103980839,-5.15 13.70519497431815,54.3290139734745,-4.67 13.70503203012049,54.32903400622308,-4.67 13.7047450337559,54.32905999012291,-4.67 13.70470102876425,54.32906501926482,-4.67 13.7046100012958,54.32906703092158,-4.67 13.70456800796092,54.32916099205613,-5.63 13.7045690137893,54.32921899482608,-6.11 13.70455996133387,54.32927096262574,-5.63 13.70457303710282,54.32940700091422,-5.63 13.70458602905273,54.32956600561738,-5.63 13.7045690137893,54.32975996285677,-5.15 13.70466004125774,54.32983498089015,-5.63 13.70466297492385,54.32983900420368,-5.15 13.70472500100732,54.32974403724074,-4.67 13.7047809921205,54.32970698922873,-4.67 13.70496899820864,54.32974303141236,-3.71 13.70486196130514,54.3297909758985,-2.27 13.70484402403235,54.32979499921203,-2.75 13.70478400960565,54.32980597950518,-2.27 13.70475903153419,54.3298189714551,-2.27 13.70474402792752,54.32982198894024,-2.27 13.70474402792752,54.32981997728348,-1.79 13.70470999740064,54.32981997728348,-2.27 13.70473396964371,54.32981302030385,-2.27 13.70473497547209,54.32980799116194,-2.27 13.70473497547209,54.32980698533356,-2.27 13.70474101044238,54.32981695979834,-2.27 13.70473799295723,54.32981503196061,-1.79 13.70473799295723,54.32981603778899,-1.3 13.70475299656391,54.32981997728348,-1.3 13.70474997907877,54.32982802391052,-0.82 13.70475199073553,54.32983598671854,-0.82 13.70473204180598,54.32982500642538,-0.34 13.70472701266408,54.32981201447546,-1.3 13.70471603237092,54.32979399338365,-1.79 13.70472298935056,54.3297909758985,-1.79 13.70475299656391,54.32978896424174,-2.27 13.70474997907877,54.32978997007012,-2.75 13.70474796742201,54.3297909758985,-3.23 13.70475701987743,54.32978401891887,-3.23 13.70474402792752,54.32977999560535,-3.23 13.70472198352218,54.32980002835393,-2.75 13.70471796020865,54.32980103418231,-2.27 13.7047619652003,54.32978603057563,-2.27 13.70478903874755,54.32986398227513,-5.15 13.70487403124571,54.32988996617496,-4.67 13.704888029024,54.32996297255158,-5.15 13.70488903485239,54.33002298697829,-4.19 13.70512800291181,54.33005701750517,-4.67 13.70530704036355,54.33004897087812,-4.67 13.70533696375787,54.33004402555525,-5.15 13.70549303479493,54.33006003499031,-5.15 13.70554802007973,54.33007403276861,-5.15 13.70585203170776,54.33011300861835,-5.63 13.7060260400176,54.33013899251819,-5.63 13.70622100308537,54.3301850091666,-8.51 13.70623801834881,54.33018601499498,-5.15 13.70648796670139,54.33022700250149,-5.15 13.70649802498519,54.33023203164339,-5.15 13.70674797333777,54.33027695864439,-5.15 13.70682500302792,54.33028198778629,-5.15 13.70700898580253,54.33027695864439,-5.15 13.70706003159285,54.33030503802001,-5.63 13.70720000937581,54.33031400665641,-5.63 13.70738198049366,54.33034996502101,-5.63 13.70757400989532,54.33037896640599,-6.11 13.70764399878681,54.33038097806275,-6.11 13.7077650334686,54.33042003773153,-6.11 13.70783301070333,54.33043403550982,-6.11 13.70797198265791,54.33053503744304,-6.11 13.70808103121817,54.33063997887075,-6.589999999999999 13.70818002149463,54.33075196109712,-6.11 13.70823802426457,54.33080803602934,-6.589999999999999 13.70826803147793,54.33084298856556,-6.589999999999999 13.70833399705589,54.33092798106372,-5.63 13.70851898565888,54.33105697855353,-6.11 13.70866097509861,54.33115898631513,-6.589999999999999 13.70879399590194,54.33126996271312,-6.11 13.70903396978974,54.33136803098023,-6.589999999999999 13.70907101780176,54.33138596825302,-6.589999999999999 13.70911602862179,54.3314110301435,-6.589999999999999 13.70930202305317,54.33149702847004,-6.11 13.70938098058105,54.3315299693495,-6.11 13.70960502885282,54.33162099681795,-6.589999999999999 13.7097389716655,54.33166600763798,-6.589999999999999 13.70979303494096,54.33176298625767,-6.11 13.70979496277869,54.33180900290608,-6.11 13.70978800579906,54.33190899901092,-6.11 13.70973696000874,54.33203598484397,-5.63 13.70970703661442,54.3320949934423,-5.63 13.70958600193262,54.33216699399054,-5.15 13.7095180246979,54.33223103173077,-5.15 13.70953596197069,54.33231200091541,-4.19 13.70962698943913,54.33235097676516,-4.19 13.70977803133428,54.33245499618351,-4.19 13.7098269816488,54.33250403031707,-4.19 13.70992798358202,54.33256999589503,-4.19 13.71003401465714,54.33264501392841,-4.19 13.71014599688351,54.33271198533475,-4.19 13.71033903211355,54.33285196311772,-4.19 13.71040399186313,54.33290099725127,-3.71 13.71054799295962,54.33301398530602,-3.71 13.71067103929818,54.33311398141086,-3.23 13.71082501485944,54.33321800082922,-3.23 13.71089802123606,54.33325597085059,-3.23 13.71101897209883,54.33335797861218,-3.71 13.711141012609,54.33344800025225,-3.23 13.71136003173888,54.33359300717711,-2.75 13.71152398176491,54.33370800688863,-2.75 13.71171399950981,54.33383801020682,-2.27 13.71174501255155,54.33387002907693,-2.27 13.71183696202934,54.33393096551299,-2.27 13.71186403557658,54.33394697494805,-1.79 13.71196998283267,54.33401897549629,-1.79 13.71202798560262,54.33406096883118,-1.79 13.71215597726405,54.33415400795639,-1.79 13.7122190091759,54.33418401516974,-1.3 13.71229201555252,54.33424000628293,-1.3 13.71242101304233,54.33434402570128,-1.3 13.71249301359057,54.33439901098609,-0.82 13.71258596889675,54.33447402901947,-0.82 13.7126490008086,54.33450696989894,-0.82 13.71280498802662,54.33462901040912,-0.82 13.71285796165466,54.33467502705753,-0.82 13.71301302686334,54.33477804064751,-0.82 13.71314596384764,54.33488298207521,-0.34 13.71323104016483,54.33494098484516,-0.34 13.71332500129938,54.3350129853934,-0.34 13.71342902071774,54.33508004061878,0.14 13.71353798545897,54.33515497483313,0.14 13.71364502236247,54.33523996733129,0.14 13.71382598765194,54.33537902310491,0.62 13.71384300291538,54.33539000339806,0.62 13.71399597264826,54.33549997396767,0.62 13.71414198540151,54.33558597229421,1.58 13.71418699622154,54.335632994771,1.58 13.71424399316311,54.33568496257067,1.58 13.71435396373272,54.33577003888786,1.58 13.71440601535141,54.33579401113093,1.58 13.7144480086863,54.33583600446582,2.06 13.71458496898413,54.33593700639904,2.06 13.7147210072726,54.33601001277566,1.58 13.71489602141082,54.33613096363842,1.58 13.71495301835239,54.3361649941653,1.1 13.71513599529862,54.33629700914025,1.58 13.71514898724854,54.33631000109017,0.62 13.71520598419011,54.33634000830352,0.62 13.71529298834503,54.33637496083975,0.62 13.71534302830696,54.33642500080168,0.62 13.71552902273834,54.33658601716161,0.62 13.71567897498608,54.33670998550951,0.62 13.71576698496938,54.3367710057646,0.62 13.71578902937472,54.33679497800767,0.62 13.71587997302413,54.33685499243438,0.62 13.71590503491461,54.33688399381936,0.62 13.71596496552229,54.33691500686109,0.62 13.71605398133397,54.33698097243905,0.62 13.71610603295267,54.33702103793621,0.62 13.7161959707737,54.33707099407911,0.62 13.71638397686183,54.33721097186208,0.62 13.71640602126718,54.33723301626742,0.62 13.71652403846383,54.33730996213853,1.1 13.71663400903344,54.33739696629345,1.1 13.71673501096666,54.3374689668417,0.62 13.71680298820138,54.33750299736857,0.62 13.71685001067817,54.33754599653184,0.62 13.71701597236097,54.33765596710145,0.62 13.71702603064477,54.33766803704202,1.1 13.71721697039902,54.3378019798547,0.62 13.7172510009259,54.337815977633,0.62 13.71729701757431,54.33785998262465,1.1 13.71737698093057,54.33791697956622,1.58 13.71750296093524,54.33799501508474,1.58 13.71767101809382,54.33811403810978,1.58 13.71777101419866,54.33818603865802,1.58 13.71784502640367,54.33822995983064,2.06 13.71786698698997,54.338259967044,2.54 13.71796396560967,54.33834403753281,2.06 13.71808198280632,54.33842400088906,2.54 13.71827401220798,54.33855601586401,2.54 13.71844600886106,54.33867403306067,3.02 13.71855899691582,54.33875399641693,3.02 13.71879301965237,54.3389040324837,2.54 13.71888597495854,54.33897100389004,2.54 13.71905403211713,54.33909798972309,2.06 13.71911002323031,54.33915599249303,1.58 13.71915503405035,54.33917703106999,1.1 13.71928302571177,54.33928800746799,1.1 13.71944303624332,54.33937702327967,0.62 13.71946700848639,54.33939998969436,0.62 13.71951897628605,54.33941499330103,0.62 13.7196290306747,54.33951498940587,0.14 13.71964202262461,54.33952798135579,0.14 13.71971603482962,54.3395650293678,-0.34 13.7198740337044,54.33968899771571,-0.34 13.71989800594747,54.33970802463591,-0.34 13.71994796209037,54.33975202962756,-0.34 13.72007695958018,54.33983501046896,-0.82 13.72018701396883,54.33985403738916,-0.34 13.72035096399486,54.33989795856178,-0.82 13.72060200199485,54.33994699269533,-0.34 13.72079503722489,54.33996995911002,-1.3 13.7208360247314,54.3399709649384,-0.82 13.72106702998281,54.33999996632338,-1.3 13.7212469894439,54.34006299823523,-1.3 13.7213680241257,54.34006903320551,-1.3 13.72157296165824,54.34011396020651,-0.82 13.7217840179801,54.34012301266193,-0.34 13.7220430187881,54.34017900377512,-0.34 13.72214200906456,54.34019501321018,-0.34 13.72234803624451,54.34023499488831,0.14 13.722492037341,54.34026701375842,0.14 13.72270401567221,54.34023801237345,0.14 13.72277601622045,54.34021404013038,0.14 13.72294600121677,54.3401749804616,0.62 13.72303099371493,54.34017104096711,0.14 13.72321698814631,54.34012703597546,0.62 13.7232360150665,54.34012401849031,0.14 13.72351999394596,54.34002896770835,0.14 13.72375301085413,54.33996702544391,-0.34 13.72378796339035,54.33996400795877,-0.34 13.72386599890888,54.33996300213039,0.14 13.72404201887548,54.33989401906729,-0.34 13.7240959983319,54.33989401906729,-0.82 13.72413204051554,54.339887984097,-0.82 13.72419398277998,54.33985403738916,-0.82 13.72426003217697,54.33984196744859,-1.3 13.72457502409816,54.33975102379918,-2.27 13.72484701685607,54.33970500715077,-2.27 13.72512496076524,54.33963702991605,-2.27 13.72515396215022,54.33963702991605,-2.27 13.72527298517525,54.33962697163224,-1.79 13.72531103901565,54.33963099494576,-1.79 13.7254139687866,54.33961599133909,-2.27 13.72554103843868,54.33958103880286,-2.27 13.72573097236454,54.33952898718417,-2.27 13.72597698122263,54.33945698663592,-2.27 13.72613799758255,54.33940602466464,-2.27 13.72627998702228,54.33936503715813,-2.27 13.72636598534882,54.33935003355145,-2.27 13.72647897340357,54.33931801468134,-2.27 13.72671601362526,54.33924802578986,-2.75 13.72679002583027,54.33922598138452,-2.27 13.72703896835446,54.33917401358485,-2.27 13.72708297334611,54.33916202746332,-2.27 13.72715002857149,54.33915004134178,-2.27 13.72732998803258,54.33910000137985,-1.79 13.72744800522923,54.33908399194479,-1.79 13.72761899605393,54.33910897001624,-1.3 13.72767004184425,54.33910997584462,-1.3 13.7277780007571,54.33912598527968,-1.3 13.7278520129621,54.33912003412843,-0.82 13.72792803682387,54.33912598527968,-0.82 13.72821603901684,54.33915699832141,-0.82 13.72824403457344,54.3391630332917,0.14 13.72828803956509,54.33916496112943,0.14 13.72848300263286,54.3392079602927,0.62 13.72868701815605,54.33925297111273,1.1 13.72877997346222,54.3392650410533,1.1 13.72911097481847,54.33934701606631,2.06 13.72926101088524,54.33935900218785,2.54 13.72939797118306,54.3394170049578,2.54 13.72956502251327,54.33950099162757,3.5 13.72972503304482,54.33957600966096,3.98 13.72976099140942,54.33959000743926,4.46 13.72983600944281,54.33959101326764,4.46 13.7299279589206,54.33962495997548,4.94 13.73015896417201,54.33968002907932,5.42 13.73033900745213,54.33969000354409,5.909999999999999 13.73038602992892,54.33970601297915,5.909999999999999 13.73049398884177,54.3397309910506,5.909999999999999 13.73058099299669,54.33979201130569,6.39 13.73066799715161,54.33983903378248,6.87 13.73073899187148,54.33985596522689,6.87 13.73091300018132,54.33994104154408,7.35 13.73094099573791,54.33994699269533,7.83 13.73101098462939,54.339954033494,7.83 13.73120997101068,54.3400039896369,8.31 13.73129202984273,54.33996601961553,7.83 13.73129202984273,54.33996601961553,8.31 13.73130896128714,54.33997398242354,8.31 13.73125196434557,54.34024304151535,9.27 13.73162403702736,54.3402489926666,9.75 13.7317599914968,54.3402820173651,10.23 13.73197599314153,54.34033901430666,10.71 13.73233901336789,54.3404339812696,11.19 13.73249500058591,54.34047304093838,11.67 13.73257395811379,54.34047396294773,11.19 13.73258602805436,54.34045602567494,11.67 13.73244596645236,54.34037103317678,10.71 13.73231403529644,54.3403179757297,10.71 13.73231696896255,54.34030900709331,10.71 13.73237396590412,54.34022602625191,11.19 13.73242199420929,54.34015796519816,12.15 13.73247798532248,54.34013600461185,12.63 13.73259499669075,54.3400970287621,14.08 13.73263799585402,54.34008202515543,15.04 13.73266800306737,54.3400780018419,15.52 13.73272600583732,54.34004397131503,16.96 13.73273103497922,54.34004103764892,17.44 13.73284402303398,54.34002201072872,18.88 13.73294896446168,54.3400090187788,20.32 13.73300403356552,54.33998202905059,21.29 13.73304200358689,54.33999703265727,21.29 13.73323503881693,54.33996501378715,22.73 13.73332195915282,54.33995302766562,23.21 13.73345598578453,54.33994196355343,24.17 13.73349797911942,54.3399400357157,23.69 13.7336200196296,54.33995797298849,23.69 13.73368103988469,54.33993198908865,23.21 13.73376402072608,54.33985495939851,23.21 13.73374499380589,54.33974096551538,22.25 13.73371498659253,54.33975303545594,22.73 13.73371498659253,54.33975303545594,22.73 13.7336940318346,54.33974800631404,22.73 13.73367098160088,54.33973501436412,22.25 13.73364499770105,54.33969100937247,21.77 13.73364801518619,54.3396810349077,21.29 13.73367098160088,54.33962596580386,21.29 13.7337579857558,54.33958397246897,20.32 13.73385597020388,54.33955103158951,18.88 13.73391296714544,54.33953602798283,18.4 13.73406099155545,54.33950996026397,17.44 13.73412603512406,54.33950400911272,17.44 13.73420901596546,54.33950400911272,17.44 13.73427296988666,54.33949403464794,17.92 13.73431303538382,54.33949504047632,17.92 13.73445603065193,54.33949202299118,18.4 13.73453699983656,54.33948498219252,18.88 13.73470296151936,54.33947802521288,19.84 13.73471000231802,54.33947903104126,19.84 13.73485299758613,54.33948799967766,20.32 13.73491896316409,54.33948297053576,20.32 13.73497000895441,54.33949403464794,20.81 13.73512800782919,54.33952303603292,21.77 13.73519799672067,54.33952303603292,21.77 13.7352430075407,54.33952102437615,22.25 13.73527402058244,54.3395240418613,22.25 13.73526697978377,54.33952496387064,22.25 13.73527200892568,54.33952496387064,22.25 13.73535599559546,54.33958296664059,23.21 13.73537896201015,54.33960199356079,23.69 13.73539597727358,54.33962998911738,23.69 13.73541601002216,54.33966997079551,24.65 13.73547996394336,54.33970299549401,25.61 13.73551198281348,54.33971799910069,25.61 13.73560301028192,54.33980600908399,27.05 13.73561097308993,54.33982998132706,27.53 13.73569303192198,54.33989603072405,29.46 13.7356920260936,54.33989200741053,29.46 13.73581398278475,54.33995202183723,30.42 13.73587802052498,54.34003802016377,32.82 13.73591699637473,54.34005796909332,34.26 13.73599897138774,54.34008998796344,34.74 13.73602696694434,54.34009099379182,35.23 13.7360390368849,54.34010700322688,35.71 13.73604901134968,54.34016701765358,37.63 13.73605898581445,54.34017196297646,37.63 13.73605797998607,54.34017104096711,37.63 13.73606502078474,54.34016902931035,37.63 13.73606996610761,54.34017003513873,37.63 13.73614196665585,54.34015503153205,38.11 13.73622603714466,54.34016299434006,38.59 13.73622603714466,54.34016299434006,37.63 13.73628303408623,54.34016902931035,37.63 13.7363260332495,54.3401850387454,37.15 13.73641102574766,54.34023197740316,36.67 13.73644798994064,54.34024597518146,36.67 13.73647104017437,54.3402629904449,36.67 13.73665301129222,54.34030598960817,36.19 13.73666700907052,54.34030900709331,36.19 13.73671897687018,54.34030498377979,36.19 13.73688996769488,54.34039701707661,35.71 13.73692098073661,54.34042300097644,35.23 13.73693699017167,54.34044898487628,35.23 13.73708300292492,54.34048301540315,35.23 13.737329011783,54.34052400290966,33.78 13.73741400428116,54.340516962111,33.78 13.73745700344443,54.34046700596809,33.78 13.73751802369952,54.34029299765825,33.3 13.73754995875061,54.34020699933171,33.78 13.73757803812623,54.34010499157012,33.78 13.73759203590453,54.3400230165571,33.78 13.73764601536095,54.33992695994675,34.74 13.73767199926078,54.33983501046896,35.23 13.73769303783774,54.33978597633541,35.23 13.73768297955394,54.33961699716747,34.74 13.73766202479601,54.33960702270269,34.74 13.73763604089618,54.33958103880286,35.23 13.7375969812274,54.33945103548467,34.74 13.73760796152055,54.33939596638083,35.23 13.73765900731087,54.3393340241164,34.26 13.73773100785911,54.33916102163494,32.34 13.73783200979233,54.3390089739114,30.9 13.73784399591386,54.33898801915348,30.9 13.73788196593523,54.33894602581859,30.42 13.73799503780901,54.33877604082227,28.02 13.7379989773035,54.33876296505332,28.02 13.73805597424507,54.33866598643363,27.53 13.73809603974223,54.33864302001894,27.53 13.7381699681282,54.33863296173513,27.53 13.73824699781835,54.33864000253379,26.57 13.73834297060966,54.33866397477686,25.13 13.73844699002802,54.33869901113212,24.17 13.73845797032118,54.33868803083897,23.69 13.73850801028311,54.33865902945399,23.21 13.73862300999463,54.33859599754214,21.29 13.73868796974421,54.338518967852,20.32 13.73874396085739,54.33841402642429,18.88 13.73876902274787,54.33836398646235,17.92 13.73876902274787,54.33833800256252,17.44 13.73881897889078,54.3382700253278,16.96 13.73887597583234,54.33829600922763,16.48 13.73888402245939,54.33831696398556,16.48 13.73902299441397,54.33839499950409,17.44 13.73903498053551,54.33839801698923,17.92 13.73907596804202,54.3384029623121,18.4 13.73914101161063,54.33840497396886,18.88 13.73933396302164,54.33841000311077,20.32 13.73945298604667,54.33838200755417,20.81 13.73951802961528,54.33837697841227,20.81 13.73955700546503,54.3383720330894,20.81 13.73968097381294,54.3383860308677,20.81 13.73972296714783,54.33838997036219,20.81 13.73991097323596,54.33843296952546,20.81 13.74006201513112,54.33846901170909,21.29 13.740214984864,54.33850798755884,20.81 13.74031598679721,54.33853397145867,21.29 13.74036602675915,54.33856096118689,21.29 13.74040600843728,54.33857202529907,21.29 13.74058001674712,54.3386260047555,21.77 13.74067699536681,54.33868400752544,21.29 13.74072200618684,54.33872197754681,21.29 13.74079803004861,54.33877604082227,21.29 13.74081697314978,54.33879900723696,21.29 13.74086097814143,54.33883496560156,20.81 13.74088796786964,54.33888399973512,20.81 13.74092702753842,54.33890696614981,20.32 13.74100699089468,54.33889397419989,19.84 13.74101595953107,54.33887897059321,19.84 13.74104403890669,54.33888399973512,19.36 13.74106901697814,54.33893898501992,19.84 13.7410990241915,54.33896899223328,20.32 13.74116096645594,54.33909497223794,20.81 13.74120597727597,54.33928096666932,21.77 13.74125702306628,54.33933997526765,21.77 13.74135701917112,54.33947400189936,21.77 13.74142901971936,54.33962697163224,21.29 13.74146497808397,54.33971900492907,21.29 13.74150403775275,54.33979402296245,20.81 13.74168198555708,54.33985403738916,20.81 13.74189597554505,54.3397500179708,20.32 13.74192497693002,54.33973300270736,20.32 13.74198901467025,54.33971598744392,20.32 13.74202597886324,54.3397119641304,20.32 13.74209596775472,54.33968396857381,20.32 13.74226897023618,54.33962998911738,20.32 13.74235102906823,54.33960098773241,20.32 13.7424080260098,54.33956301771104,20.32 13.74252000823617,54.33952697552741,20.81 13.74261899851263,54.33952596969903,20.32 13.74281002208591,54.33950996026397,20.32 13.74296802096069,54.33949596248567,20.81 13.74308897182345,54.33948397636414,21.77 13.74318796209991,54.33946796692908,22.25 13.74340698122978,54.33945396915078,23.21 13.74355399981141,54.33944198302925,24.65 13.74370797537267,54.33944298885763,25.13 13.7438050378114,54.33944298885763,25.61 13.74401601031423,54.33944600634277,27.05 13.744099996984,54.33945698663592,27.05 13.74413402751088,54.33945598080754,27.05 13.74427903443575,54.33946997858584,28.02 13.74444399029016,54.33948799967766,28.02 13.74464297667146,54.33953602798283,28.5 13.7447009794414,54.33954499661922,28.02 13.74474599026144,54.33954901993275,28.5 13.74485101550817,54.33955203741789,28.5 13.74509903602302,54.33957600966096,28.5 13.74514203518629,54.33957802131772,28.5 13.74536197632551,54.33961397968233,28.02 13.74543397687376,54.33960501104593,28.02 13.74552098102868,54.33962202630937,28.5 13.74582298099995,54.33965396136045,28.5 13.74590001069009,54.33965597301722,28.98 13.74594401568174,54.33965002186596,28.98 13.74614903703332,54.33966301381588,28.98 13.74622296541929,54.33966603130102,28.5 13.74646302312613,54.33965496718884,28.5 13.74659202061594,54.3396480102092,28.5 13.74667801894248,54.33965999633074,28.98 13.74676996842027,54.33965396136045,28.5 13.74681799672544,54.33965597301722,28.5 13.7468979600817,54.33964096941054,28.5 13.74716400168836,54.33965899050236,28.02 13.74722602777183,54.33965899050236,28.5 13.7474400177598,54.33969402685761,28.5 13.74765300191939,54.33972797356546,28.5 13.74790102243423,54.33976099826396,28.5 13.74805198051035,54.33981799520552,28.5 13.74817603267729,54.33983702212572,28.5 13.74842296354473,54.33988002128899,28.5 13.74852103181183,54.33988203294575,28.02 13.74858004041016,54.33988697826862,28.02 13.74880199320614,54.33987197466195,27.05 13.74891598708928,54.33985495939851,26.57 13.74901497736573,54.33986200019717,26.57 13.74912100844085,54.33984800241888,25.61 13.74929996207356,54.33983501046896,25.13 13.74939501285553,54.33982696384192,25.13 13.74952996149659,54.3398190010339,24.65 13.74980296008289,54.33978203684092,23.21 13.74984403140843,54.33977801352739,23.21 13.75006103888154,54.33975303545594,22.25 13.7501219753176,54.33974800631404,22.25 13.75019196420908,54.33973400853574,22.25 13.75032096169889,54.33972001075745,21.77 13.7504050321877,54.33970098383725,21.29 13.75044099055231,54.33968698605895,20.81 13.75066998414695,54.33962202630937,19.36 13.75079202465713,54.33959595859051,19.36 13.75102898105979,54.33955103158951,18.4 13.75124003738165,54.33952496387064,17.44 13.75128303654492,54.33952001854777,16.96 13.75149300321937,54.33951297774911,16.96 13.75158503651619,54.33950803242624,16.96 13.75181000679731,54.33950400911272,16.48 13.75183196738362,54.33950300328434,16 13.75189097598195,54.33937601745129,15.04 13.75188401900232,54.33935196138918,14.08 13.75184495933354,54.33927702717483,14.56 13.75182098709047,54.33922204189003,14.08 13.75181796960533,54.33919002301991,14.08 13.75182903371751,54.33902699500322,13.6 13.75177999958396,54.33899003081024,14.56 13.75172903761268,54.33899497613311,13.6 13.75165703706443,54.33899598196149,14.56 13.75159199349582,54.33882197365165,14.08 13.7515570409596,54.33880303055048,12.63 13.75155603513122,54.3387969955802,14.08 
			</coordinates>
		</LineString>
	</MultiGeometry>
	<atom:link rel="app" href="https://www.google.com/earth/about/versions/#earth-pro" title="Google Earth Pro 7.3.7.1155"></atom:link>
</Placemark>
</kml>
