<?xml version="1.0" encoding="UTF-8"?>
<kml xmlns="http://www.opengis.net/kml/2.2" xmlns:gx="http://www.google.com/kml/ext/2.2" xmlns:kml="http://www.opengis.net/kml/2.2" xmlns:atom="http://www.w3.org/2005/Atom">
<Placemark>
	<name>Track</name>
	<Style>
		<LineStyle>
			<color>ff0000ff</color>
			<width>3</width>
		</LineStyle>
	</Style>
	<LineString>
		<tessellate>1</tessellate>
		<coordinates>
			6.704290648922324,49.64591860771179,0 6.704187383875251,49.64601265266538,0 6.704305484890938,49.64618171565235,0 6.704207584261894,49.64626939035952,0 6.703693941235542,49.6465090289712,0 6.701876157894731,49.64716181159019,0 6.701841289177537,49.64723615907133,0 6.702021919190884,49.6472804993391,0 6.702334396541119,49.64761820621789,0 6.702099535614252,49.64765240438282,0 6.702000293880701,49.6475968323648,0 6.70207891613245,49.64757210575044,0 6.702000126242638,49.64754721149802,0 6.702017141506076,49.64780420064926,0 6.701963162049651,49.64783051982522,0 6.701902728527784,49.64798214845359,0 6.701939273625612,49.64830602519214,0 6.702040610834956,49.64830719865859,0 6.702033150941133,49.64844114147127,0 6.701786974444985,49.64855588972569,0 6.701600477099419,49.64873635210097,0 6.701339045539498,49.64877809397876,0 6.701111644506454,49.64893047697842,0 6.701009888201952,49.64893952943385,0 6.701030004769564,49.64898177422583,0 6.700886925682425,49.64903282001615,0 6.700889188796282,49.64907456189394,0 6.700963620096445,49.64916206896305,0 6.701319431886077,49.64925292879343,0 6.70131909660995,49.64931855909526,0 6.701725451275706,49.64945954270661,0 6.702011777088046,49.64953422546387,0 6.702280919998884,49.64947312138975,0 6.702828761190176,49.64956037700176,0 6.702907048165798,49.64962458238006,0 6.703121457248926,49.64965014718473,0 6.703150207176805,49.64969800785184,0 6.703440053388476,49.64979741722345,0 6.70360048301518,49.64977093040943,0 6.703935004770756,49.64987696148455,0 6.704280925914645,49.65009958483279,0 6.704423502087593,49.65024610050023,0 6.704682419076562,49.65028231032193,0 6.704910909757018,49.65040820650756,0 6.705218944698572,49.65048800222576,0 6.705378871411085,49.65061993338168,0 6.705419942736626,49.65071934275329,0 6.706701703369617,49.65028809383512,0 6.707361191511154,49.65000771917403,0 6.708376742899418,49.64990981854498,0 6.708887619897723,49.64979481883347,0 6.710192011669278,49.64975223876536,0 6.711178813129663,49.64957823045552,0 6.712030079215765,49.64926768094301,0 6.711946595460176,49.64927120134234,0 6.71196335926652,49.64931696653366,0 6.711873253807425,49.64924815110862,0 6.712348172441125,49.64911605231464,0 6.713513759896159,49.64844591915607,0 6.714047770947218,49.64788508601487,0 6.71410208567977,49.64756514877081,0 6.718090949580073,49.64401943609118,0 6.717849718406796,49.64374576695263,0 6.717819040641189,49.64380846358836,0 6.717709740623832,49.64355885051191,0 6.71736029908061,49.64322868734598,0 6.716793514788151,49.64291587471962,0 6.716485982760787,49.64263935573399,0 6.716231256723404,49.64248999021947,0 6.71608105301857,49.64232210069895,0 6.715552993118763,49.64200576767325,0 6.715427180752158,49.64198858477175,0 6.715129120275378,49.64183025062084,0 6.715114284306765,49.64174257591367,0 6.715914001688361,49.64190300554037,0 6.717613097280264,49.64262560941279,0 6.718084244057536,49.64269559830427,0 6.718757394701242,49.64302668347955,0 6.719129383563995,49.64314780198038,0 6.719136005267501,49.64320287108421,0 6.720353309065104,49.64337629266083,0 6.721398113295436,49.64369002729654,0 6.721643283963203,49.64386596344411,0 6.721945451572537,49.64396327733994,0 6.72243663109839,49.64422445744276,0 6.722621787339449,49.64439913630486,0 6.722652465105057,49.64451497420669,0 6.722746761515737,49.64445521123707,0 6.722728572785854,49.64474128559232,0 6.722847009077668,49.64509525336325,0 6.723151942715049,49.64531033299863,0 6.72351211309433,49.64543899521232,0 6.724446779116988,49.64589823968709,0 6.726308986544609,49.64610242284834,0 6.726588942110538,49.64635086245835,0 6.726863365620375,49.64679124765098,0 6.727151116356254,49.64695997536182,0 6.727316156029701,49.64716030284762,0 6.727448087185621,49.64719290845096,0 6.727545401081443,49.64730497449636,0 6.727704992517829,49.64729382656515,0 6.728119729086757,49.64711898006499,0 6.728342520073056,49.64678571559489,0 6.728247385472059,49.64665286242962,0 6.727813286706805,49.6463636867702,0 6.727675991132855,49.6461012493819,0 6.727508855983615,49.64592380449176,0 6.726862527430058,49.64459963142872,0 6.726758843287826,49.64450080879033,0 6.726512750610709,49.64439829811454,0 6.726231621578336,49.64416595175862,0 6.726103462278843,49.64427868835628,0 6.72596306540072,49.64404701255262,0 6.726092901080847,49.64416184462607,0 6.723586125299335,49.64327001012862,0 6.722493544220924,49.64269501157105,0 6.721859201788902,49.64254640042782,0 6.720583811402321,49.64210048317909,0 6.720287008211017,49.64202613569796,0 6.720152059569955,49.64208547957242,0 6.719931783154607,49.64193745516241,0 6.718916231766343,49.64167627505958,0 6.718483474105597,49.64150184765458,0 6.718346262350678,49.64138626120985,0 6.717842929065228,49.64115802198648,0 6.717808563262224,49.64121820405126,0 6.71786799095571,49.64119842275977,0 6.717572864145041,49.64107948355377,0 6.717276480048895,49.6408155374229,0 6.716860150918365,49.6405993681401,0 6.716791419312358,49.6404455602169,0 6.716624703258276,49.64028370566666,0 6.716664014384151,49.64013090357184,0 6.716581452637911,49.63977827690542,0 6.716779265552759,49.63946403935552,0 6.716859145089984,49.6391072217375,0 6.716833580285311,49.63896162807941,0 6.716879680752754,49.63868343271315,0 6.717008845880628,49.63851856067777,0 6.717011528089643,49.6383854560554,0 6.717085959389806,49.63828126899898,0 6.716980431228876,49.63800785131752,0 6.717176400125027,49.63791296817362,0 6.717033740133047,49.63774759322405,0 6.716518420726061,49.63739471510053,0 6.715877372771502,49.63739035651088,0 6.715512005612254,49.63748733513057,0 6.715171616524458,49.63772370480001,0 6.714707175269723,49.63786183856428,0 6.714396290481091,49.63822938501835,0 6.713829841464758,49.63847053237259,0 6.713617024943233,49.63842786848545,0 6.712800962850451,49.63867186568677,0 6.712523773312569,49.63869508355856,0 6.71236602589488,49.63877521455288,0 6.712095709517598,49.63879432529211,0 6.712000574916601,49.63875467889011,0 6.711847689002752,49.63883430697024,0 6.711132545024157,49.63893321342766,0 6.710808333009481,49.63906858116388,0 6.710660979151726,49.63903731666505,0 6.709783561527729,49.63910437189043,0 6.70936974696815,49.63929212652147,0 6.709192302078009,49.63950896635652,0 6.708865156397223,49.63976997882128,0 6.708797849714756,49.63994767516851,0 6.708535831421614,49.64032343588769,0 6.708199298009276,49.64064848609269,0 6.708159651607275,49.64079181663692,0 6.70764391310513,49.64168800972402,0 6.707491027191281,49.64175204746425,0 6.707263290882111,49.6417614351958,0 6.707376865670085,49.64180535636842,0 6.707084253430367,49.64175590313971,0 6.707213334739208,49.64180946350098,0 6.707356497645378,49.64178104884923,0 6.707332273945212,49.6417532209307,0 6.706855427473783,49.64260473847389,0 6.707261698320508,49.64300975203514,0 6.706966571509838,49.64318577200174,0 6.706671444699168,49.64323396794498,0 6.705704173073173,49.64322650805116,0 6.705604176968336,49.64318367652595,0 6.705382894724607,49.64294470846653,0 6.704703038558364,49.64298217557371,0 6.704626679420471,49.64294470846653,0 6.704784175381064,49.64254983700812,0 6.704183695837855,49.64205446653068,0 6.703820507973433,49.64202186092734,0 6.703646583482623,49.64205220341682,0 6.703330082818866,49.64199378155172,0 6.702910820022225,49.64201264083385,0 6.701960898935795,49.64182547293603,0 6.701861238107085,49.6418428234756,0 6.701369807124138,49.64169471524656,0 6.699865339323878,49.641627157107,0 6.699993414804339,49.64165607467294,0 6.699807336553931,49.64172983542085,0 6.699650008231401,49.64171759784222,0 6.699683787301183,49.641690608114,0 6.699365191161633,49.6418547257781,0 6.699187075719237,49.64186402969062,0 6.699086660519242,49.6420481801033,0 6.699015665799379,49.64206754229963,0 6.698969230055809,49.64214080013335,0 6.69896193780005,49.64245545677841,0 6.69909680262208,49.64280229993165,0 6.69898540712893,49.64298075065017,0 6.698573771864176,49.64313690550625,0 6.698354668915272,49.64327135123312,0 6.698200022801757,49.64328057132661,0 6.698100445792079,49.6434002649039,0 6.697054132819176,49.64402379468083,0 6.696669068187475,49.64403904974461,0 6.696322979405522,49.64415052905679,0 6.695473808795214,49.64419243857265,0 6.695602973923087,49.64416829869151,0 6.694457838311791,49.64428262785077,0 6.692799562588334,49.64468395337462,0 6.691350666806102,49.64443702250719,0 6.690648011863232,49.64440458454192,0 6.689854161813855,49.64457867667079,0 6.689479071646929,49.64476274326444,0 6.689467756077647,49.64481680653989,0 6.689281426370144,49.64491135440767,0 6.689231218770146,49.64502735994756,0 6.689474629238248,49.64538308791816,0 6.69003076851368,49.64565390720963,0 6.690076114609838,49.64573873206973,0 6.690041664987803,49.64604894630611,0 6.690143253654242,49.64615623466671,0 6.691815191879869,49.64606260880828,0 6.692178715020418,49.64610049501061,0 6.692260187119246,49.64604140259326,0 6.693192003294826,49.64609529823065,0 6.693602884188294,49.64616302400827,0 6.693624928593636,49.6462154109031,0 6.694031115621328,49.64631389826536,0 6.694399164989591,49.64648069813848,0 6.694475775584579,49.64656091295183,0 6.694790432229638,49.6466609928757,0 6.695786621421576,49.64714203029871,0 6.69649975374341,49.64738845825195,0 6.696812063455582,49.64756506495178,0 6.698222905397415,49.64781727641821,0 6.698415940627456,49.64791987091303,0 6.698777200654149,49.64801207184792,0 6.698956741020083,49.64811910875142,0 6.699492260813713,49.64866435155272,0 6.699669705703855,49.6489090193063,0 6.699932813644409,49.64908252470195,0 6.700312262400985,49.64917053468525,0 6.700566904619336,49.64916357770562,0 6.700865468010306,49.64903743006289,0 6.701041320338845,49.64902913197875,0 6.701052887365222,49.64898185804486,0 6.701454715803266,49.64878706261516,0 6.701792674139142,49.64866787195206,0 6.701997276395559,49.64851222001016,0 6.702024098485708,49.64837861247361,0 6.701904656365514,49.64793839491904,0 6.701563261449337,49.64765458367765,0 6.701656468212605,49.64758384041488,0 6.701742382720113,49.64734931476414,0 6.702066846191883,49.64713088236749,0 6.702630110085011,49.6469543594867,0 6.703764097765088,49.64645228348672,0 6.704282099381089,49.64628313668072,0 6.70426407828927,49.64612270705402,0 6.70415217988193,49.6460008341819,0 6.70435200445354,49.64589681476355,0 
		</coordinates>
	</LineString>
	<atom:link rel="app" href="https://www.google.com/earth/about/versions/#earth-pro" title="Google Earth Pro 7.3.7.1155"></atom:link>
</Placemark>
</kml>
