<?xml version="1.0" encoding="UTF-8"?>
<kml xmlns="http://www.opengis.net/kml/2.2" xmlns:gx="http://www.google.com/kml/ext/2.2" xmlns:kml="http://www.opengis.net/kml/2.2" xmlns:atom="http://www.w3.org/2005/Atom">
<Placemark>
	<name>track</name>
	<Style>
		<LineStyle>
			<color>ff0000ff</color>
			<width>4</width>
		</LineStyle>
	</Style>
	<MultiGeometry>
		<LineString>
			<coordinates>
				174.4706617388874,-36.95354319177568,-0.35 174.470666013658,-36.95354268886149,0 174.4706973619759,-36.95355827920139,0.16 174.4706898182631,-36.95357730612159,0.73 174.4706862140447,-36.95358099415898,0.73 174.4707125332206,-36.95356942713261,0.55 174.4706974457949,-36.95358937606215,0.71 174.470689650625,-36.95358887314796,0.9700000000000001 174.4706671033055,-36.95359775796533,1.05 174.4706535246223,-36.95359683595598,1.39 174.4706365931779,-36.95360035635531,1.61 174.4705265387893,-36.95357956923544,1.43 174.470525700599,-36.95357772521675,1.55 174.4705375190824,-36.95358761586249,1.48 174.4705303944647,-36.95361359976232,1.39 174.4705288857222,-36.95361267775297,1.3 174.4705295562744,-36.95361209101975,1.43 174.470636760816,-36.95362851954997,1.56 174.4707519281656,-36.95370680652559,1.9 174.4707476533949,-36.95370638743043,-0.54 174.4707419537008,-36.95371393114328,-0.54 174.4707283750176,-36.953702615574,2.18 174.4707222562283,-36.95369364693761,1.48 174.4707305543125,-36.95369113236666,1.51 174.4707326497883,-36.95369322784245,1.53 174.4707375951111,-36.95371057838202,1.54 174.4708099309355,-36.95384234189987,1.64 174.4707935024053,-36.95385566912591,0.72 174.4707929156721,-36.95385541766882,0.59 174.4708068296313,-36.95387251675129,0.71 174.4708727113903,-36.95390227250755,1.36 174.4708877149969,-36.95390612818301,0.9499999999999998 174.4709022156894,-36.95391182787716,0.17 174.4709152914584,-36.95392054505646,0.01 174.4709255173802,-36.95393177680671,-0.01 174.4709357433021,-36.95394426584244,0.01 174.470964409411,-36.95400008931756,2.06 174.4709679298103,-36.95401274599135,2.12 174.470988381654,-36.95404551923275,1.81 174.4709996134043,-36.95406714454293,1.71 174.4710086658597,-36.95408063940704,1.67 174.4710171315819,-36.95408935658634,1.64 174.471022579819,-36.95409949868917,1.61 174.4710276927799,-36.95410804823041,1.57 174.471033308655,-36.95412162691355,1.55 174.4710395112634,-36.95413151755929,1.47 174.4710648246109,-36.95414911955595,1.55 174.4710694346577,-36.95415808819234,1.63 174.4710749667138,-36.95416605100036,1.72 174.4710783194751,-36.95417803712189,1.8 174.4710761401802,-36.95419119670987,1.84 174.4710765592754,-36.95420611649752,1.86 174.4710854440928,-36.95429437793791,1.42 174.4710601307452,-36.95437031798065,1.73 174.4711195584387,-36.95435648784041,1.18 174.4711294490844,-36.95435238070786,1.44 174.4711488112807,-36.95436880923808,0.87 174.4711221568286,-36.95438825525343,0.59 174.4710664171726,-36.95438507013023,0.39 174.4710927363485,-36.95434651337564,-0.25 174.4710937421769,-36.95436537265778,-0.32 174.471086114645,-36.95435296744108,0.32 174.4710580352694,-36.95434927940369,0.62 174.4710422772914,-36.95435087196529,0.83 174.4710272736847,-36.95435548201203,0.87 174.4710130244493,-36.95436151698232,0.83 174.4709997810423,-36.9543691445142,0.75 174.4709269423038,-36.95440594106913,0.99 174.4709147047251,-36.95441164076328,0.99 174.4709015451372,-36.95441817864776,1.12 174.4708883855492,-36.9544246327132,1.22 174.4708743877709,-36.95443083532155,1.27 174.4707148801535,-36.95448573678732,1.66 174.4705334119499,-36.95452672429383,2.11 174.4705087691545,-36.95452228188515,2.11 174.4704873114824,-36.95450560189784,2.16 174.4704738166183,-36.95449956692755,2.26 174.4704587291926,-36.95449872873724,2.31 174.4704434741288,-36.95450090803206,2.39 174.4704230222851,-36.95450409315526,2.67 174.4704105332494,-36.95450996048748,3.06 174.4703968707472,-36.9545160792768,3.14 174.4703817833215,-36.95451934821904,3.169999999999999 174.470208697021,-36.95457399822772,3.28 174.4700697250664,-36.95462445728481,3.66 174.4699393026531,-36.95466946810484,4.67 174.4698595907539,-36.95471405982971,5.95 174.469780633226,-36.95476938039064,6.2 174.4696341175586,-36.95486292243004,6.78 174.4695696607232,-36.95489812642336,7.13 174.4695487059653,-36.95490810088813,7.299999999999999 174.4695375580341,-36.9549151416868,7.34 174.4695246499032,-36.95492226630449,7.38 174.4693583529443,-36.9549735635519,7.77 174.4692638050765,-36.95497121661901,8.039999999999999 174.4692284334451,-36.95496643893421,8.19 174.4692093227059,-36.95496736094356,8.26 174.4691903796047,-36.95496811531484,8.300000000000001 174.4691716041416,-36.95496752858162,8.300000000000001 174.4691524934024,-36.9549669418484,8.26 174.4691332988441,-36.95496752858162,8.130000000000001 174.4689576979727,-36.95496903732419,7.639999999999999 174.4689425267279,-36.95496870204806,7.65 174.4689264334738,-36.95496752858162,7.65 174.4689097534865,-36.95496618747711,7.639999999999999 174.4688931573182,-36.95496585220098,7.62 174.468876728788,-36.95496593602002,7.609999999999999 174.4688600488007,-36.95496568456292,7.609999999999999 174.4688429497182,-36.95496543310583,7.609999999999999 174.4688256829977,-36.95496551692486,7.599999999999999 174.4687033910304,-36.9549682829529,7.599999999999999 174.4686632417142,-36.95494741201401,8.08 174.4686507526785,-36.95494657382369,8.18 174.4686367549002,-36.95494774729013,8.300000000000001 174.4686234276742,-36.95494690909982,8.380000000000001 174.4684921670705,-36.95490491576493,9.08 174.4684262853116,-36.95491237565875,9.75 174.4684014748782,-36.95491396822035,9.800000000000001 174.4683870580047,-36.9549164827913,9.82 174.4683728087693,-36.95491790771484,9.869999999999999 174.4682815298438,-36.95493358187377,9.449999999999999 174.4682584796101,-36.95493567734957,8.640000000000001 174.4682441465557,-36.95493668317795,8.449999999999999 174.4682296458632,-36.95493659935892,8.359999999999999 174.4680815376341,-36.95491832681,7.87 174.4679190963507,-36.95491287857294,6.37 174.467891016975,-36.95492084138095,5.28 174.467890765518,-36.95491136983037,3.859999999999999 174.4678673800081,-36.95490667596459,3.91 174.4678527954966,-36.95490424521267,4 174.4678378757089,-36.95490349084139,4.11 174.4678225368261,-36.95490508340299,4.17 174.4678066950291,-36.9549082685262,4.23 174.4677911046892,-36.95491044782102,4.26 174.4677761849016,-36.95491078309715,4.2 174.4677616842091,-36.95491078309715,4.2 174.4676181022078,-36.95491204038262,3.47 174.4675324391574,-36.95493802428246,0.9 174.4674285873771,-36.95491178892553,1.62 174.4673414994031,-36.95489368401468,0.79 174.4672444369644,-36.95488144643605,2.35 174.4671973306686,-36.95496073924005,1.14 174.4670754577965,-36.9550459831953,0.61 174.4669664092362,-36.95504363626242,1.66 174.4669549260288,-36.9550166465342,1.58 174.4669463764876,-36.95502092130482,1.09 174.466920895502,-36.9550599809736,1 174.4668989349157,-36.95518244057894,0.84 174.4668453745544,-36.95527631789446,0.9499999999999998 174.4668143615127,-36.95538234896958,0.71 174.4668014533818,-36.95541026070714,0.9599999999999999 174.4668295327574,-36.95540757849813,1.39 174.4668193068355,-36.9553845282644,1.52 174.4667538441718,-36.95537639781833,1.4 174.4667551852763,-36.9553744699806,1.49 174.4667546823621,-36.95537505671382,1.06 174.4667515810579,-36.95537555962801,1.12 174.466791478917,-36.95536650717258,1.25 174.466799274087,-36.95539098232985,1.36 174.4668401777744,-36.9554487336427,1.26 174.4668329693377,-36.95544957183301,1.25 174.4668403454125,-36.95545694790781,1.32 174.4668961688876,-36.95555727928877,1.29 174.4668908044696,-36.9556903000921,1.21 174.4668694306165,-36.95573103614151,1.27 174.4668203126639,-36.95573757402599,1.37 174.4668248388916,-36.95573757402599,1.24 174.4668240007013,-36.95573715493083,1.28 174.4668382499367,-36.95577043108642,1.54 174.4668771419674,-36.95583296008408,1.53 174.4669505674392,-36.95594494231045,1.1 174.4669600389898,-36.95598199032247,1.09 174.4670312013477,-36.95603420957923,2.28 174.4671293534338,-36.95607335306704,1.5 174.4671487156302,-36.95608693175018,1.53 174.4671630486846,-36.9561546575278,1.91 174.4671388249844,-36.95616421289742,1.87 174.4671009387821,-36.95620218291879,2.58 174.4670958258212,-36.95620251819491,2.57 174.4670780561864,-36.95621425285935,2.46 174.4670449476689,-36.95625892840326,2.04 174.4670045468956,-36.95640779100358,1.99 174.466957943514,-36.95642195641994,2.24 174.4669587817043,-36.95642304606736,2.23 174.4669555127621,-36.95644148625433,2.23 174.4669520761818,-36.95652731694281,2.1 174.4670025352389,-36.9566488545388,2.18 174.467026591301,-36.95668917149305,2.35 174.4670323748142,-36.95674608461559,2.18 174.4670225679874,-36.95688849315047,1.59 174.466981748119,-36.95693383924663,1.29 174.4669820833951,-36.95693769492209,1.29 174.4670044630766,-36.95699628442526,1.39 174.4669768866152,-36.95706468075514,0.61 174.4669586978853,-36.95707851089537,0.55 174.4669276010245,-36.95715663023293,0.7999999999999999 174.4668976776302,-36.95717641152442,0.71 174.466894660145,-36.95717926137149,0.72 174.4668661616743,-36.95721262134612,0.64 174.4668540917337,-36.95723860524595,0.44 174.4668509904295,-36.95724966935813,0.33 174.4668466318399,-36.95724849589169,0.2 174.466860210523,-36.95725595578551,0.37 174.466852163896,-36.95725461468101,0.05 174.4668778125197,-36.95727498270571,-0.63 174.466878734529,-36.95731848478317,-0.13 174.4668536726385,-36.95745284669101,-0.15 174.4668541755527,-36.95746525190771,0.55 174.4669654034078,-36.95755929686129,1.21 174.4670230709016,-36.95762358605862,1.18 174.4670253340155,-36.95762375369668,1.23 174.4670943170786,-36.9577107578516,1.71 174.4670855998993,-36.9577348139137,1.76 174.4670339673758,-36.95787060074508,1.18 174.4669788982719,-36.95793899707496,1.32 174.4669630564749,-36.95796682499349,1.28 174.4668974261731,-36.95803966373205,0.9700000000000001 174.466884015128,-36.95806254632771,0.72 174.4668699335307,-36.95813027210534,0.29 174.4668472185731,-36.9581907056272,0.26 174.4668181333691,-36.95821551606059,0.42 174.4667585380375,-36.95822959765792,0.55 174.4666922371835,-36.95824812166393,0.7 174.4666562788188,-36.95826597511768,0.72 174.466646052897,-36.95827888324857,0.75 174.4666294567287,-36.95828961208463,0.76 174.4665665924549,-36.95834007114172,0.23 174.4665579590946,-36.95834334008396,0.18 174.4665450509638,-36.958346106112,0.28 174.466463662684,-36.95837795734406,0.9199999999999999 174.4664546940476,-36.95838717743754,0.75 174.4664474017918,-36.95839866064489,0.5600000000000001 174.4664381816983,-36.95840888656676,0.4 174.4664296321571,-36.95841701701283,0.24 174.4664197415113,-36.95847862400115,-0.12 174.466439941898,-36.95853092707694,1.2 174.4664634112269,-36.95851676166058,2.04 174.4665063265711,-36.95848968811333,1.69 174.4664921611547,-36.95847594179213,1.63 174.4665665086359,-36.95848767645657,1.62 174.4665923248976,-36.95849002338946,1.68 174.4666371680796,-36.95851349271834,1.67 174.4666469749063,-36.95852195844054,1.64 174.4667240045965,-36.95858415216208,1.72 174.4667812529951,-36.95860938169062,2.01 174.4667986873537,-36.9586172606796,2.16 174.4668281078339,-36.95863754488528,2.1 174.4668401777744,-36.95864802226424,2.08 174.4668530020863,-36.95865740999579,2.03 174.466889211908,-36.95865808054805,1.96 174.4668909721076,-36.9586486928165,1.97 174.466912932694,-36.95863561704755,2.76 174.4669180456549,-36.95863159373403,2.94 174.4669145252556,-36.95863477885723,3.19 174.4669178780168,-36.95864307694137,3.08 174.4669206440449,-36.95865204557776,2.19 174.4669275172055,-36.95866235531867,2.19 174.4669351447374,-36.9586709048599,2.22 174.4669456221163,-36.95868012495339,2.35 174.466958027333,-36.95868716575205,2.48 174.4670068938285,-36.95870971307158,2.87 174.4670218974352,-36.95871658623219,2.89 174.4670354761183,-36.95872211828828,2.86 174.4670502282679,-36.95872580632567,2.6 174.4670658186078,-36.95872748270631,1.54 174.4670817442238,-36.95872823707759,1.54 174.4670969154686,-36.95873058401048,1.15 174.4671125896275,-36.95873427204788,1.11 174.4671275932342,-36.95873854681849,1.15 174.4672014378011,-36.95874298922718,1.26 174.467275198549,-36.95874206721783,4.42 174.4673130009323,-36.95871876552701,4.79 174.4673635438085,-36.95874609053135,4.04 174.4673800561577,-36.95874952711165,3.93 174.4674766156822,-36.95871943607926,3.58 174.4674992468208,-36.95868934504688,4.87 174.4674902781844,-36.95868859067559,4.93 174.4674829021096,-36.95869244635105,4.93 174.4674711674452,-36.95869831368327,4.93 174.4674570020288,-36.95870283991098,4.93 174.467438897118,-36.95870510302484,4.93 174.4674223009497,-36.95870879106224,4.93 174.467259356752,-36.95874894037843,4.54 174.4672508910298,-36.95878699421883,4.47 174.4672375638038,-36.95880283601582,5.11 174.4672272540629,-36.95881138555706,5.25 174.4671977497637,-36.95882546715438,5.81 174.4672026112676,-36.9588194321841,6.44 174.4672601111233,-36.95877760648727,6.16 174.4672161061317,-36.95874592289329,5.82 174.4670506473631,-36.95872136391699,4.82 174.4670128449798,-36.95868565700948,3.34 174.4668889604509,-36.958615668118,3.76 174.4668053090572,-36.95858725346625,3.839999999999999 174.4667285308242,-36.95855506695807,3.88 174.466643454507,-36.95854098536074,3.35 174.4665942527354,-36.95850779302418,3.62 174.4665413629264,-36.95846546441317,3.399999999999999 174.4665328972042,-36.9584586750716,3.37 174.4664417020977,-36.95841358043253,2.8 174.4664455577731,-36.95842925459146,2.27 174.4664433784783,-36.95842422544956,2.09 174.4663715455681,-36.9583101477474,2.05 174.4663101062179,-36.95829690434039,2.13 174.4663106929511,-36.95829556323588,2.62 174.4662967789918,-36.95826061069965,2.94 174.466291917488,-36.95826320908964,2.97 174.4662881456316,-36.95827167481184,2.57 174.4662868883461,-36.95827293209732,2.78 174.466281440109,-36.95824569091201,2.62 174.4662635028362,-36.95821618661284,2.93 174.4662626646459,-36.95821484550834,2.91 174.4662881456316,-36.95825130678713,2.86 174.4663400296122,-36.95831299759448,3.19 174.4663427956402,-36.95832196623087,3.16 174.4663724675775,-36.95831961929798,3.08 174.4663814362139,-36.95831618271768,3.05 174.4664925802499,-36.95830587297678,2.47 174.4665125291795,-36.95826631039381,2.51 174.4665399380028,-36.95822775363922,2.67 174.4666639063507,-36.95817754603922,2.73 174.4667692668736,-36.95809305645525,2.99 174.4667978491634,-36.958047458902,2.72 174.4668526668102,-36.95796481333673,2.55 174.4668540079147,-36.9579597003758,2.69 174.4668937381357,-36.95791527628899,2.34 174.4669197220355,-36.95786372758448,2.32 174.4669239129871,-36.95780840702355,2.55 174.4669234100729,-36.95780689828098,2.54 174.4669379945844,-36.95779910311103,2.58 174.4669706840068,-36.95778669789433,2.73 174.4670925568789,-36.95774369873106,2.7 174.4671627134085,-36.95765166543424,2.56 174.4672077242285,-36.95754429325461,2.42 174.4671346340328,-36.95742359384894,2.06 174.467055676505,-36.95731890387833,1.7 174.4670514017344,-36.95731504820287,1.58 174.4670605380088,-36.95726903155446,1.55 174.4671488832682,-36.95716953836381,0.7 174.4672285113484,-36.95704967714846,-0.42 174.4672879390419,-36.95693266578019,2.28 174.4672642182559,-36.95684826001525,1.35 174.4672347139567,-36.9567508623004,1.06 174.4672297686338,-36.95674264803529,1.47 174.4671927206218,-36.95670928806067,2.5 174.4670787267387,-36.95656176656485,2.73 174.467079648748,-36.95642388425767,1.87 174.4670458696783,-36.95627192035317,1.91 174.4670218136162,-36.95615717209876,1.5 174.4669924769551,-36.95599774830043,1.14 174.4669690076262,-36.95588668808341,0.7999999999999999 174.4669469632208,-36.955761378631,0.63 174.4669208116829,-36.95562441833317,0.33 174.4669188838452,-36.95548955351114,0.11 174.466923577711,-36.95539391599596,-0.35 174.4669655710459,-36.95536307059228,-0.4 174.4670569337904,-36.95530758239329,-0.73 174.4671050459146,-36.95526424795389,-0.79 174.4670059718192,-36.95512443780899,-0.35 174.4668966718018,-36.95504858158529,-2.6 174.4668900500983,-36.95504087023437,-2.82 174.4667774811387,-36.95497130043805,-3.07 174.466691147536,-36.95490784943104,-3.07 174.4666772335768,-36.95489443838596,-0.41 174.4666775688529,-36.95489435456693,0.29 174.4666775688529,-36.95489443838596,0.11 174.4666493218392,-36.95495369844139,-1.1 174.4666535127908,-36.9549566321075,-1.69 174.4666741322726,-36.95495386607945,-1.02 174.4666973501444,-36.95494816638529,-0.53 174.4668281078339,-36.95492285303771,-0.15 174.4668662454933,-36.95492142811418,0.09 174.4669555127621,-36.95490055717528,0.27 174.4669785629958,-36.95489334873855,0.27 174.4669961649925,-36.95486225187778,0.43 174.4670185446739,-36.95485395379364,0.42 174.4671436864883,-36.95483978837729,0.09999999999999999 174.4671568460763,-36.95483786053956,0.09999999999999999 174.4671592768282,-36.95483936928213,-1.07 174.4671525713056,-36.95484020747244,-0.7999999999999999 174.4671494700015,-36.95483827963471,-0.65 174.4671888649464,-36.95482176728547,-0.28 174.4671832490712,-36.95476770401001,0.6899999999999999 174.4672335404903,-36.95466192439198,0.6899999999999999 174.4673342909664,-36.95457927882671,0.15 174.4673484563828,-36.95457676425576,0.3 174.4674199540168,-36.95454642176628,1.23 174.4675163459033,-36.95448741316795,-0.09 174.4675258174539,-36.95447509177029,-0.77 174.4675409048796,-36.95447081699967,-0.9599999999999999 174.4675986561924,-36.95442387834191,1.18 174.4676502048969,-36.95438465103507,1 174.4677292462438,-36.9543086271733,0.09999999999999999 174.4678033422679,-36.95423629134893,1.18 174.467814322561,-36.95421860553324,1.44 174.4678752589971,-36.95415381342173,1.1 174.4679643586278,-36.95409245789051,0.9599999999999999 174.4679704774171,-36.95407904684544,0.9599999999999999 174.4680334255099,-36.9540102314204,0.9599999999999999 174.4680430646986,-36.95400075986981,0.9700000000000001 174.4680508598685,-36.95398550480604,0.9700000000000001 174.4680892489851,-36.9539412483573,0.9700000000000001 174.4681345112622,-36.95388098247349,0.67 174.4680920988321,-36.95387637242675,1.41 174.4680963736027,-36.9538738578558,1.39 174.4682181626558,-36.9537491351366,1.1 174.468324193731,-36.95367746986449,1.07 174.4683360122144,-36.9536267593503,1.08 174.4683869741857,-36.95362466387451,1.07 174.4685294665396,-36.95364302024245,0.8099999999999999 174.4685440510511,-36.95364704355597,0.8099999999999999 174.4685968570411,-36.95359390228987,1.7 174.4686965178698,-36.9535747077316,1.53 174.4687933288515,-36.95359180681407,1.27 174.4688763935119,-36.95362810045481,1.08 174.4689986016601,-36.95365341380239,0.7999999999999999 174.4690214842558,-36.95365886203945,0.74 174.4691640604287,-36.9536455348134,0.9700000000000001 174.4692883640528,-36.95366305299103,0.55 174.4693985022604,-36.9537166133523,0.9399999999999999 174.4694363046438,-36.95375039242208,-0.38 174.4695670623332,-36.95378081873059,0.39 174.4695847481489,-36.95378098636866,0.93 174.4696023501456,-36.95378107018769,1.27 174.4696540664881,-36.95380085147917,1.63 174.4696565810591,-36.95381409488618,1.64 174.4696559105068,-36.95385935716331,1.62 174.469677535817,-36.95388752035797,1.56 174.469693209976,-36.95389213040471,1.54 174.4697110634297,-36.95389070548117,1.52 174.4697255641222,-36.95389045402408,1.52 174.4697396457195,-36.95387285202742,1.56 174.4697535596788,-36.95386061444879,2.4 174.4697689823806,-36.95386522449553,2.4 174.4697859976441,-36.95387067273259,2.39 174.469804354012,-36.95387586951256,2.37 174.4698217883706,-36.95388022810221,2.32 174.4698395580053,-36.95388341322541,2.24 174.4699962995946,-36.95398198440671,1.77 174.4700479321182,-36.95413428358734,1.61 174.4700651988387,-36.95422698743641,1.43 174.4700703117996,-36.95424241013825,1.3 174.4700746703893,-36.95425414480269,1.33 174.4700796157122,-36.95426671765745,1.36 174.4700849801302,-36.95428038015962,1.38 174.4700908474624,-36.95429421029985,1.46 174.4700962118804,-36.95430762134492,1.52 174.4701340142637,-36.95448665879667,1.71 174.4701350200921,-36.95451037958264,2.05 174.4701406359673,-36.95452035404742,2.08 174.4701458327472,-36.95453083142638,2.13 174.4701465871185,-36.95454491302371,2.2 174.4701448269188,-36.95455824024975,2.23 174.4701438210905,-36.95457089692354,2.26 174.4701449107379,-36.95458397269249,2.32 174.4701616745442,-36.9545953720808,2.46 174.4701776839793,-36.95459352806211,2.54 174.4701947830617,-36.95458916947246,2.64 174.4702103734016,-36.95458363741636,2.8 174.4702257961035,-36.95457701571286,2.91 174.4703070167452,-36.95455027744174,3.48 174.4703149795532,-36.9545491039753,3.45 174.4703292287886,-36.95454499684274,3.46 174.4703443162143,-36.95453988388181,3.490000000000001 174.4703604094684,-36.95453477092087,3.52 174.4703770894557,-36.95453091524541,3.55 174.4703938532621,-36.95452747866511,3.56 174.4704098626971,-36.95452286861837,3.57 174.4704264588654,-36.95451817475259,3.57 174.470443809405,-36.95451415143907,3.55 174.4705800153315,-36.95452555082738,3.11 174.4707854557782,-36.95447509177029,2.49 174.4710049778223,-36.95437869988382,2.01 174.4710299558938,-36.9543588347733,1.95 174.471033224836,-36.9543432444334,1.91 174.4710299558938,-36.954326312989,1.79 174.4710235856473,-36.95431139320135,1.72 174.4710163772106,-36.95429706014693,1.67 174.4709755573422,-36.95421340875328,0.75 174.4709743000567,-36.95420418865979,0.66 174.4709741324186,-36.95419161580503,0.66 174.4709740485996,-36.95416303351521,0.63 174.4710007030517,-36.95400729775429,0.93 174.4709590449929,-36.95385550148785,1.01 174.4708993658423,-36.95369238965213,1.08 174.4708527624607,-36.95353112183511,1.11 174.4707494135946,-36.95336516015232,1.08 174.4706723000854,-36.95323473773897,0.88 174.4706280436367,-36.95318880490959,0.72 174.4706108607352,-36.95318553596735,0.6899999999999999 174.4704143889248,-36.9531621504575,0.47 174.4704037439078,-36.95315049961209,0.63 174.4703954458237,-36.95315259508789,0.9099999999999999 174.4703825376928,-36.95315812714398,1.01 174.4703682046384,-36.95316357538104,1.04 174.4703520275652,-36.95316625759006,1.04 174.4703353475779,-36.95316734723747,1.04 174.4701591599733,-36.95318008773029,0.61 174.4699051883072,-36.95321328006685,0.9099999999999999 174.4697665516287,-36.95322861894965,1.18 174.4697550684214,-36.95322836749256,1.28 174.4697403162718,-36.95323029533029,1.28 174.4697235524654,-36.95323213934898,1.32 174.4697060342878,-36.95323339663446,1.32 174.4696875102818,-36.95323532447219,1.3 174.4696680642664,-36.95323809050024,1.26 174.4694336224347,-36.95325653068721,1.34 174.4692576862872,-36.9532469753176,0.66 174.4691834226251,-36.95322895422578,2.65 174.469172693789,-36.95323063060641,2.59 174.469156768173,-36.95323431864381,2.52 174.4691381603479,-36.95323389954865,2.43 174.4691205583513,-36.95323146879673,2.43 174.4691020343453,-36.95322719402611,2.4 174.4690844323486,-36.95322308689356,2.44 174.4688870385289,-36.95312895812094,4.12 174.4688017945737,-36.95304865948856,4.88 174.4687211606652,-36.95300289429724,5.16 174.4687044806778,-36.95299224928021,5.23 174.4686478190124,-36.95300398394465,5.13 174.4686354137957,-36.95300716906786,5.04 174.4686222542077,-36.95301152765751,4.95 174.4686085078865,-36.9530152156949,4.83 174.4685151334852,-36.95304991677403,4.13 174.4684264529496,-36.95309358648956,3.83 174.4683324079961,-36.95314404554665,3.91 174.4682376086712,-36.9531983602792,3.589999999999999 174.4681204296649,-36.95326424203813,2.78 174.4679960422218,-36.95332241244614,2.16 174.4678314216435,-36.9534058123827,2.64 174.4677149970084,-36.95347596891224,3.43 174.4677030108869,-36.95346071384847,3.02 174.4676992390305,-36.95344721898437,3 174.4676950480789,-36.95343431085348,3.06 174.4676866661757,-36.9534227438271,3.16 174.4676747638732,-36.95341293700039,3.3 174.4676619395614,-36.95340480655432,3.35 174.4676500372589,-36.95339617319405,3.41 174.4676403980702,-36.95338603109121,3.46 174.4676320999861,-36.95337513461709,3.48 174.4675108976662,-36.95326709188521,3.379999999999999 174.4673684053123,-36.95316097699106,3.35 174.467237982899,-36.95311236195266,3.28 174.4672140106559,-36.95309626869857,3.34 174.4671646412462,-36.95307766087353,3.34 174.4669881183654,-36.95306081324816,2.92 174.4668789859861,-36.95302468724549,3.149999999999999 174.466767674312,-36.95298294536769,2.55 174.4667130243033,-36.95297045633197,2.62 174.4666793290526,-36.95293969474733,2.42 174.4666533451527,-36.95288873277605,2.39 174.4666212424636,-36.95274313911796,2.09 174.4666205719113,-36.95273081772029,2.02 174.4666041433811,-36.95264054462314,2 174.466590732336,-36.95262076333165,2.07 174.4665048178285,-36.95252118632197,1.63 174.4664836954325,-36.95247667841613,2.45 174.4664360862225,-36.95244348607957,1.92 174.4664360024035,-36.95244055241346,1.11 174.4664016366005,-36.95241825655103,1.16 174.466318488121,-36.95228573866189,0.55 174.4662568811327,-36.95215146057308,0.9700000000000001 174.4662174861878,-36.95212564431131,0.8600000000000001 174.4662217609584,-36.95209354162216,0.55 174.4662302266806,-36.95207443088293,0.41 174.4662319868803,-36.95207283832133,0.45 174.4662420451641,-36.95207057520747,0.25 174.4662723876536,-36.95207635872066,1.22 174.4662904925644,-36.95203822106123,1.04 174.4662979524583,-36.95191542617977,0.73 174.4663013052195,-36.95174175314605,-0.38 174.4663091842085,-36.95161426439881,0.14 174.4662863854319,-36.95146791636944,-0.67 174.4662429671735,-36.95132425054908,-0.77 174.4662220124155,-36.95126222446561,-0.66 174.466220587492,-36.95125820115209,-0.5600000000000001 174.4661957770586,-36.95121855475008,-0.72 174.4661482516676,-36.95107514038682,-0.6899999999999999 174.4661523588002,-36.95103608071804,-0.55 174.466143893078,-36.95103742182255,-0.52 174.4660879019648,-36.95105787366629,-0.54 174.4660861417651,-36.95106483064592,-0.53 174.4661614950746,-36.95103767327964,-0.27 174.4661672785878,-36.95103851146996,-0.26 174.4662459846586,-36.95103314705193,-0.3 174.4662728905678,-36.951006911695,-0.37 174.4662774167955,-36.95097573101521,-0.23 174.4662790093571,-36.9509743899107,-0.75 174.4662808533758,-36.95097715593874,-1.34 174.4662718847394,-36.95097246207297,-1.34 174.4662526901811,-36.95095997303724,-1.25 174.4662322383374,-36.95094882510602,-1.11 174.4661613274366,-36.95096877403557,-0.38 174.4661367684603,-36.95096072740853,-0.44 174.4659917615354,-36.95081287063658,0.31 174.4658516161144,-36.95070097222924,0.45 174.4657995644957,-36.95059007965028,0.49 174.4657632708549,-36.95056124590337,0.33 174.4657564815134,-36.95054154843092,0.41 174.4657558947802,-36.95055881515145,0.33 174.4657499436289,-36.95054247044027,0.32 174.465747429058,-36.95053995586932,-0.34 174.4657936971635,-36.95054775103927,-0.67 174.4658023305237,-36.95054808631539,-0.76 174.4658980518579,-36.95053073577583,-0.49 174.4659089483321,-36.9505113735795,-0.27 174.4659083615988,-36.95051288232207,-3.47 174.4659017398953,-36.95051070302725,1.51 174.4659302383661,-36.95053115487099,1.95 174.4659939408302,-36.95056082680821,0.39 174.4661052525043,-36.95067565888166,-0.72 174.4661576393992,-36.95080557838082,-0.6899999999999999 174.4661893229932,-36.95090590976179,-0.27 174.4661822821945,-36.95092778652906,0.08 174.4661875627935,-36.95093533024192,0.05 174.4661997165531,-36.95095360279083,0.05999999999999999 174.4662294723094,-36.95104764774442,-0.26 174.4662211742252,-36.95105468854308,0.73 174.4662253651768,-36.95109710097313,0.7999999999999999 174.4662532769144,-36.95125359110534,-0.76 174.4663028977811,-36.95136347785592,0.2 174.4663709588349,-36.95141955278814,1.02 174.4663889799267,-36.95151971653104,1.11 174.4664344098419,-36.9516631308943,1.16 174.4664536882192,-36.95177561603487,1.3 174.4664836954325,-36.95187418721616,1.28 174.4665663409978,-36.95195943117142,1.69 174.4666825979948,-36.95205146446824,1.69 174.4667996931821,-36.95214768871665,1.99 174.4668884575367,-36.95221952162683,1.81 174.4669060595334,-36.9522403087467,1.97 174.4669259246439,-36.95225430652499,1.95 174.4669278524816,-36.95225313305855,0.9599999999999999 174.4669264275581,-36.95225019939244,-2.07 174.4669267628342,-36.95223796181381,-2.27 174.4669243320823,-36.95222195237875,-0.35 174.4669252540916,-36.95221683941782,-0.78 174.4669257570058,-36.95221683941782,-0.99 174.4669270981103,-36.95221683941782,-0.9199999999999999 174.4669281039387,-36.95221692323685,-0.5600000000000001 
			</coordinates>
		</LineString>
	</MultiGeometry>
	<atom:link rel="app" href="https://www.google.com/earth/about/versions/#earth-pro" title="Google Earth Pro 7.3.7.1155"></atom:link>
</Placemark>
</kml>
