<?xml version="1.0" encoding="UTF-8"?>
<kml xmlns="http://www.opengis.net/kml/2.2" xmlns:gx="http://www.google.com/kml/ext/2.2" xmlns:kml="http://www.opengis.net/kml/2.2" xmlns:atom="http://www.w3.org/2005/Atom">
<Placemark>
	<name>Track</name>
	<Style>
		<LineStyle>
			<color>ff0000ff</color>
			<width>3</width>
		</LineStyle>
	</Style>
	<LineString>
		<tessellate>1</tessellate>
		<coordinates>
			173.7164979893714,-42.42325351573527,0 173.7166121508926,-42.42329919710755,0 173.7166548985988,-42.42341469973326,0 173.7167736701667,-42.42351159453392,0 173.7168159987777,-42.42352559231222,0 173.7169432360679,-42.42345912382007,0 173.7170127220452,-42.4234573636204,0 173.7171593215317,-42.42359122261405,0 173.7172679509968,-42.42361100390553,0 173.7173243612051,-42.42370488122106,0 173.7177041452378,-42.42377830669284,0 173.7178590428084,-42.4238664843142,0 173.7177511677146,-42.42387235164642,0 173.7178070750087,-42.42391292005777,0 173.7177722062916,-42.42390495724976,0 173.7178249284625,-42.42387352511287,0 173.7177420314401,-42.42391744628549,0 173.7176855374128,-42.42402012459934,0 173.7176419515163,-42.42403965443373,0 173.7177478987724,-42.42413738742471,0 173.7176689412445,-42.42422372102737,0 173.7177153769881,-42.42424291558564,0 173.7177561968565,-42.42421600967646,0 173.7177173886448,-42.42425858974457,0 173.7177854496986,-42.42425071075559,0 173.7173993792385,-42.42420536465943,0 173.7174250278622,-42.42436143569648,0 173.7175846192986,-42.4244383815676,0 173.7174850422889,-42.42444961331785,0 173.717302903533,-42.42438389919698,0 173.7173434719443,-42.42432153783739,0 173.7172941025347,-42.42436001077294,0 173.7173147220165,-42.42435481399298,0 173.7172881513834,-42.42429697886109,0 173.7171875685453,-42.42429379373789,0 173.7170892488211,-42.42416823282838,0 173.7169615086168,-42.4242087174207,0 173.7168248835951,-42.42432774044573,0 173.7163522280753,-42.42456838488579,0 173.7164646293968,-42.42469419725239,0 173.716330267489,-42.42477684281766,0 173.7162678223103,-42.42485521361232,0 173.7162705883384,-42.42482210509479,0 173.716192888096,-42.42483015172184,0 173.7158708553761,-42.42494045756757,0 173.7158950790763,-42.42494808509946,0 173.7158654909581,-42.42488279007375,0 173.7158899661154,-42.42495194077492,0 173.7159239966422,-42.42495386861265,0 173.7158462125808,-42.42492503486574,0 173.7157972622663,-42.42495906539261,0 173.715762058273,-42.4249267950654,0 173.7156156264246,-42.4249164853245,0 173.7154216691852,-42.42494984529912,0 173.7152143009007,-42.42493257857859,0 173.7151389475912,-42.42486929520965,0 173.7150739878416,-42.42491606622934,0 173.7150826212019,-42.42494909092784,0 173.7149479240179,-42.42487893439829,0 173.7148296553642,-42.42486669681966,0 173.7147924397141,-42.42494800128043,0 173.7145482748747,-42.42495537735522,0 173.7144224625081,-42.42499996908009,0 173.7144356220961,-42.42495596408844,0 173.7144082970917,-42.42494355887175,0 173.7142561655492,-42.42500206455588,0 173.7140504736453,-42.42495261132717,0 173.7137763854116,-42.42506962269545,0 173.713861880824,-42.4250721372664,0 173.7138124275953,-42.42507440038025,0 173.7138305325061,-42.42503877729177,0 173.7137812469155,-42.42504003457725,0 173.7137970048934,-42.4250858835876,0 173.7137421872467,-42.42507691495121,0 173.7136340606958,-42.42513416334987,0 173.7136512435973,-42.42507138289511,0 173.7135996948928,-42.42508311755955,0 173.7134639080614,-42.42520012892783,0 173.7133890576661,-42.42531915195286,0 173.7134045641869,-42.42537531070411,0 173.7133805081248,-42.42538302205503,0 173.7134104315192,-42.42535024881363,0 173.7133541889489,-42.42531538009644,0 173.7134213279933,-42.42526777088642,0 173.7133693601936,-42.42533172480762,0 173.7133919913322,-42.42536282166839,0 173.7132026441395,-42.42582080885768,0 173.7130116205662,-42.42611115798354,0 173.7130345869809,-42.42613152600825,0 173.7130095250905,-42.42615583352745,0 173.7130761612207,-42.42612582631409,0 173.7130197510123,-42.42614904418588,0 173.7129511032254,-42.4262495432049,0 173.7127639353275,-42.42667810991406,0 173.7127397116274,-42.42667308077216,0 173.7128143943846,-42.4268349353224,0 173.7127951998264,-42.42709812708199,0 173.7128176633269,-42.42710215039551,0 173.7126666214317,-42.42713777348399,0 173.7125512864441,-42.42724866606295,0 173.712662179023,-42.42742619477212,0 173.71257760562,-42.42741948924959,0 173.7122745160013,-42.42749542929232,0 173.7121642101556,-42.42755745537579,0 173.7119203805923,-42.42756483145058,0 173.7116545066237,-42.42736492305994,0 173.7116206437349,-42.42736752144992,0 173.7116452027112,-42.42737028747797,0 173.7115031294525,-42.42723885923624,0 173.7113449629396,-42.42718571797013,0 173.7112007942051,-42.42717758752406,0 173.7111191544682,-42.42712436243892,0 173.7109777517617,-42.4270923435688,0 173.7108448147774,-42.42709871381521,0 173.7106076907367,-42.42703970521688,0 173.7094518262893,-42.42735679261386,0 173.7087893206626,-42.42763725109398,0 173.7084059324116,-42.42789088748395,0 173.7082861550152,-42.42800605483353,0 173.7081574089825,-42.42820864543319,0 173.7080497015268,-42.42850553244352,0 173.7079621106386,-42.42862690240145,0 173.7076742760837,-42.42885824292898,0 173.7071753852069,-42.42913073860109,0 173.7071079947054,-42.42920944467187,0 173.7072064820677,-42.42927666753531,0 173.7072030454874,-42.42930642329156,0 173.7070992775261,-42.42931069806218,0 173.7072234135121,-42.42933458648622,0 173.7072651553899,-42.42920919321477,0 173.7071912270039,-42.42921648547053,0 173.7072483077645,-42.42922335863113,0 173.707278734073,-42.42916904389858,0 173.707733284682,-42.42914146743715,0 173.7076625414193,-42.42914180271327,0 173.7070420291275,-42.4293583072722,0 173.7071593757719,-42.42928856983781,0 173.7071618065238,-42.42925303056836,0 173.7071053124964,-42.42919938638806,0 173.7067601457238,-42.42918555624783,0 173.7065045814961,-42.42931899614632,0 173.706327136606,-42.42933869361877,0 173.7058237195015,-42.42950574494898,0 173.7055424228311,-42.42953784763813,0 173.7046803440899,-42.42982660420239,0 173.7046654243022,-42.42980640381575,0 173.7044918350875,-42.42988117039204,0 173.7043702974916,-42.42997379042208,0 173.7041606660932,-42.43004084564745,0 173.7041066028178,-42.4301297776401,0 173.7040297407657,-42.43002592585981,0 173.7039101310074,-42.42999960668385,0 173.7038652878255,-42.42999457754195,0 173.7038579117507,-42.43003950454295,0 173.7036967277527,-42.43001620285213,0 173.7035796325654,-42.43004880845547,0 173.7033686600626,-42.43022600188851,0 173.7032628804445,-42.4303628783673,0 173.7032493017614,-42.43042783811688,0 173.7032299395651,-42.43041208013892,0 173.7031755410135,-42.43048802018166,0 173.7030508182943,-42.43085062131286,0 173.7030441127717,-42.43103376589715,0 173.703012932092,-42.43109847418964,0 173.7030297797173,-42.4312886595726,0 173.7030867766589,-42.43141757324338,0 173.7031719367951,-42.4315096065402,0 173.7032709270716,-42.43155864067376,0 173.7034216336906,-42.43176810443401,0 173.7034414149821,-42.43186910636723,0 173.7033840827644,-42.43200321681798,0 173.7033577635884,-42.43199340999126,0 173.7032471224666,-42.43209407664835,0 173.7032479606569,-42.43213665671647,0 173.7032401654869,-42.4320952501148,0 173.7031726073474,-42.43212408386171,0 173.703044867143,-42.43219440802932,0 173.7029798235744,-42.43227319791913,0 173.7029172945768,-42.43243161588907,0 173.7029166240245,-42.43264619261026,0 173.7028011213988,-42.43271282874048,0 173.7025530170649,-42.43274493142962,0 173.7023759912699,-42.43261543102562,0 173.7021519429982,-42.43235450237989,0 173.702077427879,-42.43215434253216,0 173.7021017353982,-42.43207949213684,0 173.7020772602409,-42.4318034760654,0 173.7022789288312,-42.43161027319729,0 173.7023747339845,-42.43158806115389,0 173.7024254444987,-42.43166324682534,0 173.7023740634322,-42.43155327625573,0 173.7024459801614,-42.43149996735156,0 173.7022790126503,-42.43136988021433,0 173.7022623326629,-42.43122437037528,0 173.7021210137755,-42.43094952777028,0 173.7021195050329,-42.43090912699699,0 173.702146243304,-42.43091717362404,0 173.7020331714302,-42.43080091662705,0 173.7021120451391,-42.43048525415361,0 173.7020454090089,-42.43038483895361,0 173.7020046729594,-42.43042498826981,0 173.7020064331591,-42.43053403683007,0 173.7019304931164,-42.43061123415828,0 173.701752293855,-42.43065037764609,0 173.7017274834216,-42.43063738569617,0 173.7017543055117,-42.43061760440469,0 173.7016723304987,-42.4305843282491,0 173.7015959713608,-42.43061835877597,0 173.7014145031571,-42.43061358109117,0 173.7015802133828,-42.4305341206491,0 173.7016051914543,-42.4305808916688,0 173.7016949616373,-42.43039028719068,0 173.7017077859491,-42.43031200021505,0 173.7016835622489,-42.43033153004944,0 173.7017087917775,-42.43032557889819,0 173.7016752641648,-42.43028031662107,0 173.7017222866416,-42.43023664690554,0 173.7016874179244,-42.43022759445012,0 173.7017308361828,-42.43013975210488,0 173.7017606757581,-42.4301630537957,0 173.7017036788166,-42.43009977042675,0 173.7016113940626,-42.43014545179904,0 173.7016317620873,-42.43011427111924,0 173.7017430737615,-42.43015307933092,0 173.7017197720706,-42.43011997081339,0 173.7016735039651,-42.43013271130621,0 173.7016654573381,-42.43010086007416,0 173.7016614340246,-42.43012793362141,0 173.7016235478222,-42.42999189533293,0 173.7018161639571,-42.42978913709521,0 173.7020554672927,-42.42961144074798,0 173.7023474927992,-42.42945067584515,0 173.7024137098342,-42.42944514378905,0 173.7025007139891,-42.4293374363333,0 173.7029255926609,-42.42924003861845,0 173.7030873633921,-42.42915261536837,0 173.7037976458669,-42.4291336722672,0 173.7044734787196,-42.42876294068992,0 173.7047039810568,-42.4286912754178,0 173.704818142578,-42.42861818522215,0 173.7049315497279,-42.42861365899444,0 173.704910678789,-42.42859236896038,0 173.7049361597747,-42.42855364456773,0 173.7053166143596,-42.42836731486022,0 173.7060494441539,-42.42829120717943,0 173.7066925875843,-42.42834527045488,0 173.7067807652056,-42.42838818579912,0 173.7067569606006,-42.42822457104921,0 173.707112101838,-42.42750967852771,0 173.7075961567461,-42.42722997441888,0 173.7079689837992,-42.42707490921021,0 173.7080031819642,-42.42701891809702,0 173.7082878313959,-42.42682814598083,0 173.7089054100215,-42.42652488872409,0 173.7092401832342,-42.42632414214313,0 173.709622900933,-42.42627921514213,0 173.7098240666091,-42.42635364644229,0 173.7098479550332,-42.42635138332844,0 173.7098038662225,-42.42634425871074,0 173.7101336941123,-42.4264102242887,0 173.7104302458465,-42.42642648518085,0 173.711123932153,-42.42665279656649,0 173.7114608008415,-42.42669923231006,0 173.7114167958498,-42.42656839080155,0 173.7115618865937,-42.42644006386399,0 173.7117312848568,-42.42619933560491,0 173.7120508030057,-42.42549676448107,0 173.7122611887753,-42.42523575201631,0 173.7124626897275,-42.42510432377458,0 173.7127987202257,-42.42496359162033,0 173.7132313102484,-42.42466913536191,0 173.7133957631886,-42.42462798021734,0 173.7135564442724,-42.42444274015725,0 173.7136683426797,-42.42439932189882,0 173.7137624714524,-42.42441315203905,0 173.7140994239599,-42.42456276901066,0 173.7143695726991,-42.42461825720966,0 173.7146676331758,-42.42457852698863,0 173.7151430547237,-42.42443435825408,0 173.7152738124132,-42.42448540404439,0 173.7153716292232,-42.42448699660599,0 173.715437008068,-42.42441424168646,0 173.7154849525541,-42.42427485063672,0 173.7158623896539,-42.42403395473957,0 173.7161717657,-42.42394351400435,0 173.7161581031978,-42.42391887120903,0 173.7160876952112,-42.42396203801036,0 173.7160750385374,-42.42394242435694,0 173.7161974981427,-42.42387989535928,0 173.7162099871784,-42.42384561337531,0 173.7161835841835,-42.4238302744925,0 173.7159511540085,-42.42380152456462,0 173.7153768260032,-42.42356951348484,0 173.7157950829715,-42.42360052652657,0 173.7159959971905,-42.42353204637766,0 173.7162159383297,-42.42339005693793,0 173.7163402419537,-42.42335828952491,0 173.716060705483,-42.42326298728585,0 173.7161146011204,-42.42325586266816,0 173.7160797324032,-42.42315209470689,0 173.7161114159971,-42.42303851991892,0 173.7160208076239,-42.42296140640974,0 173.7160110846162,-42.42288286797702,0 173.7159030418843,-42.42276694625616,0 173.7159828376025,-42.42276543751359,0 173.7159581109881,-42.42279754020274,0 
		</coordinates>
	</LineString>
	<atom:link rel="app" href="https://www.google.com/earth/about/versions/#earth-pro" title="Google Earth Pro 7.3.7.1155"></atom:link>
</Placemark>
</kml>
