<?xml version="1.0" encoding="UTF-8"?>
<kml xmlns="http://www.opengis.net/kml/2.2" xmlns:gx="http://www.google.com/kml/ext/2.2" xmlns:kml="http://www.opengis.net/kml/2.2" xmlns:atom="http://www.w3.org/2005/Atom">
<Placemark>
	<name>Track</name>
	<Style>
		<LineStyle>
			<color>ff0000ff</color>
			<width>3</width>
		</LineStyle>
	</Style>
	<LineString>
		<tessellate>1</tessellate>
		<coordinates>
			174.8239540122449,-41.30650673992932,0 174.8232364375144,-41.30633700639009,0 174.8231017403305,-41.30634756758809,0 174.8227562382817,-41.3066253438592,0 174.8226933740079,-41.30669902078807,0 174.8227056115866,-41.30671905353665,0 174.8225396499038,-41.30681267939508,0 174.8223741911352,-41.30697377957404,0 174.8222577665001,-41.30715047009289,0 174.8222461994737,-41.30724728107452,0 174.8221476282924,-41.30738046951592,0 174.8219636455178,-41.30801062099636,0 174.8218718636781,-41.30821882747114,0 174.8218252602965,-41.30837548524141,0 174.8218579497188,-41.30847447551787,0 174.8218500707299,-41.3085953425616,0 174.8217101767659,-41.30866315215826,0 174.8216552753001,-41.3087385892868,0 174.8217220790684,-41.30890949629247,0 174.8217094223946,-41.30897621624172,0 174.8215774074197,-41.30904360674322,0 174.8214232642204,-41.30923613905907,0 174.8214412014931,-41.30925902165473,0 174.821379929781,-41.30937159061432,0 174.8212899919599,-41.30939749069512,0 174.8210732359439,-41.30964023061097,0 174.8210786003619,-41.30971214734018,0 174.8211547918618,-41.30978959612548,0 174.8211628384888,-41.30991959944367,0 174.8211112059653,-41.31002395413816,0 174.8211529478431,-41.30999612621963,0 174.8211148101836,-41.30970183759928,0 174.8210342600942,-41.30970502272248,0 174.8211155645549,-41.30962556228042,0 174.8211780097336,-41.30945708602667,0 174.8212245292962,-41.30942456424236,0 174.8212263733149,-41.30945054814219,0 174.8213427141309,-41.30947946570814,0 174.8214590549469,-41.30945423617959,0 174.8214548639953,-41.30949371494353,0 174.821607330814,-41.3094814773649,0 174.8211068473756,-41.3094901945442,0 174.82117658481,-41.30945775657892,0 174.8213700391352,-41.30924762226641,0 174.8214184865355,-41.30916891619563,0 174.8214184865355,-41.30906254984438,0 174.8215274512768,-41.30879089236259,0 174.8218300379813,-41.30832091905177,0 174.8220058903098,-41.30786796100438,0 174.822117453441,-41.30719539709389,0 174.8223939724267,-41.30680563859642,0 174.8226678930223,-41.30666172131896,0 174.8230314161628,-41.30635184235871,0 174.8231431469321,-41.30628487095237,0 174.8232050891966,-41.30630523897707,0 174.8231430631131,-41.30626081489027,0 174.823090089485,-41.30627372302115,0 174.8228598386049,-41.30620809271932,0 174.8231462482363,-41.30630859173834,0 174.8234355915338,-41.30630683153868,0 174.8235817719251,-41.30637447349727,0 174.8238654155284,-41.30641018040478,0 174.8242120910436,-41.30652702413499,0 174.8242612089962,-41.30652341991663,0 174.8243570979685,-41.30632787011564,0 174.8243503924459,-41.30576469004154,0 174.8243166133761,-41.30564725957811,0 174.8243429325521,-41.30555698648095,0 174.8243154399097,-41.30551809445024,0 174.8238463886082,-41.30536571145058,0 174.8235109448433,-41.30529647693038,0 174.8235741443932,-41.30526873283088,0 174.8235168959945,-41.305250544101,0 174.8231874033809,-41.30521534010768,0 174.8232823703438,-41.30514526739717,0 174.8234675265849,-41.30514317192137,0 174.8240979295224,-41.30530217662454,0 174.8244003485888,-41.30532598122954,0 174.8244204651564,-41.3052074611187,0 174.8243659827858,-41.30478224717081,0 174.8244197107852,-41.30455568432808,0 174.8244413360953,-41.30399032495916,0 174.8245163541287,-41.30361305549741,0 174.8243839200586,-41.30346218124032,0 174.8237810935825,-41.30317753180861,0 174.8236914910376,-41.30317778326571,0 174.8234348371625,-41.30334014073014,0 174.8232689592987,-41.30337710492313,0 174.8230674583465,-41.30323218181729,0 174.8232742398977,-41.30305574275553,0 174.8237259406596,-41.30286086350679,0 174.8239564429969,-41.30265173502266,0 174.8240709397942,-41.30238049663603,0 174.8242146894336,-41.30225158296525,0 174.8244296852499,-41.30213993601501,0 174.8246014304459,-41.30216524936259,0 174.8251765128225,-41.30240832455456,0 174.8253040853888,-41.30243481136858,0 174.8254478350282,-41.3024131860584,0 174.8256515990943,-41.30231159739196,0 174.8259041458368,-41.30203826352954,0 174.8261486459523,-41.30170374177396,0 174.826248139143,-41.30162226967514,0 174.8264827486128,-41.30120610818267,0 174.826589114964,-41.30108297802508,0 174.8265872709453,-41.30100972019136,0 174.8265356384218,-41.30091659724712,0 174.8266344610602,-41.30080285482109,0 174.8265940602869,-41.30076815374196,0 174.8265827447176,-41.30067871883512,0 174.826610321179,-41.30054938606918,0 174.8267509695143,-41.30037386901677,0 174.826736971736,-41.30028367973864,0 174.826583918184,-41.30028761923313,0 174.8265703395009,-41.3002547621727,0 174.8266175296158,-41.30025727674365,0 174.8265277594328,-41.30021033808589,0 174.8264918010682,-41.30008343607187,0 174.82630899176,-41.29991789348423,0 174.826300945133,-41.29986089654267,0 174.8261779826134,-41.29974916577339,0 174.8261109273881,-41.29974472336471,0 174.8260562773794,-41.29970197565854,0 174.8261113464832,-41.29962134175003,0 174.8260147869587,-41.29943635314703,0 174.8258758988231,-41.29944481886923,0 174.8259444627911,-41.29935320466757,0 174.8259131144732,-41.29927651025355,0 174.8259444627911,-41.29925346001983,0 174.8258821852505,-41.29926477558911,0 174.8258721269667,-41.29934046417475,0 174.8257556185126,-41.29949058406055,0 174.825672134757,-41.29948505200446,0 174.8256216756999,-41.29937457852066,0 174.825595440343,-41.29937080666423,0 174.8256060853601,-41.29939880222082,0 174.825568953529,-41.29935999400914,0 174.8255987092853,-41.2993065174669,0 174.8257473204285,-41.29924021661282,0 174.8257524333894,-41.29916997626424,0 174.8256875574589,-41.2991233728826,0 174.825748745352,-41.29912228323519,0 174.8257626593113,-41.29909160546958,0 174.8257707059383,-41.29896235652268,0 174.8258087597787,-41.29893628880382,0 174.8257611505687,-41.29891340620816,0 174.8257691133767,-41.29886923357844,0 174.8258277028799,-41.29875096492469,0 174.8260188940912,-41.29880712367594,0 174.8260521702468,-41.29877384752035,0 174.8261906392872,-41.2989251408726,0 174.8262434452772,-41.29903569817543,0 174.8264487180859,-41.29912043921649,0 174.8264469578862,-41.29918338730931,0 174.8265530727804,-41.29926268011332,0 174.8266507219523,-41.29927223548293,0 174.8266195412725,-41.29927726462483,0 174.8266346286982,-41.29919755272567,0 174.8266088124365,-41.29910887219012,0 174.8266435135156,-41.29911733791232,0 174.8266968224198,-41.29922521300614,0 174.8267125803977,-41.29918967373669,0 174.8266654741019,-41.2991289049387,0 174.8267136700451,-41.29913636483252,0 174.8268875107169,-41.29939276725054,0 174.8270371276885,-41.29944272339344,0 174.827125556767,-41.29951832816005,0 174.8271886724979,-41.29954179748893,0 174.827469130978,-41.29951623268425,0 174.8275950271636,-41.29941296763718,0 174.8276000563055,-41.2993651907891,0 174.827527385205,-41.29930626600981,0 174.8275765869766,-41.29920601844788,0 174.8275640979409,-41.29915874451399,0 174.8274918459356,-41.29921121522784,0 174.827524535358,-41.29923678003252,0 174.8275045864284,-41.29932185634971,0 174.827463934198,-41.29932822659612,0 174.827490337193,-41.29914323799312,0 174.8273972142488,-41.29899814724922,0 174.8274224437773,-41.29892899654806,0 174.8274067696184,-41.29885867238045,0 174.8274972103536,-41.29869497381151,0 174.8274114634842,-41.29856530576944,0 174.8274221923202,-41.29852809011936,0 174.8273360263556,-41.29844712093472,0 174.8273537121713,-41.29839699715376,0 174.8273206874728,-41.29826900549233,0 174.8274920973927,-41.29806255921721,0 174.8274672869593,-41.29799173213542,0 174.8275179974735,-41.29791394807398,0 174.8276522755623,-41.29782820120454,0 174.8276533652097,-41.29774848930538,0 174.8276125453413,-41.29767154343426,0 174.8277327418327,-41.29761102609336,0 174.8278858792037,-41.29759652540088,0 174.8279109410942,-41.29766684956849,0 174.8278888128698,-41.29757104441524,0 174.827929046005,-41.29744087345898,0 174.8278403654695,-41.29738689400256,0 174.8278624098748,-41.29734707996249,0 174.827828463167,-41.2973518576473,0 174.8278292175382,-41.29731933586299,0 174.8277285508811,-41.29726393148303,0 174.8276984598488,-41.29732612520456,0 174.8276844620705,-41.29729896783829,0 174.8276579752564,-41.29731807857752,0 174.8275407124311,-41.29761219955981,0 174.8274698015302,-41.2975883949548,0 174.8273764271289,-41.29737046547234,0 174.8273524548858,-41.29738370887935,0 174.8273806180805,-41.29739427007735,0 174.8273830488324,-41.29748990759254,0 174.8273312486708,-41.29750273190439,0 174.8272784426808,-41.29746886901557,0 174.8273512814194,-41.29718069918454,0 174.8274528700858,-41.29705974832177,0 174.8274226114154,-41.29696545191109,0 174.8274655267596,-41.29692060872912,0 174.8274578154087,-41.29675129428506,0 174.8274071048945,-41.29666940309107,0 174.8273463360965,-41.29677535034716,0 174.8273529578,-41.2968473508954,0 174.827429484576,-41.29690409637988,0 174.8274237848818,-41.29694868810475,0 174.8271954618394,-41.29717835225165,0 174.8271534685045,-41.29735009744763,0 174.8270650394261,-41.29752586595714,0 174.8270088806748,-41.29796960391104,0 174.8269095551223,-41.29812173545361,0 174.8269081301987,-41.29799181595445,0 174.826874434948,-41.29798251204193,0 174.8268611077219,-41.29789768718183,0 174.8266599420458,-41.29777036607265,0 174.8266373947263,-41.29765880294144,0 174.8264990933239,-41.29761387594044,0 174.8263323772699,-41.29763005301356,0 174.8262530006468,-41.29747322760522,0 174.8263626359403,-41.29747674800456,0 174.8262809962034,-41.29746107384562,0 174.8262628912926,-41.29740189760923,0 174.826137246564,-41.29741815850139,0 174.8262664116919,-41.29738253541291,0 174.8263730295002,-41.29725596867502,0 174.8263346403837,-41.29707693122327,0 174.8263532482088,-41.29677778109908,0 174.8264678288251,-41.29628844559193,0 174.8264050483704,-41.29610639065504,0 174.8263967502862,-41.29581118002534,0 174.8264783062041,-41.29565686918795,0 174.8265715129673,-41.29556600935757,0 174.8266199603677,-41.29532846622169,0 174.8267234768718,-41.29526040516794,0 174.8267004266381,-41.29505513235927,0 174.8267915379256,-41.29445289261639,0 174.8271638620645,-41.29423739388585,0 174.8272330127656,-41.29412205889821,0 174.8271346930414,-41.29409498535097,0 174.8270787857473,-41.29414024762809,0 174.8270898498595,-41.29407336004078,0 174.8269859980792,-41.29392927512527,0 174.8267444316298,-41.2937721144408,0 174.8267129994929,-41.29372173920274,0 174.8266426753253,-41.29370522685349,0 174.8266500514001,-41.29360590130091,0 174.8265850078315,-41.29348319023848,0 174.8268582578748,-41.29317741841078,0 174.8269000835717,-41.29305085167289,0 174.826737223193,-41.29281900823116,0 174.8267783783376,-41.2926116399467,0 174.8270393069834,-41.29238465800881,0 174.8270725831389,-41.29232036881149,0 174.8270520474762,-41.29229153506458,0 174.8271159175783,-41.29224015399814,0 174.8271226231009,-41.29195072688162,0 174.8270963877439,-41.29187671467662,0 174.8271488584578,-41.29159055650234,0 174.8271007463336,-41.29147639498115,0 174.8271188512444,-41.29134899005294,0 174.8268699925393,-41.29084196873009,0 174.8269057832658,-41.29064147360623,0 174.8272278159857,-41.29028214141726,0 174.8272639419883,-41.29015507176518,0 174.8272216133773,-41.28988911397755,0 174.8272527102381,-41.28989933989942,0 174.8271828051656,-41.2898017745465,0 174.8271499481052,-41.28957370296121,0 174.8270623572171,-41.28948208875954,0 174.8269704077393,-41.28945677541196,0 174.8269313480705,-41.28951938822865,0 174.826866639778,-41.28946775570512,0 174.8268981557339,-41.28931470215321,0 174.8269238043576,-41.28930321894586,0 174.8269025981426,-41.28928779624403,0 174.8269595112652,-41.28921219147742,0 174.8269726708531,-41.28913541324437,0 174.8269452620298,-41.2888627499342,0 174.8270771093667,-41.28867474384606,0 174.8270999081433,-41.28868455067277,0 174.826972251758,-41.28886174410582,0 174.8270079586655,-41.28919458948076,0 174.8269570805132,-41.28927488811314,0 174.8269725870341,-41.28932476043701,0 174.8269324377179,-41.28934923559427,0 174.826951045543,-41.28939407877624,0 174.8269165959209,-41.28948661498725,0 174.8269461002201,-41.28953355364501,0 174.8270838148892,-41.28954017534852,0 174.8271914385259,-41.28963095135987,0 174.8272708151489,-41.28963774070144,0 174.8272767663002,-41.28970881924033,0 174.8272174224257,-41.28973052836955,0 174.8273120541126,-41.28998751752079,0 174.8273089528084,-41.29012179560959,0 174.8272362817079,-41.29034701734781,0 174.8270058631897,-41.29058858379722,0 174.8269386403263,-41.29083660431206,0 174.8269886802882,-41.29100994206965,0 174.8272147402167,-41.29129056818783,0 174.827268216759,-41.29168560728431,0 174.827170651406,-41.29198769107461,0 174.8271931987256,-41.29214292392135,0 174.8271664604545,-41.29224929027259,0 174.8269661329687,-41.29247174598277,0 174.8269026819617,-41.2926893401891,0 174.8269051965326,-41.29279067739844,0 174.8269553203136,-41.29286980256438,0 174.8269642051309,-41.29295982420444,0 174.8270243033767,-41.29300022497773,0 174.8270434979349,-41.29307331517339,0 174.8270290810615,-41.29323843866587,0 174.8267507180572,-41.29343792796135,0 174.8267122451216,-41.29351596347988,0 174.826734457165,-41.29362735897303,0 174.826694894582,-41.29367069341242,0 174.8268222156912,-41.29373003728688,0 174.8271587491035,-41.29411870613694,0 174.8270842339844,-41.29425809718668,0 174.8267981596291,-41.29440377466381,0 174.8266855906695,-41.29449765197933,0 174.8266199603677,-41.29489487037063,0 174.8265348002315,-41.29518622532487,0 174.8263005260378,-41.29566960968077,0 174.8262041341513,-41.29599935375154,0 174.8260275274515,-41.29629649221897,0 174.8259385116398,-41.29637008532882,0 174.8257899004966,-41.29680703394115,0 174.8255122080445,-41.29723652265966,0 174.8254019860178,-41.29728379659355,0 174.825362758711,-41.29722730256617,0 174.8253934364766,-41.29720668308437,0 174.8254676163197,-41.29737415350974,0 174.8254656046629,-41.29744313657284,0 
		</coordinates>
	</LineString>
	<atom:link rel="app" href="https://www.google.com/earth/about/versions/#earth-pro" title="Google Earth Pro 7.3.7.1155"></atom:link>
</Placemark>
</kml>
