<?xml version="1.0" encoding="UTF-8"?>
<kml xmlns="http://www.opengis.net/kml/2.2" xmlns:gx="http://www.google.com/kml/ext/2.2" xmlns:kml="http://www.opengis.net/kml/2.2" xmlns:atom="http://www.w3.org/2005/Atom">
<Placemark>
	<name>track</name>
	<Style>
		<LineStyle>
			<color>ff0000ff</color>
			<width>4</width>
		</LineStyle>
	</Style>
	<MultiGeometry>
		<LineString>
			<coordinates>
				174.7735084500164,-36.8494707159698,32.98 174.7734693903476,-36.8494828697294,32.98 174.7733254730701,-36.84956677258015,33.26 174.77320603095,-36.84965411201119,30.45 174.7731409035623,-36.84969367459416,33.45 174.7729783784598,-36.8498074170202,33.93 174.77289958857,-36.84985787607729,35.1 174.7728939726949,-36.84991579502821,35.61 174.7728832438588,-36.84994412586093,35.55 174.7729238960892,-36.84995837509632,36.01 174.7729646321386,-36.8499696906656,35.84 174.7729348763824,-36.84996642172337,35.8 174.7728324495256,-36.84999668039382,36.38 174.77274636738,-36.85002216137946,37.99 174.7727513127029,-36.85009466484189,38.22 174.7727086488158,-36.85015962459147,37.91 174.772812249139,-36.85032248497009,37.85 174.7728641331196,-36.85036699287593,37.64 174.7728686593473,-36.85038853436708,37.61 174.772875867784,-36.85040328651667,37.59 174.7728834953159,-36.85041753575206,36.54 174.772928589955,-36.85045072808862,35.25 174.7730445116758,-36.85053245164454,36.49 174.7731412388384,-36.85061233118176,34.85 174.7731910273433,-36.85070612467825,33.07 174.7732428275049,-36.85077418573201,31.89 174.7733350284398,-36.85099697671831,29.92 174.773369980976,-36.85104441829026,28.81 174.7733759321272,-36.85106352902949,28.63 174.7733760159463,-36.8510714918375,29.29 174.7733819670975,-36.85109278187156,29.27 174.7733856551349,-36.85110543854535,29.21 174.7733894269913,-36.85111650265753,29.14 174.7733951266855,-36.85112781822681,29.1 174.7734022513032,-36.85113997198641,29.04 174.7734379582107,-36.85127902776003,27.88 174.7734463401139,-36.8514359369874,24.56 174.7734369523823,-36.85152612626553,24.1 174.7734346054494,-36.85154515318573,23.97 174.7734232060611,-36.85158915817738,23.95 174.7734200209379,-36.85160365886986,23.91 174.7734178416431,-36.85161832720041,23.86 174.7734155785292,-36.85163341462612,23.83 174.773412225768,-36.85164783149958,23.76 174.7734087891877,-36.85166224837303,23.69 174.7734035085887,-36.85182058252394,21.87 174.7734292410314,-36.85192569158971,20.36 174.7734959609807,-36.85197623446584,18.67 174.773499397561,-36.85198905877769,18.67 174.7735055163503,-36.85200188308954,18.43 174.7735112998635,-36.85201512649655,18.25 174.7735138982534,-36.85202870517969,17.92 174.7735150717199,-36.85204211622477,17.81 174.7735156584531,-36.85205586254597,17.75 174.7736009862274,-36.85217496939003,16.7 174.7736653592438,-36.85222299769521,15.47 174.773666113615,-36.85222391970456,14.34 174.7736677899957,-36.85222526080906,13.72 174.7736679576337,-36.85222358442843,14.26 174.7736673709005,-36.85222517699003,14.77 174.7736517805606,-36.85223498381674,15.09 174.7736386209726,-36.85224370099604,15.14 174.773486237973,-36.85236389748752,15.19 174.7734324261546,-36.8524011131376,13.46 174.7734323423356,-36.85240086168051,14.65 174.7734294924885,-36.85240220278502,15.33 174.7734132315964,-36.85242416337132,14.42 174.7734108008444,-36.85244050808251,14.44 174.7734105493873,-36.85245408676565,14.43 174.7734058555216,-36.8524669110775,14.33 174.773396383971,-36.85247797518969,14.21 174.7733869962394,-36.8524891231209,14.11 174.7733795363456,-36.85249934904277,14.08 174.7732429113239,-36.85265575535595,13.01 174.7730644606054,-36.85281031765044,14.63 174.7728876862675,-36.85291324742138,14.85 174.772677719593,-36.85298382304609,15.54 174.7726013604552,-36.85300461016595,15.63 174.7725845128298,-36.85300955548882,15.61 174.7725675813854,-36.85301248915493,15.51 174.772439757362,-36.85305582359433,16.03 174.7724162042141,-36.85306387022138,18.69 174.7724014520645,-36.85306906700134,18.61 174.7723856940866,-36.85307510197163,18.44 174.7723701037467,-36.85308147221804,18.27 174.7723548486829,-36.85308834537864,18.12 174.7723391745239,-36.85309664346278,17.83 174.772323500365,-36.85310318134725,17.71 174.77230749093,-36.85310737229884,17.65 174.77205645293,-36.85319186188281,18.57 174.7719092667103,-36.85326000675559,19.41 174.7718191612512,-36.85337802395225,21.71 174.7717688698322,-36.85343351215124,22.51 174.7717613261193,-36.85344088822603,22.56 174.7717547882348,-36.8534529581666,22.6 174.7717496752739,-36.8534667044878,22.69 174.7717443946749,-36.85348053462803,22.78 174.7717385273427,-36.85349327512085,22.86 174.7716879006475,-36.85353736393154,22.9 174.7716777585447,-36.85355261899531,22.9 174.7716708015651,-36.85356443747878,22.91 174.7716624196619,-36.85357734560966,23.09 174.7716520261019,-36.8535893317312,23.24 174.7716402076185,-36.8535996414721,23.39 174.7716034110636,-36.85362428426743,23.99 174.7715920116752,-36.85363124124706,24.08 174.7715806122869,-36.85364079661667,24.18 174.7715690452605,-36.8536516930908,24.3 174.7714435681701,-36.85373081825674,24.47 174.7713119722903,-36.85378815047443,24.94 174.7712966334075,-36.85379569418728,25.08 174.771279618144,-36.85380198061466,25.15 174.771245252341,-36.85381656512618,25.4 174.7711605113,-36.8538552056998,26.84 174.7711103037,-36.85388814657927,28.39 174.7710586711764,-36.85392041690648,28.71 174.7710430808365,-36.85392829589546,28.73 174.7710326034576,-36.85394338332117,28.86 174.7710215393454,-36.85395335778594,28.95 174.7710096370429,-36.85396308079362,28.95 174.7709943819791,-36.85396442189813,29.09 174.7709769476205,-36.85396961867809,29.19 174.7709348704666,-36.85401027090847,29.41 174.7709534782916,-36.85409928672016,29.01000000000001 174.7709609381855,-36.85419928282499,28.54 174.7709666378796,-36.85422702692449,28.46 174.7709721699357,-36.8542473949492,28.33 174.7709760256112,-36.85426248237491,28.17 174.7709788754582,-36.85427723452449,28.04 174.7709810547531,-36.85438611544669,27.65 174.7709945496172,-36.85451771132648,27.1 174.7709989920259,-36.85461904853582,26.46 174.7710005845875,-36.85463329777122,26.4 174.7710395604372,-36.85475433245301,25.93 174.771078787744,-36.85482691973448,24.94 174.7710862476379,-36.85484100133181,24.84 174.7710942104459,-36.85485206544399,24.62 174.7711428254843,-36.85490269213915,23.68 174.7712537180632,-36.8549535702914,23.73 174.7712628543377,-36.85497611761093,23.45 174.7712523769587,-36.8550798855722,22.84 174.7712382953614,-36.85509262606502,22.32 174.7712465096265,-36.8551330268383,22.94 174.7713709808886,-36.85518382117152,22.5 174.7716634254903,-36.85521868988872,21.71 174.7717114537954,-36.85523562133312,21.67 174.7717073466629,-36.85524023137987,19.82 174.7717053350061,-36.85524165630341,19.1 174.7716998867691,-36.85523780062795,19.19 174.7716980427504,-36.85523805208504,20.22 174.7716953605413,-36.85523981228471,18.03 174.7716924268752,-36.85523813590407,21.27 174.7716969531029,-36.85524836182594,20.3 174.7716995514929,-36.85525263659656,20.34 174.7717350907624,-36.85525129549205,20.35 174.7717327438295,-36.85524970293045,20.06 174.7717313189059,-36.85525003820658,19.93 174.7717319894582,-36.85524928383529,19.11 174.7717332467437,-36.85524961911142,19.67 174.7717147227377,-36.85525163076818,19.68 174.7717006411403,-36.85525632463396,19.78 174.7717195004225,-36.85526110231876,19.89 174.7717318218201,-36.85526646673679,20.07 174.7717435564846,-36.85527367517352,20.18 174.7717533633113,-36.85528239235282,20.26 174.7717607393861,-36.85529286973178,20.33 174.7717681992799,-36.85530292801559,20.34 174.7717759944499,-36.85531198047101,20.35 174.7718035709113,-36.85534123331308,20.41 174.7718175686896,-36.85534777119756,20.48 174.7718304768205,-36.85535481199622,20.59 174.7718433849514,-36.85536311008036,20.77 174.7719643358141,-36.8554683867842,22.06 174.7720445506275,-36.85554684139788,21.58 174.7720957640558,-36.85564088635147,21.56 174.7721395175904,-36.85570517554879,21.56 174.7722079139203,-36.85581447556615,26.85 174.7722157929093,-36.85582998208702,27.87 174.7722181398422,-36.85583291575313,29.28 174.7722418606281,-36.85587876476347,29.46 174.7722582053393,-36.85590701177716,29.92 174.7722487337887,-36.85591598041356,30.39 174.772246722132,-36.8559086881578,30.52 174.7722514159977,-36.85590986162424,30.54 174.7722478955984,-36.85591204091907,29.92 174.7722469735891,-36.85591036453843,30.59 174.7722379211336,-36.85590508393943,30.53 174.7722398489714,-36.85590810142457,30.4 174.7722542658448,-36.85594439506531,30.24 174.7722834348679,-36.85600524768233,31.52 174.7722823452204,-36.85598487965763,31.47 174.7722762264311,-36.85598823241889,30.8 174.7722872067243,-36.85599208809435,29.8 174.7723016235977,-36.85599870979786,32.54 174.7723202314228,-36.85604355297983,31.76 174.7723219916224,-36.85611840337515,32.73 174.7723583690822,-36.85618436895311,34.2 174.7723685111851,-36.85617699287832,35.37 174.7724174614996,-36.8561502546072,35.11 174.7725434415042,-36.85621596872807,35.61 174.7725967504084,-36.85624890960753,34.72 174.7726554237306,-36.85627321712673,38.03 174.7726809885353,-36.85628813691437,38.13 174.7726752050221,-36.85628931038082,37.9 174.7726814076304,-36.8562882207334,37.98 174.7727683279663,-36.85632459819317,38.33 174.7727715969086,-36.85632501728833,38.45 174.7728010173887,-36.85632912442088,38.13 174.7727976646274,-36.85633214190602,38.33 174.772799089551,-36.8563315551728,38.54 174.7728053759784,-36.85633457265794,38.32 174.7728243190795,-36.85634496621788,38.28 174.772902270779,-36.85639291070402,38.09 174.7729126643389,-36.85640841722488,37.94 174.7729628719389,-36.85648997314274,36.81 174.7730930428952,-36.8565717805177,35.82 174.7731706593186,-36.85661930590868,36.1 174.773171748966,-36.85661846771836,36.29 174.7731749340892,-36.85661855153739,36.52 174.7731777001172,-36.85662902891636,36.78 174.7731768619269,-36.85662936419249,36.52 174.7731766104698,-36.85663078911602,36.4 174.773174347356,-36.85662911273539,36.54 174.7731668036431,-36.85660924762487,36.2 174.7731541469693,-36.85661050491035,33.02 174.7731571644545,-36.85660949908197,30.2 174.7731564100832,-36.85660916380584,33.6 174.7731553204358,-36.85661243274808,39 174.7731592599303,-36.85661427676678,35.92 174.773156074807,-36.85660698451102,36.16 174.7731568291783,-36.85660463757813,36.44 174.7731695696712,-36.85661545023322,36.02 174.7731661330909,-36.85660807415843,35.57 174.7731693182141,-36.85660690069199,36.4 174.7731645405293,-36.8566079903394,36.5 174.7731683123857,-36.85660933144391,35.98 174.7731911949813,-36.85663950629532,36.41 174.7731892671436,-36.85666213743389,35.96 174.7731880936772,-36.85665803030133,36.04 174.7731873393059,-36.85665576718748,36.37 174.7732036840171,-36.8566476367414,36.7 174.7732083778828,-36.85664411634207,36.51 174.7732045222074,-36.8566460441798,36.66 174.7732080426067,-36.85664562508464,36.62 174.7732004150748,-36.85663338750601,36.8 174.7732044383883,-36.85664093121886,36.71 174.7732567414641,-36.85672399587929,37.14 174.7732846532017,-36.85673153959215,37.24 174.7733132354915,-36.85681426897645,37.78 174.7733292449266,-36.85684218071401,38.47 174.7733265627176,-36.85680680908263,38.48 174.773333100602,-36.85676070861518,38.22 174.7733448352665,-36.85676724649966,38.09 174.7733222879469,-36.85675534419715,38.29 174.7733325138688,-36.85676037333906,37.88 174.7733264788985,-36.85686347074807,38.36 174.7734299115837,-36.85693999752402,39.03 174.7734263073653,-36.85695533640683,38.89 174.7733906842768,-36.85694335028529,39.09 174.7733475174755,-36.85692574828863,39.41 174.773343494162,-36.85692692175508,39.04 174.773343494162,-36.85693044215441,39.1 174.7733440808952,-36.85692977160215,39.59 174.7733281552792,-36.85692532919347,39.04 174.7733086254448,-36.85684922151268,38.07 174.7733260598034,-36.85680999420583,38.29 174.7733312565833,-36.85681820847094,38.33 174.7733239643276,-36.85680169612169,38.18 174.7733209468424,-36.85680035501719,37.3 174.7733098827302,-36.85683027841151,37.95 174.7733079548925,-36.85683958232403,38.42 174.7733933664858,-36.8568894546479,38.25 174.7733891755342,-36.85694494284689,39.09 174.7733807936311,-36.85695248655975,38.67 174.7733838949353,-36.85694829560816,38.72 174.7733564861119,-36.85694159008563,38.98 174.7733140736818,-36.85683815740049,38.8 174.7732724156231,-36.85676582157612,37.73 174.7732734214514,-36.85676733031869,37.38 174.7732773609459,-36.85677655041218,36.99 174.7733046859503,-36.85679147019982,38.03 174.773290771991,-36.85680999420583,37.46 174.7732897661626,-36.85679817572236,37.72 174.7732823900878,-36.85684586875141,37.55 174.773364616558,-36.85691962949932,38.29 174.7733840625733,-36.85695600695908,38.99 174.7733982279897,-36.85696388594806,39.84 174.7734247148037,-36.85699439607561,40.2 174.7734197694808,-36.85708751901984,41.36 174.7734585776925,-36.85723017901182,43.59 174.7734845615923,-36.85725398361683,43.93 174.7734910994768,-36.85726856812835,44.04 174.7734910156578,-36.85727057978511,44.4 174.7734934464097,-36.85728197917342,44.25 174.7735039237887,-36.85727544128895,44.91 174.773504761979,-36.85727351345122,44.4 174.77350467816,-36.857272926718,44.43 174.7735192626715,-36.85727552510798,44.61 174.7736136429012,-36.85736864805222,45.12 174.7736717294902,-36.85740737244487,46.23 174.7737148962915,-36.85743670910597,46.62 174.7737979609519,-36.85754584148526,48.25 174.7738715540618,-36.85765723697841,49.8 174.7738733980805,-36.85778581537306,50.01 174.7738781757653,-36.85797097161412,51.99 174.7740223444998,-36.85810097493231,54.39 174.773993678391,-36.85823039151728,55.57999999999999 174.7739373520017,-36.85837908647954,56.7 174.7739262878895,-36.85849425382912,57.96 174.7738923411816,-36.85850808396935,57.93999999999999 174.7738942690194,-36.85851763933897,58.25999999999999 174.7738955263048,-36.85850464738905,58.35 174.773856298998,-36.85857161879539,58.02000000000001 174.7738122940063,-36.85866910032928,60.18 174.7738658543676,-36.85871469788253,62.41 174.7738716378808,-36.85868829488754,61.4 174.7738735657185,-36.85866717249155,61.52 174.7738427203149,-36.85866767540574,61.66 174.7738578915596,-36.8587595410645,63.84999999999999 174.7738995496184,-36.85882139950991,65.04000000000001 174.7738605737686,-36.85886037535965,65.83 174.7738355118781,-36.85888107866049,66.06999999999999 174.7739221807569,-36.85898006893694,65.73999999999999 174.7739307302982,-36.85901787132025,66.92 174.773935675621,-36.85903002507985,66.84999999999999 174.7739220969379,-36.85908693820238,66.15000000000001 174.7739014774561,-36.85908911749721,66.03 174.7738949395716,-36.85907310806215,66.05 174.7738767508417,-36.85906204394996,66.05 174.7738628368825,-36.85906254686415,66.01000000000001 174.7738199215382,-36.85907210223377,65.40000000000001 174.7738046664745,-36.85907428152859,65.42 174.7737895790488,-36.85907687991858,65.54000000000001 174.7737758327276,-36.85908291488886,65.86 174.7737609967589,-36.85908861458302,65.86 174.7737470827997,-36.85909473337233,65.98999999999999 174.7737520281225,-36.85910378582776,66.06999999999999 174.7737381141633,-36.85911040753126,66.04000000000001 174.773724284023,-36.85911434702575,65.97 174.7736604139209,-36.85915424488485,65.89 174.7736357711256,-36.85917436145246,66.42 174.7736086137593,-36.85919196344912,66.5 174.7735962085426,-36.8592014349997,66.48999999999999 174.7735882457346,-36.85920973308384,66.48 174.7735348530114,-36.85925440862775,66.47 174.7735329251736,-36.8592532351613,64.47 174.7735265549272,-36.85926237143576,64.55 174.773515490815,-36.8592690769583,65.40000000000001 174.7735036723316,-36.85927418991923,66.28 174.7734923567623,-36.85928139835596,66.81 174.7734838910401,-36.85929019935429,67.08 174.7734794486314,-36.859300006181,67.22 174.7734748385847,-36.85930972918868,67.15000000000001 174.7734714020044,-36.8593309354037,66.09 174.7734717372805,-36.85933143831789,62.91 174.773470396176,-36.85933210887015,59.88 174.7734712343663,-36.85933261178434,62.27 174.7734750062227,-36.85934593901038,65.79000000000001 174.7734670434147,-36.85936412774026,69.88 174.7734340187162,-36.85938776470721,67.76000000000001 174.7734346892685,-36.85939103364944,67.09999999999999 174.7734327614307,-36.85940377414227,66.23999999999999 174.7734323423356,-36.85940561816096,66.29000000000001 174.7734341863543,-36.85940670780838,66.39 174.7734468430281,-36.85940402559936,66.38 174.7734346892685,-36.85940654017031,66.3 174.7734569851309,-36.85946127399802,66.11 174.7734596673399,-36.85947175137699,66.06999999999999 174.7735027503222,-36.85951768420637,66.02 174.7735403012484,-36.85951584018767,66.59999999999999 174.7735448274761,-36.85951533727348,66.78 174.7735297400504,-36.85951676219702,67.14 174.7735211905092,-36.85951567254961,66.59999999999999 174.7734882496297,-36.85952489264309,66.66 174.7734797839075,-36.85953411273658,66.69 174.7734629362822,-36.85954777523875,66.59999999999999 174.7733925282955,-36.85957795009017,64.89 174.7733797878027,-36.85958566144109,64.84 174.7732958849519,-36.85962891206145,64.81 174.7732912749052,-36.85965179465711,64.8 174.7732797916979,-36.85965506359935,65.05 174.7732665482908,-36.85965799726546,65.22 174.7732545621693,-36.85966218821704,65.86 174.7732365410775,-36.85967233031988,66.67 174.7732098866254,-36.85967593453825,66.89 174.773192955181,-36.85967677272856,66.89 174.7731684800237,-36.85967224650085,66.89 174.7731510456651,-36.85967023484409,66.63 174.7731326054782,-36.85967048630118,66.45 174.7731174342334,-36.85967526398599,66.29000000000001 174.7730465233326,-36.85971365310252,65.98 174.7730368841439,-36.85972044244409,66.47 174.7730174381286,-36.8597315903753,66.43000000000001 174.7730055358261,-36.859738714993,66.43000000000001 174.7729937173426,-36.85974692925811,66.43000000000001 174.7729821503162,-36.85975673608482,66.41 174.7729711700231,-36.85976654291153,66.44 174.7729589324445,-36.85977735556662,66.41 174.7728742752224,-36.85986955650151,66.34999999999999 174.7728714253753,-36.85987818986177,66.12 174.7728695813566,-36.85987626202404,66.73999999999999 174.7728662285954,-36.85987768694758,66.81999999999999 174.7728509735316,-36.85988397337496,66.79000000000001 174.7728443518281,-36.85989352874458,66.84999999999999 174.7728140931576,-36.85992420651019,66.95 174.7727221436799,-36.85997173190117,66.86 174.7726040426642,-36.85998631641269,66.93000000000001 174.7725889552385,-36.85998254455626,66.95 174.7725742869079,-36.85997583903372,66.95 174.7725628037006,-36.85996762476861,66.94 174.7725492250174,-36.85996368527412,66.93000000000001 174.7725159488618,-36.85996209271252,66.92 174.7724431101233,-36.85989637859166,66.84999999999999 174.7724333871156,-36.85988171026111,66.84 174.7724274359643,-36.85986855067313,66.84 174.7724219877273,-36.85985438525677,66.84 174.772418718785,-36.85983980074525,66.84 174.7724163718522,-36.85982521623373,66.87 174.7724172100425,-36.85981205664575,66.88 174.7724183835089,-36.85978531837463,66.81 174.772423999384,-36.85977391898632,66.76000000000001 174.772471440956,-36.85964819043875,66.34999999999999 174.7725794836879,-36.859535202384,66.63 174.7726235724986,-36.85950041748583,66.81 174.7726384922862,-36.85948734171689,66.40000000000001 174.7726550884545,-36.85946881771088,66.47 174.7727583535016,-36.85940964147449,66.51000000000001 174.7729087248445,-36.85935012996197,66.12 174.773058257997,-36.85931459069252,66.48999999999999 174.7730678133667,-36.85931132175028,66.48999999999999 174.7730822302401,-36.85930788516998,66.48999999999999 174.7730974014848,-36.85930528678,66.48999999999999 174.7731126565486,-36.85930126346648,66.47 174.7731277439743,-36.8592965696007,66.43000000000001 174.7732968069613,-36.85924770310521,65.64 174.7733942884952,-36.85921534895897,64.48999999999999 174.7735298238695,-36.85919162817299,65.15000000000001 174.7736149001867,-36.85912918299437,63.18 174.7737023234367,-36.85906472615898,64.44 174.7738009784371,-36.85904997400939,66.54000000000001 174.7738894913346,-36.8590151052922,66.03 174.7738890722394,-36.85896984301507,65.53 174.7739634197205,-36.85894419439137,65.47 174.7740485798568,-36.8588633928448,64.63 174.7740343306214,-36.85868075117469,63.91999999999999 174.7740441374481,-36.85864018276334,63.52 174.7740515973419,-36.85862249694765,63.36999999999999 174.7740666009486,-36.8586025480181,63.46 174.7741195745766,-36.85843608342111,62.91 174.7741446364671,-36.85830901376903,62.66999999999999 174.7741712071002,-36.8581812735647,62.36 174.7741692792624,-36.85816350392997,61.4 174.7741671837866,-36.85812184587121,63.34999999999999 174.7741456422955,-36.85798237100244,61.47 174.7741695307195,-36.85786577872932,60.71 174.7741988673806,-36.8577111326158,60.47 174.7742011304945,-36.85757584869862,59.45000000000001 174.7741867974401,-36.85754927806556,58.90000000000001 174.7741585504264,-36.85747317038476,58.77 174.7741529345512,-36.85746302828193,58.66 174.7741485759616,-36.85745380818844,58.53 174.7741437144578,-36.85744433663785,58.39 174.7741375118494,-36.85743302106857,58.28 174.7741292975843,-36.85741910710931,58.14999999999999 174.7740344982594,-36.85732522979379,57.5 174.7739184089005,-36.85723068192601,56.75999999999999 174.7738530300558,-36.85709682293236,56.18 174.7738606575876,-36.8569721840322,55.56 174.7739490028471,-36.85686204582453,55.25 174.7739966120571,-36.85683027841151,55.17 174.7740091849118,-36.8568218126893,55.07999999999999 174.7740216739476,-36.85681426897645,55.03 174.774038689211,-36.85680706053972,54.98 174.7740527708083,-36.85680203139782,54.98 174.7740663494915,-36.85679406858981,54.99 174.7740787547082,-36.85678442940116,54.94 174.7740874718875,-36.85677671805024,54.95 174.7740992065519,-36.85676808468997,54.99 174.7741554491222,-36.85675140470266,55.19 174.7741702850908,-36.85674562118948,55.2 174.774184031412,-36.85673967003822,55.21 174.7742027230561,-36.85673321597278,55.25 174.7742220852524,-36.85673028230667,55.3 174.7743484005332,-36.85671251267195,55.44 174.7745154518634,-36.85672885738313,55.59000000000001 174.7746369056404,-36.85671066865325,55.88 174.774662386626,-36.85669323429465,55.84000000000001 174.7746856044978,-36.85668510384858,55.64999999999999 174.7747042123228,-36.85668133199215,55.64 174.7747399192303,-36.85666398145258,55.57 174.7747519053519,-36.85665534809232,55.50999999999999 174.7747645620257,-36.85664721764624,55.45 174.7747751232237,-36.85663774609566,55.37 174.7747846785933,-36.85662592761219,55.31 174.774794569239,-36.85661276802421,55.21999999999999 174.7748555894941,-36.85654504224658,54.71999999999999 174.7748622950166,-36.85653322376311,54.68 174.7748672403395,-36.85652165673673,54.64999999999999 174.7748722694814,-36.85651000589132,54.6 174.7748756222427,-36.85649793595076,54.6 174.7748778015375,-36.85648276470602,54.59000000000001 174.7748998459429,-36.85636818408966,52.59 174.7749358043075,-36.856231642887,51.87 174.7750099841505,-36.85609032399952,51.03 174.7750143427402,-36.85607456602156,50.85999999999999 174.7750154323876,-36.85606014914811,50.71 174.7750213835388,-36.85604548081756,50.42 174.7750213835388,-36.85603332705796,50.42 174.7750155162066,-36.85595805756748,49.57 174.774987353012,-36.85588312335312,48.51 174.7749800607562,-36.85586786828935,47.53 174.7750210482627,-36.85583392158151,47.62 174.7750262450427,-36.85581925325096,47.69 174.7750282566994,-36.85580718331039,47.85 174.7750342078507,-36.85579603537917,48.3 174.7750399075449,-36.85570375062525,48.08 174.7750325314701,-36.85569268651307,48.02 174.7750260774046,-36.85568137094378,47.95 174.7750234790146,-36.85567064210773,47.88 174.7750141751021,-36.85561054386199,47.22999999999999 174.7750045359135,-36.8555701430887,46.03999999999999 174.7750042844564,-36.85557022690773,45.46 174.7750152647495,-36.85558841563761,45.64 174.7751004248857,-36.85563812032342,47.52 174.7752578370273,-36.85556050390005,47.26 174.7754387184978,-36.8555854819715,46.56 174.7754653729498,-36.85559109784663,46.46 174.7756527084857,-36.85567122884095,45.73 174.7757850587368,-36.85571925714612,45.62 174.7758303210139,-36.85572126880288,44.88 174.7758465819061,-36.85571799986064,44.64 174.7759549599141,-36.85566737316549,44.57 174.7759770043194,-36.85556226409972,43.77 174.7760090231895,-36.855539213866,43.33 174.7760218475014,-36.85553812421858,42.8 174.7761309798807,-36.8555373698473,41.68 174.7761485818774,-36.85553862713277,41.71 174.7762247733772,-36.85555363073945,40.73 174.7762548644096,-36.8555786088109,40.12 174.776263916865,-36.85558699071407,40.13 174.776274478063,-36.8555957917124,40.13 174.7762846201658,-36.85560710728168,40.11 174.7762926667929,-36.85561850667,40.05 174.7763779107481,-36.85569176450372,38.35 174.7765322215855,-36.85572470538318,36.62 174.7768517397344,-36.85570961795747,37.91 174.7769170347601,-36.85570240952075,38.16 174.7768894582987,-36.85573895461857,39.72 174.7768845967948,-36.85575127601624,39.87 174.7768407594413,-36.85581925325096,40.2 174.7767782304436,-36.85590583831072,41.58 174.7766765579581,-36.85604380443692,43.83 174.7765099257231,-36.85616165399551,46.31 174.7764214128256,-36.85619367286563,47.14 174.7763338219374,-36.85623541474342,47.79 174.7762931697071,-36.85625636950135,48.27 174.7762278746814,-36.85630121268332,49.63 174.7762075066566,-36.85630640946329,50.09 174.7762185707688,-36.85631034895778,50.28 174.7763112746179,-36.85635133646429,50.66 174.7764667589217,-36.85643205419183,50.69 174.7765811719,-36.8565059825778,51.58 174.7765883803368,-36.85651771724224,51.64999999999999 174.776660380885,-36.85657035559416,53.19 174.7767785657197,-36.85665719211102,54.88 174.7768731974065,-36.85680739581585,55.28 174.7769368998706,-36.85691602528095,56.34 174.7770148515701,-36.85704795643687,57.52000000000001 174.777112416923,-36.85720427893102,58.27000000000001 174.7771564219147,-36.85728818178177,58.89 174.7772143408656,-36.85739220120013,58.91 174.7772204596549,-36.85740100219846,58.91 174.7772268299013,-36.85741173103452,59.31 174.7772319428623,-36.85742480680346,60.29 174.7772360499948,-36.85743981041014,61.15 174.7772423364222,-36.85745137743652,61.59999999999999 174.7772476170212,-36.85746545903385,61.83000000000001 174.777252478525,-36.85747811570764,61.83000000000001 174.7772763669491,-36.8575647007674,61.36999999999999 174.7773072961718,-36.85767584480345,62.48999999999999 174.7773093078285,-36.85777550563216,63.81000000000001 174.7772219683975,-36.8578374478966,64.48999999999999 174.7772166877985,-36.85796736739576,65.55 174.777225907892,-36.85809351503849,66.25 174.7772560827434,-36.85815252363682,66.77 174.777260273695,-36.85815830715001,67.09 174.7772985789925,-36.85814422555268,66.91 174.7773066256195,-36.85814908705652,66.90000000000001 174.7772588487715,-36.85815772041678,66.92 174.7772324457765,-36.85816375538707,66.86 174.7772189509124,-36.85816844925284,66.81999999999999 174.7772052045912,-36.85817213729024,66.83 174.7770810686052,-36.85820776037872,67.05 174.7769758757204,-36.85824606567621,68.7 174.7769683320075,-36.85825545340776,68.7 174.7769663203508,-36.85831018723547,66 174.7769677452743,-36.85833583585918,65.63 174.776953747496,-36.85842594131827,65.56999999999999 174.7769291885197,-36.85854647308588,66.22 174.7769239079207,-36.85856918804348,69.08 174.7769265901297,-36.8585819285363,70.17 174.7769316192716,-36.85859114862978,70.83 174.7769419290125,-36.85861294157803,71.48 174.7769504785538,-36.85868125408888,71.76000000000001 174.7769756242633,-36.85869382694364,71.73999999999999 174.7769752051681,-36.85869407840073,71.94 174.776980150491,-36.85872416943312,72.23 174.7769682481885,-36.85873816721141,72.20999999999999 174.7769622132182,-36.858747638762,72.22 174.7769583575428,-36.85875669121742,72.25 174.7769159451127,-36.85882173478603,72.95999999999999 174.7768275998533,-36.85896841809154,73.47 174.776773955673,-36.85907545499504,73.95 174.7767630591989,-36.85910194180906,74.33 174.7767531685531,-36.85911200009286,74.39 174.7767433617264,-36.85912189073861,74.44 174.7767346445471,-36.85913203284144,74.45 174.7767273522913,-36.85914259403944,74.45999999999999 174.7767203114927,-36.85915214940906,74.48 174.7767118457705,-36.85916287824512,74.44 174.7767055593431,-36.85917410999537,74.40000000000001 174.776700027287,-36.85918383300304,74.33 174.7766929864883,-36.8591929692775,74.3 174.7766878735274,-36.85920302756131,74.3 174.7766752168536,-36.85926429927349,74.76000000000001 174.7766870353371,-36.85929514467716,76.08 174.7766914777458,-36.85931643471122,76.44 174.7766994405538,-36.85934912413359,76.66 174.7767017874867,-36.8593605235219,76.67 174.7766922321171,-36.85945364646614,76.45 174.77668418549,-36.85955297201872,76.56999999999999 174.7767089121044,-36.85955657623708,76.81 174.7767247539014,-36.85955657623708,76.81 174.7767410147935,-36.85955523513258,77 174.7767576947808,-36.85955414548516,77.45999999999999 174.7767746262252,-36.85955406166613,77.66 174.7767911385745,-36.85955481603742,77.86 174.7768077347428,-36.85955498367548,78.06 174.776824163273,-36.85955548658967,78.23999999999999 174.7768404241651,-36.85955456458032,78.45 174.7768571041524,-36.85955389402807,78.61 174.7768740355968,-36.85955414548516,78.72 174.7770645562559,-36.85955573804677,79.77 174.7772404924035,-36.85955598950386,80.25 174.7774054482579,-36.85955473221838,81.39 174.7775555681437,-36.85956386849284,82.42 174.7776346094906,-36.85957342386246,82.40000000000001 174.7776588331908,-36.85958683490753,82.22999999999999 174.7776719927788,-36.85958918184042,82.25 174.7776849009097,-36.85959102585912,82.25 174.7777432389557,-36.85960426926613,82.29000000000001 174.7777789458632,-36.85959999449551,82.48 174.7777893394232,-36.85958398506045,83.19 174.7777843941003,-36.85959722846746,82.8 174.7777688037604,-36.85959957540035,82.47 174.7778199333698,-36.85959756374359,82.51000000000001 174.7778441570699,-36.85959035530686,82.3 174.7778251301497,-36.85958960093558,82.11 174.7778151556849,-36.85958901420236,82.02 174.7778177540749,-36.8595936242491,82.01000000000001 174.7778249625117,-36.85959479771554,81.93000000000001 174.7778263036162,-36.85959513299167,81.62 174.7778128087521,-36.85957157984376,82.05 174.7778319194913,-36.85956554487348,81.98999999999999 174.7778295725584,-36.85956680215895,81.69 174.7778290696442,-36.85956814326346,81.58 174.7778289020061,-36.85956764034927,81.69 174.7778280638158,-36.85956864617765,81.65000000000001 174.7778269741684,-36.85956856235862,81.22 174.7778274770826,-36.85956814326346,81.29000000000001 174.7778279799968,-36.85956898145378,81.34999999999999 174.7778433188796,-36.85957568697631,81.98999999999999 174.7778297401965,-36.85958138667047,80.68000000000001 174.7778289858252,-36.85958155430853,80.15000000000001 174.777828482911,-36.8595817219466,80.17 174.7778303269297,-36.85958046466112,80.09999999999999 174.7778314165771,-36.85957912355661,80.70999999999999 174.7778315003961,-36.85957853682339,80.03 174.7778305783868,-36.85957912355661,79.97 174.7778300754726,-36.85958004556596,79.81999999999999 174.7778293211013,-36.85958046466112,79.88 174.7778290696442,-36.85958063229918,80.28 174.777828482911,-36.85958046466112,80.3 174.777828482911,-36.85958038084209,80.56999999999999 174.7778278123587,-36.85958079993725,80.31999999999999 174.7778278123587,-36.8595814704895,80.43000000000001 174.7778281476349,-36.85958188958466,80.59999999999999 174.7778281476349,-36.85958188958466,74.68000000000001 174.7778283152729,-36.85958180576563,74.68000000000001 174.7778289858252,-36.85958272777498,74.3 174.7778289858252,-36.85958381742239,73.98 174.7778298240155,-36.85958063229918,74.5 174.7778300754726,-36.85957761481404,74.59999999999999 174.7778342664242,-36.85957610607147,74.02 174.7778376191854,-36.859574848786,74.66 174.777833847329,-36.85957560315728,76.25 174.7778322547674,-36.8595780339092,76.11 174.7778474260122,-36.85955406166613,75.7 174.7778830491006,-36.85957434587181,75.22 174.7778957057744,-36.85957920737565,75.15000000000001 174.777910457924,-36.8595796264708,75.15000000000001 174.7779255453497,-36.8595764413476,75.16 174.7779402974993,-36.85957191511989,75.2 174.7780913393945,-36.85954945161939,75.65000000000001 174.7781014814973,-36.85954475775361,75.59999999999999 174.7781143058091,-36.85954065062106,75.55 174.7781286388636,-36.85953821986914,75.47 174.7781440615654,-36.85953704640269,75.36 174.7781596519053,-36.85953687876463,75.23999999999999 174.7781742364168,-36.85953796841204,75.09999999999999 174.7781889047474,-36.85954039916396,74.94 174.778312118724,-36.85952204279602,75.03 174.7783269546926,-36.85952187515795,75.03 174.7783520165831,-36.8595399800688,74.98999999999999 174.7783642541617,-36.85953444801271,75.14 174.7783697862178,-36.85954140499234,75.09999999999999 174.7783655114472,-36.85954274609685,74.91 174.7783610690385,-36.85954844579101,74.90000000000001 174.7783521004021,-36.85955833643675,74.90000000000001 174.7783417068422,-36.85956898145378,74.86 174.7783313132823,-36.85958096757531,74.83 174.778330726549,-36.85960502363741,74.72 174.7783437184989,-36.85960929840803,74.72 174.7783588059247,-36.85961801558733,74.86 174.7783212549984,-36.85961256735027,75.08 174.7783157229424,-36.85960217379034,75.11 174.7783085983247,-36.85959069058299,75.14 174.7782987076789,-36.8595798779279,75.15000000000001 174.7782860510051,-36.85957107692957,75.15000000000001 174.7782716341317,-36.85956420376897,75.14 174.7782563790679,-36.85955858789384,75.11 174.7782409563661,-36.85955406166613,75.09 174.7782257851213,-36.85954987071455,75.09 174.7782097756863,-36.85954702086747,75.08 174.7781922575086,-36.85954811051488,75.06999999999999 174.7781752422452,-36.85955112800002,75.06999999999999 174.7780544590205,-36.85958063229918,74.77 174.7780378628522,-36.85972102917731,75.06 174.7781230229884,-36.85980820097029,76.13 174.7782348375767,-36.8598957080394,76.77 174.7783046588302,-36.85995010659099,76.91 174.7782703768462,-36.85993493534625,77.09 174.7782781720161,-36.85993954539299,73.56 174.7782783396542,-36.85993828810751,75.89 174.7782783396542,-36.8599390424788,75.86 174.7782774176449,-36.8599408864975,76.03 174.7782780881971,-36.85994105413556,75.95 174.7782769985497,-36.8599408864975,76.33 174.7782889846712,-36.85992747545242,79.37 174.7782842908055,-36.85991247184575,80.05 174.7782210074365,-36.85989663004875,77.70999999999999 174.7782066743821,-36.85989269055426,77.41 174.7781916707754,-36.8598904274404,77.23 174.7781770024449,-36.85988690704107,77.14 174.7781611606479,-36.85988623648882,77.09 174.7781464084983,-36.85988950543106,77.20999999999999 174.7781322430819,-36.85989260673523,77.23999999999999 174.7781170718372,-36.85989310964942,77.26000000000001 174.7781013976783,-36.85989185236394,77.26000000000001 174.7778865695,-36.85987089760602,77.12 174.7778758406639,-36.85987659730017,77.19 174.7778678778559,-36.8598853982985,77.23999999999999 174.777844408527,-36.8598925229162,77.23 174.7776942886412,-36.85984374023974,77.40000000000001 174.7775961365551,-36.85972899198532,77.22 174.7776052728295,-36.85962304472923,76.40000000000001 174.7775815520436,-36.85956261120737,75.81 174.7775675542653,-36.85955615714192,75.7 174.7775517962873,-36.85955272056162,75.65000000000001 174.7775359544903,-36.85955087654293,75.63 174.7775195259601,-36.85954936780035,75.65000000000001 174.777355492115,-36.85953746549785,75.81 174.7770866844803,-36.85954031534493,74.02 174.7770406678319,-36.8595436681062,73.36 174.7770452778786,-36.85955221764743,71.87 174.7770360577852,-36.85954886488616,71.72 174.777022479102,-36.85954383574426,71.84 174.7770068887621,-36.85954065062106,72.03 174.7769901249558,-36.85953956097364,72.23999999999999 174.7769740317017,-36.85953930951655,72.43000000000001 174.7768002748489,-36.85954324901104,72.95999999999999 174.7766353189945,-36.85954148881137,72.45999999999999 174.7765090037137,-36.85950452461839,71.37 174.7763831913471,-36.85944274999201,71.26000000000001 174.7763318940997,-36.85940779745579,70.27 174.7762140445411,-36.859360774979,70.15000000000001 174.7761362604797,-36.85928927734494,69.29000000000001 174.7760026529431,-36.85918123461306,68.38 174.7759976238012,-36.85904544778168,67.47 174.7760580573231,-36.8589149415493,67.33 174.776110695675,-36.85876817442477,66.8 174.7761269565672,-36.85873741284013,66.23 174.7761250287294,-36.85874093323946,66.09999999999999 174.7761304769665,-36.85873221606016,66.15000000000001 174.7761357575655,-36.8587304558605,66.69 174.7761359252036,-36.85873037204146,66.73999999999999 174.7761495877057,-36.85869776643813,66.77 174.776179427281,-36.85861528851092,66.36 174.7761837020516,-36.85861185193062,66.20999999999999 174.7760729771107,-36.85858117416501,66.12 174.776057722047,-36.85857631266117,66.09 174.7760433889925,-36.85857069678605,66.09 174.7759081888944,-36.85852677561343,65.70999999999999 174.7758849710226,-36.85851948335767,65.53 174.7758692130446,-36.85852342285216,65.53 174.775706268847,-36.85860305093229,65.23 174.7755823004991,-36.85868946835399,65.25 174.7754829749465,-36.85877194628119,65.04000000000001 174.7754705697298,-36.85878468677402,65.33 174.7754408977926,-36.85880899429321,65.09 174.7754112258554,-36.85882651247084,64.81 174.775288598612,-36.85889499261975,65.34999999999999 174.775262363255,-36.85891745612025,64.78 174.7752541489899,-36.85891460627317,64.73999999999999 174.7752269916236,-36.85891552828252,64.73999999999999 174.7752124909312,-36.85891921631992,64.73999999999999 174.7750778775662,-36.85895341448486,64.28 174.7749330382794,-36.8589717708528,63.61 174.7748042922467,-36.85897462069988,62.18 174.7747905459255,-36.85897671617568,62.09 174.7746329661459,-36.8589860200882,61.91999999999999 174.7745916433632,-36.85898719355464,62.29999999999999 174.7745712753385,-36.85898811556399,62.59 174.7745349816978,-36.85899272561073,62.13000000000001 174.7745188046247,-36.85899339616299,61.97999999999999 174.7745007835329,-36.85899331234396,61.88000000000001 174.7744824271649,-36.85899347998202,61.79 174.7744653280824,-36.85899524018168,61.73999999999999 174.7744485642761,-36.8589979223907,61.68999999999999 174.774271287024,-36.85902893543243,61.03 174.7742285393178,-36.85905181802809,60.64 174.7742214147002,-36.85906355269253,60.54 174.7742194030434,-36.85907620936632,60.41 174.7742153797299,-36.85908786021173,60.25999999999999 174.7742091771215,-36.85910051688552,60.11999999999999 174.7742049023509,-36.85911317355931,60.00999999999999 174.7742033097893,-36.85912658460438,59.89 174.7742020525038,-36.85913882218301,59.86999999999999 174.7742012143135,-36.85915047302842,59.84 174.7742058243603,-36.85916187241673,59.82999999999999 174.7742145415395,-36.85917067341506,59.78 174.7742249350995,-36.85917779803276,59.75 174.7742007113993,-36.85918123461306,59.82 174.7741883061826,-36.85917352326214,59.85 174.7741755656898,-36.85916648246348,59.86999999999999 174.7741610649973,-36.85916103422642,59.86 174.7741456422955,-36.85915902256966,59.84 174.7741294652224,-36.8591638840735,59.75 174.7740774974227,-36.85915022157133,59.56 174.7740273736417,-36.85913035646081,59.81 174.7739801835269,-36.85905307531357,59.93999999999999 174.7739774174988,-36.85904016718268,59.93 174.7739590611309,-36.85895592905581,59.32 174.7739596478641,-36.85894913971424,59.29 174.7739496733993,-36.8589442782104,59.25 174.7739162296057,-36.85893162153661,59.29 174.7738847136497,-36.85887060128152,58.61999999999999 174.7738115396351,-36.85872500762343,55.67 174.7738432232291,-36.85858385637403,52.57999999999999 174.7739086020738,-36.85843625105917,50.21 174.7739650122821,-36.85820750892162,48.56 174.773972472176,-36.85818529687822,48.52 174.7739728912711,-36.85816626995802,48.48 174.7738989628851,-36.85802067629993,47.02999999999999 174.7738785110414,-36.85788908042014,44.26 174.7738771699369,-36.85769202187657,42.44 174.7738010622561,-36.857526646927,42.1 174.7736988868564,-36.85741525143385,40.28 174.7736019920558,-36.85729497112334,38.27 174.773504761979,-36.85718030668795,36.9 174.7734839748591,-36.85708332806826,35.58 174.7734525427222,-36.85700906440616,34.41 174.7734189312905,-36.8569859303534,32.18 174.7733429074287,-36.85688132420182,32.11 174.773261602968,-36.85671385377645,30.79 174.7731574159116,-36.85660740360618,29.97 174.7731336951256,-36.85656524263322,29.54 174.7731260675937,-36.85650371946394,29.09 174.773169234395,-36.85643792152405,28.62 174.7732318472117,-36.85644940473139,28.26 174.7732614353299,-36.85644269920886,27.24 174.7732877545059,-36.85642350465059,26.7 174.7732884250581,-36.85641914606094,25.92 174.7732820548117,-36.85642719268799,26.14 174.7732935380191,-36.85643021017313,26.33 174.7732983995229,-36.85643029399216,26.39 174.7733002435416,-36.85643079690635,26.68 174.7733561508358,-36.85637916438282,25.53 174.7734132315964,-36.85628402978182,23.15 174.7733772732317,-36.85617288574576,21.29 174.7733386326581,-36.85603173449636,19.32 174.7732494492084,-36.85588991269469,18.56 174.7731566615403,-36.85589225962758,19.1 174.7730699926615,-36.8558772560209,20.37 174.773031771183,-36.85585412196815,21.99 174.7730692382902,-36.85581975616515,21.98 174.7731932066381,-36.85585026629269,20.89 174.773327736184,-36.8559549562633,18.93 174.7734301630408,-36.85596233233809,17.82 174.773494116962,-36.85593785718083,18.3 174.7734907642007,-36.85592888854444,17.71 174.7734715696424,-36.85590483248234,17.44 174.773467797786,-36.85589376837015,17.2 174.773409711197,-36.85579209588468,16.92 174.7733761835843,-36.85574591159821,16.65 174.7733386326581,-36.85564373619854,15.95 174.7733336873353,-36.85558950528502,16.33 174.7733313404024,-36.85558606870472,15.92 174.7733418177813,-36.85557718388736,15.48 174.7733036801219,-36.85546050779521,14.89 174.7732999920845,-36.85531726107001,14.05 174.7733177617192,-36.85526814311743,13.56 174.7732931189239,-36.85525892302394,13.47 174.7732999082655,-36.85522187501192,13.15 174.773340979591,-36.85509287752211,13.1 174.7732720803469,-36.85493554919958,13.11 174.7732762712985,-36.85492272488773,13.5 174.7732419893146,-36.85490596108139,13.77 174.7732498683035,-36.85489296913147,14.88 174.7732188552618,-36.85487184673548,15.17 174.7731556557119,-36.85485047288239,15.58 174.7731659654528,-36.85485189780593,16.17 174.7731735929847,-36.85478693805635,15.64 174.7730989940464,-36.85474385507405,13.8 174.7729930467904,-36.85470454394817,13.25 174.7729185316712,-36.85468333773315,13.67 174.7728966549039,-36.8546755425632,13.74 174.7727006860077,-36.85459842905402,12.37 174.772537406534,-36.85454377904534,11.11 174.7723830118775,-36.85447169467807,9.99 174.7722854465246,-36.85440220870078,8.859999999999999 174.772289134562,-36.85439307242632,8.76 174.772302377969,-36.85437119565904,8.609999999999999 174.77230489254,-36.85435954481363,8.300000000000001 174.7723033837974,-36.8543475586921,8.1 174.7722992766649,-36.85433590784669,7.94 174.7722912300378,-36.85432643629611,7.849999999999999 174.7722814232111,-36.85431914404035,7.79 174.7722703590989,-36.85431235469878,7.719999999999999 174.7722587082535,-36.85430523008108,7.679999999999999 174.7722483146936,-36.85429659672081,7.66 174.7722402680665,-36.85428712517023,7.609999999999999 174.772233562544,-36.85427748598158,7.55 174.7722404357046,-36.85425250791013,7.46 174.7722952533513,-36.85414161533117,7 174.772376222536,-36.85402250848711,6.58 174.7723914775997,-36.85401991009712,6.58 174.7724072355777,-36.85401521623135,6.58 174.7724208142608,-36.85400566086173,6.58 174.7724804934114,-36.85396282933652,6.36 174.772497843951,-36.85395813547075,6.169999999999999 174.7725152783096,-36.85395302250981,6.03 174.7725336346775,-36.85394296422601,5.92 174.7725545894355,-36.85393399558961,5.82 174.7725683357567,-36.85392561368644,5.7 174.7725790645927,-36.85391463339329,5.53 174.7725884523243,-36.85390457510948,5.35 174.7726975847036,-36.85381656512618,6.26 174.7727246582508,-36.85376208275557,6.22 174.7727354709059,-36.85375168919563,6.19 174.7727729380131,-36.8537257052958,6.169999999999999 174.7727890312672,-36.85371614992619,6.169999999999999 174.7728596068919,-36.85365395620465,5.96 174.7728736046702,-36.85363677330315,5.89 174.7729908674955,-36.8535462487489,5.57 174.7729976568371,-36.85353560373187,5.57 174.7730083018541,-36.85352043248713,5.57 174.7731290850788,-36.85340316966176,5.15 174.773179711774,-36.85333443805575,5.28 174.7732911910862,-36.85322287492454,5.66 174.7734050173312,-36.85313939116895,6.05 174.7735291533172,-36.85300838202238,5.96 174.7736470028758,-36.85286480002105,5.69 174.7737788502127,-36.85273672454059,5.64 174.77389334701,-36.85264720581472,5.37 174.773922264576,-36.85261284001172,5.41 174.7739271260798,-36.85259850695729,5.48 174.7739735618234,-36.8525443598628,5.82 174.7740116156638,-36.85251594521105,5.85 174.7740340791643,-36.85248325578868,5.72 174.7740737255663,-36.85240027494729,5.01 174.7740671876818,-36.85239122249186,4.77 174.7740644216537,-36.85238728299737,6.1 174.7740868851542,-36.85237429104745,5.63 174.774067690596,-36.85240379534662,5.71 174.7740725520998,-36.8524013645947,6.1 174.7740605659783,-36.85238912701607,5.51 174.7740565426648,-36.85238828882575,4.91 174.7740427963436,-36.85238342732191,4.67 174.7740304749459,-36.8523773085326,4.65 174.7740019764751,-36.85236364603043,4.63 174.7739894874394,-36.85235601849854,4.63 174.7739782556891,-36.85234704986215,4.63 174.7738523595035,-36.85227949172258,5.07 174.773769043386,-36.85224210843444,5.19 174.7737614996731,-36.85223515145481,5.19 174.7737766709179,-36.85220799408853,5.8 174.7737806104124,-36.85219617560506,5.87 174.7737811133265,-36.8521851953119,5.88 174.7737832088023,-36.85212140902877,6.64 174.7737450711429,-36.85206751339138,7.83 174.773697629571,-36.85200347565114,8.74 174.7737067658454,-36.85186257585883,9.619999999999999 174.7737221047282,-36.85173441655934,9.08 174.7737563867122,-36.85157214291394,8.81 174.773787483573,-36.85140693560243,8.359999999999999 174.7738426364958,-36.85124340467155,7.609999999999999 174.7738530300558,-36.85112605802715,7.21 174.7738628368825,-36.85101332142949,6.7 174.7739081829786,-36.85087636113167,6.37 174.7739723045379,-36.85071584768593,6.33 174.774081017822,-36.85057017020881,6.05 174.7741909045726,-36.85044754296541,6.22 174.7742032259703,-36.85043304227293,5.94 174.7742311377078,-36.85042608529329,5.52 174.7742396872491,-36.85041594319046,5.43 174.7742519248277,-36.85040932148695,5.29 174.7742902301252,-36.85038769617677,4.83 174.7743059042841,-36.85037755407393,4.76 174.7743360791355,-36.85035626403987,4.82 174.7743421979249,-36.85034461319447,4.82 174.7743464726955,-36.85033271089196,4.89 174.7744026314467,-36.85023305006325,5.24 174.7744134441018,-36.85021159239113,5.02 174.7744266036898,-36.85019994154572,4.61 174.7744333930314,-36.85018711723387,4.61 174.7744476422668,-36.85017152689397,4.5 174.7744544316083,-36.85016138479114,4.35 174.7744605503976,-36.85010279528797,4.37 174.7744703572243,-36.85008594766259,4.55 174.7744710277766,-36.85007580555975,4.55 174.7744467202574,-36.85004521161318,4.74 174.7744406014681,-36.84995384886861,4.74 174.7744399309158,-36.84985795989633,4.74 174.774461556226,-36.84974061325192,4.74 174.7744605503976,-36.84959401376545,4.72 174.7744434513152,-36.84944766573608,4.93 174.7744318842888,-36.8493240326643,5.08 174.7744288668036,-36.84931313619018,5.11 174.7744116839021,-36.84923845343292,5.25 174.7743959259242,-36.84913091361523,5.43 174.7743763122708,-36.84899152256548,5.47 174.7743467241526,-36.84886587783694,5.6 174.7743282001466,-36.84878440573812,5.64 174.7742902301252,-36.84866898693144,5.35 174.7742391005158,-36.84852716512978,5.15 174.7741816844791,-36.84836656786501,5.31 174.7740891482681,-36.84822365641594,5.62 174.7740391083062,-36.84808543883264,5.49 174.7739483322948,-36.84794613160193,5.46 174.7738676983863,-36.84785418212414,5.68 174.7737732343376,-36.84774613939226,5.27 174.773681955412,-36.84771940112114,5.26 174.7735565621406,-36.84764597564936,4.72 174.7735133115202,-36.84757154434919,5.12 174.7734278161079,-36.84735411778092,5.46 174.7733138222247,-36.84722436591983,5.64 174.7732014209032,-36.84710819274187,5.85 174.7731908597052,-36.84709880501032,5.85 174.7731837350875,-36.84708807617426,5.85 174.7731735091656,-36.84708019718528,5.85 174.7730884328485,-36.84701859019697,5.65 174.7729777917266,-36.8469269759953,5.32 174.7728956490755,-36.84681390412152,5.51 174.772777967155,-36.8467078730464,5.97 174.7726909630001,-36.84658792801201,5.73 174.7726574353874,-36.8465643748641,5.63 174.7725544217974,-36.84650218114257,5.81 174.772458365187,-36.84639346785843,6.14 174.7724456246942,-36.84620462357998,6.37 174.7723514121026,-36.84609071351588,6.52 174.7722364962101,-36.84594570659101,6.6 174.7720721270889,-36.84589331969619,6.33 174.7718841210008,-36.8458737898618,6.32 174.7717985417694,-36.84591100551188,6.72 174.7717583086342,-36.84589373879135,7.609999999999999 174.7717402037233,-36.84589684009552,7.9 174.7717623319477,-36.84590069577098,7.96 174.771734084934,-36.84588694944978,8.130000000000001 174.771715644747,-36.84588275849819,8.01 174.7717324085534,-36.84587513096631,7.66 174.7717329952866,-36.8458719458431,7.509999999999999 174.7717172373086,-36.84586465358734,7.58 174.7717044129968,-36.84585954062641,7.599999999999999 174.7716744057834,-36.84585057199001,7.73 174.7714800294489,-36.84581578709185,8.289999999999999 174.7713360283524,-36.84576524421573,8.119999999999999 174.7712058573961,-36.8457215745002,7.699999999999999 174.7710973955691,-36.84561017900705,7.2 174.7709855809808,-36.84549073688686,7.109999999999999 174.7708575055003,-36.84547891840339,7.069999999999999 174.7706995066255,-36.84546986594796,6.92 174.7706803120673,-36.84546911157668,6.89 174.7706490475684,-36.84548897668719,6.839999999999999 174.7706303559244,-36.84553608298302,6.819999999999999 174.770499933511,-36.84558385983109,6.74 174.7704474627972,-36.84559282846749,6.57 174.7704234905541,-36.84558645822108,6.48 174.7704194672406,-36.84558536857367,6.79 174.7704272624105,-36.84556567110121,6.799999999999999 174.7704354766756,-36.84555418789387,6.72 174.7704673279077,-36.84548570774496,6.49 174.7704674955457,-36.84546483680606,6.45 174.7704763803631,-36.84545234777033,6.45 174.7704856004566,-36.84544019401073,6.45 174.7704908810556,-36.84542770497501,6.45 174.7704705968499,-36.84540825895965,6.23 174.7703610453755,-36.84550607576966,5.86 174.7702748794109,-36.84554697945714,5.76 174.7702312096953,-36.84559366665781,5.69 174.7701763082296,-36.84558310545981,5.42 174.7701398469508,-36.8455682694912,5.79 174.7699628211558,-36.84554421342909,5.78 174.7697552852333,-36.84557254426181,6.19 174.769619749859,-36.84549652040005,6.01 174.7695909161121,-36.84549945406616,6.18 174.7695720568299,-36.84550691395998,6.36 174.769551185891,-36.84551269747317,6.45 174.7695255372673,-36.84551445767283,6.5 174.7693236172199,-36.84553775936365,5.19 174.7692241240293,-36.8454609811306,4.7 174.7692070249468,-36.8454557005316,4.64 174.7691824659705,-36.8454559519887,4.62 174.7691717371345,-36.84544262476265,4.64 174.7691197693348,-36.84535101056099,5.57 174.7690481040627,-36.84529552236199,5.57 174.7689958009869,-36.84527138248086,5.42 174.7689818032086,-36.84526694007218,5.4 174.7689685598016,-36.84526233002543,5.39 174.7688668034971,-36.84522318653762,5.69 174.7688206192106,-36.84521052986383,5.74 174.7687578387558,-36.84519527480006,5.8 174.7687447629869,-36.84526978991926,6.08 174.7687112353742,-36.8452780880034,6.04 174.7686875984073,-36.84528001584113,5.88 174.768612831831,-36.84527959674597,5.44 174.7685905359685,-36.84527532197535,5.26 174.7684405837208,-36.84526333585382,4.69 174.7683977521956,-36.84525059536099,4.82 174.7682038787752,-36.84500802308321,5.53 174.7680937405676,-36.84495597146451,5.69 174.7680494002998,-36.84493987821043,5.59 174.7678740508854,-36.84492311440408,5.38 174.7677364200354,-36.84501112438738,5.21 174.7675778344274,-36.84500265866518,5.37 174.7674069274217,-36.84497868642211,5.51 174.7672942746431,-36.84491280466318,5.5 174.7671348508447,-36.8449775967747,5.44 174.7668626066297,-36.84467350132763,5.18 174.7666645422578,-36.84439421631396,4.73 174.7666550707072,-36.84435540810227,4.78 174.7666444256902,-36.84431836009026,4.87 174.766651969403,-36.8442968185991,4.82 174.7666577529162,-36.8442865088582,4.77 174.7666621953249,-36.84427611529827,4.74 174.7666663862765,-36.84426521882415,4.69 174.7666818089783,-36.84425222687423,4.64 174.7666818089783,-36.84431685134768,4.97 174.7666949685663,-36.84438080526888,5.08 174.7667165100574,-36.8443903606385,4.82 174.7667226288468,-36.84439840726554,4.89 174.7667009197176,-36.84444635175169,4.72 174.7666645422578,-36.84452363289893,4.6 174.7666393127292,-36.84469462372363,4.43 174.766612323001,-36.84480191208422,4.64 174.7666250634938,-36.84482286684215,4.82 174.7666352055967,-36.84486737474799,4.73 174.7664542403072,-36.84478791430593,4.92 174.7663443535566,-36.84480509720743,4.93 174.7662094887346,-36.8448547180742,4.76 174.7661110851914,-36.84503979049623,4.67 174.7660491429269,-36.84512637555599,4.55 174.7660002764314,-36.84522754512727,4.61 174.7660119272768,-36.84527792036533,4.57 174.7659989353269,-36.84537489898503,4.46 174.7659778129309,-36.84542787261307,4.59 174.7659917268902,-36.84550473466516,4.57 174.7660406772047,-36.84555619955063,4.73 174.7662699222565,-36.8458183016628,4.71 174.7662420943379,-36.84588342905045,4.74 174.7659680899233,-36.84590010903776,4.93 174.7658310458064,-36.84592382982373,4.88 174.7659556847066,-36.84605576097965,4.95 174.766099518165,-36.8462723493576,5.13 174.7661189641804,-36.84642129577696,5.04 174.7661123424768,-36.84644937515259,4.97 174.7661135997623,-36.84645080007613,5.01 174.7661089897156,-36.84646362438798,5.09 174.7660984285176,-36.84650779701769,4.93 174.7661019489169,-36.84654333628714,4.81 174.7661000210792,-36.84655599296093,5.04 174.7660976741463,-36.8465662188828,5.04 174.7660946566612,-36.84657602570951,5.02 174.766107397154,-36.84663461521268,4.93 174.765999102965,-36.84664643369615,5.01 174.7659960854799,-36.84667987748981,5.29 174.7660193871707,-36.84667560271919,4.46 174.76586708799,-36.84680543839931,4.78 174.7658437862992,-36.846979027614,4.96 174.7657602187246,-36.84709964320064,5.2 174.7657016292214,-36.84726954437792,5.57 174.765615966171,-36.8474330753088,5.97 174.7655791696161,-36.84754824265838,6.39 174.7654824424535,-36.8477938324213,6.02 174.7654510103166,-36.84792241081595,7.190000000000001 174.7653565462679,-36.84807454235852,7.75 174.7652316559106,-36.8481617141515,8.279999999999999 174.7652008105069,-36.84831510297954,8.539999999999999 174.7651601582766,-36.84845407493412,8.779999999999999 174.7650957852602,-36.84857318177819,9.4 174.7650580666959,-36.84870444238186,9.43 174.7650589048862,-36.84875129722059,9.630000000000001 174.7650087811053,-36.84877870604396,9.890000000000001 174.7648920211941,-36.84877409599721,10.34 174.7648297436535,-36.84874157421291,10.79 174.7646840661764,-36.84876060113311,12.11 174.7646192740649,-36.8487505428493,13.52 174.7643929626793,-36.84864945709705,14.43 174.7642803937197,-36.84861492365599,16.03 174.7641612030566,-36.84861123561859,17.42 174.7645140811801,-36.84992099180818,18.93 174.7640912979841,-36.84951111674309,19.77 174.7637362405658,-36.84927759692073,21.34 174.7636033874005,-36.84898213483393,22.24 174.7636343166232,-36.84889110736549,22.45 174.7636412736028,-36.84888406656682,22.76 174.7636462189257,-36.84887627139688,22.58 174.7636324726045,-36.84886436909437,22.6 174.7635220829397,-36.84881307184696,23.57 174.7635078337044,-36.84880460612476,23.63 174.7634938359261,-36.84879723004997,23.72 174.763424852863,-36.84876043349504,24.52 174.7633489128202,-36.84870016761124,25.37 174.7631498426199,-36.84861986897886,26.02 174.7630184981972,-36.84856496751308,26.48 174.7628546319902,-36.84849229641259,27.1 174.7628123871982,-36.84849279932678,26.49 174.7628207691014,-36.84848575852811,27.54 174.762819679454,-36.84848525561392,27.44 174.762817164883,-36.84848483651876,27.98 174.7627343516797,-36.84857276268303,27.99 174.7626962978393,-36.84860771521926,28.49 174.7626367025077,-36.84861877933145,29.01000000000001 174.7625564876944,-36.84864970855415,28.48 174.7625550627708,-36.84865457005799,28.45 174.7625534702092,-36.84866161085665,28.39 174.7625457588583,-36.84866672381759,28.36 174.7624900192022,-36.84871206991374,28.34 174.7624122351408,-36.84877845458686,28.94 174.7623717505485,-36.84883469715714,29.28 174.7623828146607,-36.84885405935347,29.36 174.7623875923455,-36.84888138435781,29.41 174.7623574174941,-36.84893452562392,29.55 174.7622237261385,-36.84896796941757,29.68 174.7622188646346,-36.84898456558585,29.93 174.7622334491462,-36.84898196719587,29.46 174.7622685693204,-36.84897123835981,29.42 174.7622241452336,-36.84893787838519,29.43 174.7622112371027,-36.84891868382692,29.6 174.7622212115675,-36.84890351258218,29.75 174.7622166853398,-36.84892740100622,29.44 174.7622217144817,-36.84892513789237,29.43 174.7622325271368,-36.8489009141922,29.39 174.7622498776764,-36.84888968244195,29.48 174.7622685693204,-36.84888289310038,29.29 174.7622711677104,-36.84887954033911,29.09 174.7622784599662,-36.84887358918786,28.99 174.7622834052891,-36.84886478818953,28.99 174.7622896917164,-36.84887006878853,28.99 174.7623008396477,-36.84885322116315,28.84 174.7622953914106,-36.84875121340156,28.43 174.762396980077,-36.84867502190173,28.22 174.7623997461051,-36.84854082763195,28.1 174.7623910289258,-36.84845834970474,27.74 174.7626387979835,-36.84838593006134,27.25 174.7627176716924,-36.84837821871042,26.95 174.762745751068,-36.84838442131877,27.05 174.7627595812082,-36.84841032139957,27.09 174.7627397160977,-36.84840311296284,26.67 174.7627648618072,-36.84842322953045,26.99 174.7627692203969,-36.84838073328137,27.25 174.7627606708556,-36.84826263226569,26.73 174.7627334296703,-36.84817437082529,25.94 174.7628077771515,-36.8479391746223,25.49 174.7628160752356,-36.84784831479192,25.25 174.7628107946366,-36.84781420044601,25.23 174.7628052625805,-36.84758881106973,24.81 174.7628628462553,-36.84741597622633,24.1 174.7629226092249,-36.84730759821832,23.69 174.7629420552403,-36.84721698984504,23.55 174.7629444021732,-36.84709838591516,23.07 174.7629658598453,-36.84695019386709,22.51 174.7629977948964,-36.84671860188246,22.07 174.7632518503815,-36.84661810286343,21.55 174.763390654698,-36.84662472456694,21.4 174.7634079214185,-36.8466283287853,21.4 174.7634273674339,-36.84663344174623,21.38 174.7634496632963,-36.84663696214557,21.37 174.7634715400636,-36.84663771651685,21.34 174.763491069898,-36.84663654305041,21.32 174.7635142039508,-36.84663662686944,21.29 174.7635318059474,-36.84663427993655,21.24 174.763541277498,-36.84662665240467,21.19 174.7635481506586,-36.84661852195859,21.14 174.7635535988957,-36.84661382809281,21.11 174.7636274434626,-36.8465815577656,20.85 174.7636845242232,-36.84652213007212,20.66 174.7637323848903,-36.8464435916394,20.7 174.763731630519,-36.84643319807947,20.7 174.7637541778386,-36.84632222168148,20.87 174.7637357376516,-36.84623789973557,20.38 174.7636889666319,-36.84612139128149,20.34 174.7636752203107,-36.84609574265778,20.28 174.7637098375708,-36.84606255032122,20.14 174.7637212369591,-36.84604905545712,19.98 174.763734061271,-36.84603027999401,19.84 174.7637939918786,-36.84595886617899,19.09 174.7638150304556,-36.84577664360404,17.36 174.7638454567641,-36.8457149527967,16.77 174.763855766505,-36.84569366276264,16.69 174.7638566885144,-36.84567580930889,16.63 174.7639233246446,-36.84562568552792,16.51 174.7638415172696,-36.84555628336966,16.97 174.7638526652008,-36.84552979655564,16.41 174.7638932336122,-36.84547942131758,15.39 174.7638649865985,-36.84537255205214,14.41 174.7638706862926,-36.845358973369,14.35 174.7638770565391,-36.84534874744713,14.29 174.7638589516282,-36.84515411965549,12.96 174.7638995200396,-36.84499050490558,11.98 174.7640785574913,-36.84490182437003,10.73 174.764019716531,-36.84479520656168,10.15 174.7640115022659,-36.84478816576302,10.03 174.7640057187527,-36.84478221461177,10.03 174.7640008572489,-36.84476721100509,9.93 174.7640523221344,-36.84475128538907,9.74 174.764064643532,-36.84474692679942,9.699999999999999 174.764069840312,-36.84474122710526,9.65 174.7640741989017,-36.84473309665918,9.59 174.7640754561871,-36.84472479857504,9.52 174.7640769649297,-36.84471700340509,9.470000000000001 174.7641179524362,-36.84467107057571,9.07 174.7641732729971,-36.84460359625518,8.470000000000001 174.7641831636429,-36.84459479525685,8.279999999999999 174.7641923837364,-36.8445854075253,8.279999999999999 174.7642002627254,-36.84457610361278,8.18 174.764204537496,-36.84456671588123,8.1 174.764204537496,-36.84455640614033,8.029999999999999 174.7642259113491,-36.84451550245285,7.400000000000001 174.7642327845097,-36.84450477361679,7.37 174.7642356343567,-36.84449245221913,7.319999999999999 174.7642382327467,-36.84448122046888,7.25 174.7642419207841,-36.84447099454701,7.17 174.7642456088215,-36.84446001425385,7.08 174.7642596904188,-36.84444132260978,6.87 174.7643759474158,-36.84444350190461,6.05 174.7644492052495,-36.84438541531563,5.81 174.7644497081637,-36.84437493793666,5.8 174.7644457686692,-36.84436513110995,5.73 174.7644469421357,-36.84435297735035,5.71 174.7644785419106,-36.8443348724395,5.52 174.7644919529557,-36.84433646500111,5.46 174.7645960561931,-36.84433462098241,5.23 174.7646122332662,-36.84434090740979,5.23 174.7646242193878,-36.84434099122882,5.24 174.7647237963974,-36.84429598040879,5.56 174.7648721560836,-36.84429011307657,5.64 174.7650428954512,-36.84435456991196,5.61 174.7654378507286,-36.84425147250295,5.01 174.7654977813363,-36.84427251107991,4.81 174.7655238490552,-36.84424652718008,4.64 174.7655665129423,-36.84426538646221,4.84 174.7655557002872,-36.84425046667457,5.08 174.7655668482184,-36.84417234733701,4.62 174.7655341587961,-36.84411099180579,4.13 174.7655438818038,-36.84401384554803,3.649999999999999 174.7655385173857,-36.84396313503385,3.33 174.7655409481376,-36.84395332820714,3.23 174.7655261959881,-36.84388484805822,3.05 174.7654831130058,-36.84377068653703,2.91 174.7655123658478,-36.84368334710598,2.09 174.7657067421824,-36.84358276426792,1.12 174.7656624019146,-36.84343331493437,0.8099999999999999 174.7655726317316,-36.84336232021451,0.51 174.7655930835754,-36.84332351200283,0.9599999999999999 174.7655609808862,-36.84323365800083,0.6899999999999999 174.7655707038939,-36.84320264495909,0.68 174.7655779123306,-36.84318982064724,0.64 174.7655758168548,-36.84317758306861,0.62 174.7655218373984,-36.84309636242688,0.47 174.7654455620795,-36.84303249232471,0.5 174.7653707116842,-36.84301891364157,0.55 174.7653236053884,-36.84301958419383,0.6 174.7651633433998,-36.84294800274074,0.42 174.7651500161737,-36.84293509460986,0.39 174.7651433944702,-36.8429174926132,0.39 174.7651293966919,-36.84290751814842,0.39 174.765103161335,-36.84290919452906,0.37 174.7650858946145,-36.84291237965226,0.38 174.7650527860969,-36.8429122120142,0.38 174.7650375310332,-36.84290684759617,0.35 174.7650251258165,-36.84289888478816,0.32 174.764992268756,-36.84287130832672,0.11 174.7649439051747,-36.84285714291036,0.6899999999999999 174.764928817749,-36.84285789728165,0.6899999999999999 174.7649123053998,-36.84285404160619,0.57 174.7648983914405,-36.84284817427397,0.49 174.7648093756288,-36.84282369911671,0.3 174.7646631114185,-36.84278547763824,0.23 174.7645187750459,-36.84275572188199,0.35 174.7643717564642,-36.84272705577314,0.43 174.7643081378192,-36.84271523728967,0.35 174.76427863352,-36.84274314902723,0.41 174.7642265819013,-36.84272286482155,0.46 174.764149133116,-36.84268346987665,0.36 174.7640192974359,-36.84264088980854,-0.24 174.763908656314,-36.84259001165628,0.01 174.7638197243214,-36.84259026311338,0.47 174.7637709416449,-36.84255841188133,0.5600000000000001 174.7636743821204,-36.84253259561956,0.15 174.7636436205357,-36.8425078690052,0.09 174.7636297903955,-36.84250275604427,0.08 174.7636174689978,-36.84249697253108,0.08 174.7635753080249,-36.84248272329569,0.16 174.7634474840015,-36.84248322620988,0.43 174.7634352464229,-36.84249588288367,0.26 174.7634264454246,-36.84250753372908,0.15 174.7634259425104,-36.84251273050904,0.17 174.7634290438145,-36.84251390397549,0.2 174.7634334862232,-36.84252463281155,0.12 174.7634206619114,-36.84257928282022,-0.05999999999999999 174.7633630782366,-36.84262647293508,-0.32 174.7633789200336,-36.84265564195812,-0.62 174.7633658442646,-36.84267148375511,-0.36 174.7633680235595,-36.84266444295645,-0.19 174.7633568756282,-36.84268011711538,-0.13 174.7633877210319,-36.84270325116813,-0.04 174.7634112741798,-36.84270677156746,-0.11 174.763453938067,-36.84271020814776,0.27 174.763509593904,-36.84273309074342,3.62 174.7635486535728,-36.84276049956679,5.27 174.7635807562619,-36.84274700470269,5.46 174.7635496594012,-36.84274826198816,5.18 174.7634876333177,-36.84272269718349,1.99 174.7633478231728,-36.84270668774843,-0.55 174.763335166499,-36.84271305799484,-0.64 174.7633251920342,-36.8427221942693,-0.75 174.7633172292262,-36.84273300692439,-0.75 174.7633118648082,-36.84274449013174,-0.79 174.7633082605898,-36.84275622479618,-0.8099999999999999 174.7632800973952,-36.84282143600285,-0.99 174.7632510960102,-36.84288036078215,-0.9199999999999999 174.763226788491,-36.84295495972037,-1 174.7632204182446,-36.84303735382855,-0.55 174.7632072586566,-36.84311404824257,-0.49 174.7632213402539,-36.84312310069799,-0.33 174.7631993796676,-36.84313525445759,-0.31 174.7631407063454,-36.84316073544323,-0.49 174.7629829589278,-36.84313257224858,-0.6 174.7628563083708,-36.84309954755008,-0.26 174.7627347707748,-36.84305772185326,-0.03 174.7627144027501,-36.84304196387529,0 174.7626377083361,-36.84303240850568,-0.13 174.7626541368663,-36.84304716065526,0.01 174.7626511193812,-36.84305923059583,0.07000000000000001 174.7626659553498,-36.84301346540451,0.18 174.7626564837992,-36.84303693473339,0.07000000000000001 174.7626631893218,-36.84304632246494,-0.08 174.7626672126353,-36.84304716065526,-0.15 174.7626681346446,-36.84304498136044,-0.26 174.7626668773592,-36.84304632246494,-0.23 174.7626655362546,-36.84304925613105,-0.2 174.7626677155495,-36.84305252507329,-0.11 174.7626693081111,-36.84305394999683,-0.27 174.7626699786633,-36.84305453673005,-0.14 174.7626693919301,-36.84305612929165,-0.27 174.7626677993685,-36.8430501781404,-0.32 174.7626739181578,-36.84304707683623,-0.26 174.7626234591007,-36.8430245295167,-0.23 174.7625425737351,-36.8430055025965,-0.3 174.7624125704169,-36.84297834523022,-0.31 174.7623455151916,-36.84297071769834,-0.32 174.7622472792864,-36.84293710626662,-0.36 174.7621561679989,-36.84289008378983,-0.29 174.7620378155261,-36.84286988340318,-0.23 174.7619765438139,-36.84286560863256,-0.37 174.7619653120637,-36.84286217205226,-0.38 174.7619518171996,-36.8428567238152,-0.41 174.7619362268597,-36.84285253286362,-0.43 174.7619193792343,-36.84285060502589,-0.45 174.7619020286947,-36.84284976683557,-0.45 174.7618162818253,-36.8428670335561,-0.27 174.7617856878787,-36.84290491975844,0.02 174.761752076447,-36.84295906685293,0.7 174.7618010267615,-36.84296510182321,0.01 174.7618124261498,-36.84293702244759,-0.25 174.761889372021,-36.84289528056979,-0.67 174.7618856001645,-36.84287793003023,-1.01 174.7619429323822,-36.84288840740919,-1.14 174.7619860153645,-36.84289595112205,-1.16 174.7620694153011,-36.84291833080351,-1.3 174.7621852532029,-36.84294196777046,-1.41 174.7623053658754,-36.84297516010702,-1.21 174.7624110616744,-36.84300089254975,-1.13 174.7624960541725,-36.84302712790668,-0.79 174.7626062761992,-36.84305747039616,-0.63 174.7626521252096,-36.84306275099516,-0.54 174.7627849783748,-36.8430985417217,-0.9099999999999999 174.7629211843014,-36.84312955476344,-0.82 174.7629541251808,-36.84314053505659,-0.84 174.7630743216723,-36.84315855614841,-0.8600000000000001 174.7631692886353,-36.84310005046427,-1.05 174.7632211726159,-36.84300499968231,-0.9399999999999999 174.763263752684,-36.84290676377714,-0.82 174.7632951848209,-36.84282470494509,-0.84 174.7632949333638,-36.84281297028065,-0.9499999999999998 174.7633146308362,-36.8427620921284,-1.08 174.763356288895,-36.84265958145261,-1.31 174.7634042333812,-36.8425631057471,-1.81 174.7634204104543,-36.84247593395412,-1.62 174.7633892297745,-36.84243410825729,-0.84 174.7633532714099,-36.84242664836347,-0.72 174.7633359208703,-36.84242237359285,-0.6899999999999999 174.7632680274546,-36.84242254123092,-0.6899999999999999 174.7632534429431,-36.84242321178317,-0.6899999999999999 174.7631285525858,-36.8424061127007,-0.93 174.7630158159882,-36.84238482266665,-1.22 174.7629001457244,-36.84234576299787,-1.1 174.7627635207027,-36.84230745770037,-1.14 174.7625937871635,-36.84225481934845,-0.74 174.7624563239515,-36.84219463728368,-0.63 174.7624540608376,-36.84218265116215,-0.64 174.7624486126006,-36.84217083267868,-0.67 174.762436458841,-36.84216219931841,-0.72 174.7624208685011,-36.84215809218585,-0.72 174.7624046076089,-36.84215784072876,-0.75 174.7623886819929,-36.84215909801424,-0.78 174.7623410727829,-36.84215339832008,-0.7999999999999999 174.7623289190233,-36.84214602224529,-0.8099999999999999 174.7622235585004,-36.84206957928836,-0.9399999999999999 174.7621196229011,-36.84198282659054,-0.8600000000000001 174.7619705926627,-36.84190076775849,-0.89 174.7618793975562,-36.84187193401158,-0.9599999999999999 174.761759955436,-36.84183756820858,-0.9499999999999998 174.7615971788764,-36.84177629649639,-0.5 174.7614489868283,-36.84174863621593,-1 174.7612385172397,-36.84168870560825,-1.67 174.7611376829445,-36.84163405559957,-1.67 174.7610122058541,-36.84158778749406,-1.85 174.7608742397279,-36.84154881164432,-1.85 174.7607711423188,-36.84153506532311,-1.89 174.7606374509633,-36.84150069952011,-1.93 174.7604920249432,-36.84144160710275,-1.73 174.7604176774621,-36.84144143946469,-1.67 174.7604258917272,-36.84143976308405,-1.63 174.7603772766888,-36.84141084551811,-1.44 174.7602830640972,-36.84138108976185,-1.33 174.7602674737573,-36.84137924574316,-1.3 174.7602025978267,-36.84137044474483,-1.05 174.7601896058768,-36.8413664214313,-0.9700000000000001 174.7600615303963,-36.84132761321962,-0.37 174.7599738556892,-36.84131696820259,-0.27 174.7598917968571,-36.8413008749485,0.28 174.7598443552852,-36.84128461405635,0.27 174.7597865201533,-36.84126893989742,0.09999999999999999 174.7596624679863,-36.8412250187248,-0.4 174.759534727782,-36.841188557446,-0.9099999999999999 174.7594129387289,-36.84115502983332,-1.52 174.7592485696077,-36.8411007989198,-2 174.7592342365533,-36.84110230766237,-2.05 174.7592194844037,-36.84110415168107,-2.09 174.7592034749687,-36.8411058280617,-2.1 174.7591888904572,-36.84110976755619,-2.09 174.7591291274875,-36.84113943949342,-1.94 174.7591228410602,-36.84115008451045,-1.89 174.7590633295476,-36.84125913307071,-1.35 174.7590201627463,-36.84140824712813,-1.68 174.7589706256986,-36.84151201508939,-2.02 174.7589772474021,-36.84157563373446,-2.02 174.7589546162635,-36.84166112914681,-2.08 174.7589059174061,-36.84173162095249,-2.17 174.7588992957026,-36.84172851964831,-2.1 174.7589069232345,-36.8416581954807,-2.02 174.7589273750782,-36.84157680720091,-2.06 174.7589531075209,-36.84155945666134,-2.14 174.7588828671724,-36.84158594347537,-1.61 174.758839616552,-36.84158108197153,-1.51 174.7588684502989,-36.84154512360692,-1.54 174.7589199151844,-36.8415511585772,-2 174.7588930092752,-36.84160832315683,-2.06 174.7589270398021,-36.84161913581192,-2 174.7589439712465,-36.8416240811348,-2 174.7590412013233,-36.84162600897253,-2.26 174.7590395249426,-36.8416291102767,-3.21 174.7590413689613,-36.84163011610508,-3.24 174.7590253595263,-36.84165894985199,-3.12 174.7590343281627,-36.84166230261326,-3.47 174.7590266168118,-36.84165786020458,-3.98 174.7589816059917,-36.84165408834815,-4.07 174.7589385230094,-36.84166850522161,-3.92 174.7589382715523,-36.84166976250708,-3.44 174.7589357569814,-36.84167051687837,-3.48 174.7589342482388,-36.84167345054448,-3.47 174.7589331585914,-36.84167495928705,-3.700000000000001 174.7589334100485,-36.84167864732444,-3.9 174.7588892374188,-36.84205616824329,-3.589999999999999 174.7588768322021,-36.84206320904195,-8.49 174.7588735632598,-36.84206379577518,-10.14 174.7588585596532,-36.84207913465798,-9.34 174.7588532790542,-36.84207662008703,-9.619999999999999 174.7588551230729,-36.84207838028669,-9.16 174.7588426340371,-36.84210872277617,-9.34 174.7588277142495,-36.84215088374913,-9.23 174.7588258702308,-36.84214954264462,-9.5 174.7588223498315,-36.84215138666332,-9.42 174.7588180750608,-36.84217066504061,-9.369999999999999 174.7588005568832,-36.8422076292336,-9.449999999999999 174.7588034067303,-36.84219824150205,-9.449999999999999 174.7588409576565,-36.84217016212642,-9.369999999999999 174.7588340006769,-36.84214878827333,-9.470000000000001 174.7587872296572,-36.84212925843894,-9.42 174.7587889060378,-36.84214560315013,-9.470000000000001 174.7587925102562,-36.84214954264462,-9.31 174.7588042449206,-36.84214828535914,-9.34 174.7587989643216,-36.84214828535914,-9.5 174.7587710525841,-36.84219195507467,-9.58 174.7587981261313,-36.8422216270119,-10.02 174.7587977908552,-36.84221249073744,-10.5 174.7588163986802,-36.84218533337116,-7.429999999999999 174.7588232718408,-36.84217711910605,-7.190000000000001 174.7588303964585,-36.84216404333711,-8.73 174.7588166501373,-36.84217175468802,-9.16 174.7588200028986,-36.84217175468802,-9.35 174.7588198352605,-36.84216991066933,-9.5 174.7588231042027,-36.84216261841357,-9.550000000000001 174.7588363476098,-36.84215256012976,-9.6 174.7588336654007,-36.84214920736849,-10.13 174.7588334139436,-36.84215038083494,-10.29 174.7588125430048,-36.8421434238553,-10.24 174.758829055354,-36.8421507999301,-9.890000000000001 174.7588242776692,-36.84215515851974,-9.9 174.758826540783,-36.84215105138719,-9.9 174.7588075976819,-36.84217150323093,-10.02 174.7587922587991,-36.84219329617918,-10.1 174.7588153928518,-36.84215591289103,-9.949999999999999 174.7588339168578,-36.84212657622993,-9.960000000000001 174.7588009759784,-36.84214375913143,-9.9 174.7588173206896,-36.8421420827508,-10.05 174.7588378563523,-36.84212925843894,-10.17 174.7588084358722,-36.84214635752141,-10.21 174.7588055860251,-36.84213219210505,-10.22 174.7588257864118,-36.84210553765297,-10.2 174.7588225174695,-36.84210495091975,-10.13 174.7588270436972,-36.84211375191808,-10.25 174.7587985452265,-36.84215306304395,-10.37 174.7587956115603,-36.84216647408903,-10.42 174.7587967850268,-36.84218030422926,-10.45 174.7588022332639,-36.84222171083093,-10.49 174.7588031552732,-36.8422232195735,-10.39 174.7588019818068,-36.84222456067801,-10.81 174.7587989643216,-36.84222632087767,-10.84 174.7587961144745,-36.84222933836281,-10.65 174.7587927617133,-36.84222070500255,-10.66 174.7587799374014,-36.84222883544862,-10.7 174.7587621677667,-36.8422591779381,-10.65 174.7587557137012,-36.84226999059319,-10.65 174.7587483376265,-36.84228013269603,-10.65 174.7586677037179,-36.84235607273877,-11.59 174.7586557175964,-36.8423648737371,-11.75 174.7586449887604,-36.84237501583993,-11.87 174.758636103943,-36.8423873372376,-11.94 174.7586283925921,-36.84239840134978,-11.97 174.7586425580084,-36.84251616708934,-11.43 174.7586470842361,-36.84252882376313,-11.45 174.7586325835437,-36.84252731502056,-11.71 174.758622944355,-36.84253871440887,-11.86 174.7586141433567,-36.84254474937916,-11.9 174.758609700948,-36.84253980405629,-11.63 174.7586148139089,-36.84254181571305,-11.56 174.7586103715003,-36.8425406422466,-11.35 174.758612466976,-36.84253712184727,-11.58 174.7586093656719,-36.84254240244627,-11.46 174.758607018739,-36.84254189953208,-11.43 174.7586081922054,-36.8425427377224,-11.5 174.7586076892912,-36.84254365973175,-11.78 174.7586088627577,-36.84254097752273,-11.67 174.758607018739,-36.84254148043692,-11.36 174.758609700948,-36.84253955259919,-11.87 174.758609617129,-36.84254030697048,-11.71 174.7586102876812,-36.8425408937037,-11.55 174.7586110420525,-36.84254047460854,-11.41 174.758612215519,-36.84253787621856,-11.84 174.7586008161306,-36.84252672828734,-11.97 174.7585894167423,-36.84252144768834,-11.99 174.7585652768612,-36.84251432307065,-12 174.7585519496351,-36.84250962920487,-12.04 174.7584027517587,-36.84246813878417,-12.2 174.7581866662949,-36.8424010835588,-12.62 174.7579699102789,-36.84233293868601,-12.4 174.7579168528318,-36.84231776744127,-12.26 174.7579020168632,-36.84232195839286,-12.25 174.7578901983798,-36.84233151376247,-12.24 174.7578785475343,-36.84234006330371,-12.2 174.7578693274409,-36.8423474393785,-12.17 174.757832614705,-36.84242430143058,-11.96 174.7578342072666,-36.84244081377983,-11.94 174.7578329499811,-36.8424547277391,-11.94 174.7578343749046,-36.84251189231873,-11.84 174.7578364703804,-36.84251264669001,-11.88 174.757835464552,-36.84251247905195,-12.05 174.7578360512853,-36.84251289814711,-11.52 174.7578420024365,-36.84251239523292,-12.89 174.7578412480652,-36.84251122176647,-12.03 174.7578361351043,-36.8425097130239,-11.81 174.757822137326,-36.84252077713609,-11.78 174.7578124143183,-36.84252991341054,-11.73 174.7578041162342,-36.84253988787532,-11.71 174.7577985003591,-36.84255137108266,-11.71 174.7577933035791,-36.84256218373775,-11.71 174.7577380668372,-36.84270861558616,-11.77 174.7577373962849,-36.84278178960085,-11.87 174.7577371448278,-36.84278296306729,-11.82 174.7577367257327,-36.84278338216245,-11.89 174.757737563923,-36.84278438799083,-11.43 174.7577394079417,-36.84278396889567,-11.59 174.7577408328652,-36.84278313070536,-11.55 174.7577450238168,-36.84278296306729,-11.82 174.7577426768839,-36.84278438799083,-12.03 174.7577440179884,-36.84278531000018,-11.89 174.757742844522,-36.84278631582856,-11.58 174.75774561055,-36.84278824366629,-11.54 174.7577120829374,-36.84281330555677,-11.68 174.7577021084726,-36.84282118454576,-11.69 174.75769800134,-36.8428794387728,-11.57 174.7577048745006,-36.84287658892572,-11.81 174.7577062156051,-36.84287591837347,-11.25 174.7577065508813,-36.84287533164024,-11.57 174.7577022761106,-36.84287189505994,-11.81 174.7576933074743,-36.84287633746862,-12.07 174.7576568461955,-36.84290609322488,-12.25 174.7576189599931,-36.84297759085894,-12.17 174.7576151881367,-36.84299301356077,-12.24 174.7575556766242,-36.84310709126294,-11.59 174.7575449477881,-36.84316509403288,-11.41 174.75755517371,-36.84317976236343,-11.4 174.7575668245554,-36.8431868031621,-11.39 174.757581660524,-36.84318898245692,-11.39 174.7575967479497,-36.84319074265659,-11.42 174.7576110810041,-36.84319459833205,-11.45 174.7576248273253,-36.84319971129298,-11.51 174.7577687446028,-36.84324212372303,-12.26 174.7577820718288,-36.84324514120817,-12.59 174.7577829100192,-36.84324564412236,-12.81 174.7577846702188,-36.84324572794139,-12.42 174.7578006796539,-36.84325595386326,-12.31 174.7578135877848,-36.84326332993805,-12.29 174.7578269150108,-36.84327070601285,-12.29 174.7578409127891,-36.84327623806894,-12.29 174.7578545752913,-36.84328093193471,-12.34 174.7578683216125,-36.84328596107662,-12.41 174.7580537293106,-36.84334505349398,-12.74 174.7582545597106,-36.84337623417377,-12.99 174.7583191841841,-36.84339098632336,-12.83 174.7583329305053,-36.84339417144656,-12.83 174.7583470959216,-36.84339777566493,-12.84 174.758361261338,-36.84340171515942,-12.86 174.7583757620305,-36.84340523555875,-12.87 174.7583911847323,-36.84340867213905,-12.88 174.7584869898856,-36.84348436072469,-13.11 174.7584890853614,-36.8434960115701,-13.16 174.7584864869714,-36.84350841678679,-13.21 174.7584796976298,-36.84352065436542,-13.21 174.7584718186408,-36.84353314340115,-13.21 174.7584660351276,-36.84354563243687,-13.21 174.7584609221667,-36.84355854056776,-13.23 174.7584545519203,-36.8435890506953,-12.95 174.7584542166442,-36.84358896687627,-13.11 174.7584496904165,-36.84359416365623,-12.91 174.7584480140358,-36.84359466657043,-12.93 174.7584470082074,-36.84359625913203,-12.78 174.7584490198642,-36.84358502738178,-12.86 174.7584465891123,-36.84358896687627,-12.97 174.7584296576679,-36.84360430575907,-13.02 174.7584201861173,-36.84361671097577,-13.03 174.7584118042141,-36.84362928383052,-13.01 174.758358662948,-36.84374034404755,-13.26 174.758305856958,-36.84384444728494,-13.35 174.7582757659256,-36.84394310228527,-13.54 174.7582275699824,-36.84407645836473,-13.53 174.7581776138395,-36.84420738369226,-14.39 174.7581257298589,-36.84433646500111,-13.09 174.7581082116812,-36.84442112222314,-13.43 174.7581196110696,-36.84441424906254,-13.4 174.7581167612225,-36.84441299177706,-13.37 174.7581173479557,-36.84441215358675,-13.27 174.7581150848418,-36.8444091361016,-13.36 174.7581377997994,-36.84440729208291,-13.55 174.7581364586949,-36.84440620243549,-13.61 174.7581371292472,-36.84441215358675,-13.83 174.758131261915,-36.84440963901579,-14.5 174.7580742649734,-36.84439966455102,-14.7 174.7580696549267,-36.84439706616104,-14.71 174.7580641228706,-36.84439304284751,-14.47 174.7580601833761,-36.84438960626721,-14.44 174.7580562438816,-36.84438776224852,-14.88 174.7580487839878,-36.8443853314966,-14.6 174.758046688512,-36.8443850800395,-14.9 174.7580383904278,-36.84438642114401,-13.55 174.7580267395824,-36.84442707337439,-13.4 174.7580274939537,-36.84445071034133,-13.25 174.7580190282315,-36.84445976279676,-13.24 174.758007125929,-36.84446680359542,-13.25 174.7579936310649,-36.84447292238474,-13.3 174.7579803038388,-36.84447912499309,-13.41 174.7579475305974,-36.84450569562614,-13.58 174.757948955521,-36.84457099065185,-13.57 174.7579505480826,-36.84458490461111,-13.56 174.7579512186348,-36.84459932148457,-13.56 174.7579526435584,-36.84461273252964,-13.56 174.757951553911,-36.8446287419647,-13.56 174.7579474467784,-36.84464215300977,-13.56 174.7579432558268,-36.84465539641678,-13.57 174.7579282522202,-36.8447408080101,-13.34 174.7578641306609,-36.8448895867914,-13.37 174.757811659947,-36.84501523151994,-12.8 174.757814174518,-36.8450307380408,-12.74 174.7578207124025,-36.84504364617169,-12.69 174.7578308545053,-36.84505680575967,-12.68 174.7578420862556,-36.84506854042411,-12.68 174.7578576765954,-36.84507851488888,-12.68 174.7578741051257,-36.8450878188014,-12.73 174.7580476105213,-36.84513408690691,-13.74 174.7581693995744,-36.84518387541175,-13 174.7581898514181,-36.84518354013562,-13 174.7582065314054,-36.84517976827919,-13.23 174.758223965764,-36.84517641551793,-13.51 174.7582409810275,-36.8451744876802,-13.71 174.7582584992051,-36.84517281129956,-13.85 174.7584174200892,-36.84514104388654,-13.83 174.758422030136,-36.84512997977436,-13.78 174.7584289032966,-36.84512159787118,-13.52 174.7584427334368,-36.84512645937502,-13.49 174.7584576532245,-36.84512964449823,-13.49 174.7584742493927,-36.84513048268855,-13.51 174.7584912646562,-36.84512897394598,-13.55 174.758509201929,-36.84512687847018,-13.64 174.7586508560926,-36.84505554847419,-13.63 174.7587062604725,-36.84490383602679,-13.64 174.7587884031236,-36.84479554183781,-13.83 174.758863504976,-36.84468976221979,-13.24 174.7589312307537,-36.84454483911395,-12.92 174.7589941788465,-36.84439547359943,-13.27 174.759051175788,-36.84423345141113,-12.99 174.7591189853847,-36.84410638175905,-12.74 174.7591534350067,-36.84400378726423,-12.74 174.7591955121607,-36.84391845948994,-12.31 174.7593227494508,-36.84379801154137,-12.18 174.7594722826034,-36.84369181282818,-12.35 174.7596185468137,-36.84358016587794,-12.6 174.7597515676171,-36.84348343871534,-12.7 174.7599156852812,-36.84336592443287,-12.84 174.7600810602307,-36.84325369074941,-12.58 174.7602002508938,-36.84316375292838,-12.47 174.7603187710047,-36.84309225529432,-12.55 174.7604647837579,-36.84300198219717,-12.9 174.7606000676751,-36.84296124614775,-13.16 174.7606144845486,-36.84296627528965,-13.19 174.7606283146888,-36.84297331608832,-13.19 174.7608208470047,-36.8430414609611,-13.02 174.76098831743,-36.84307725168765,-12.97 174.7611394431442,-36.84308814816177,-13.1 174.761305404827,-36.8431450612843,-12.44 174.7613734658808,-36.84315076097846,-12.96 174.7613908164203,-36.84314413927495,-13 174.7614060714841,-36.84313642792404,-13.02 174.7614193148911,-36.84312611818314,-13.04 174.7614273615181,-36.8431122880429,-13.05 174.7614318039268,-36.84309686534107,-13.03 174.7614338994026,-36.84308127500117,-12.97 174.7614354919642,-36.8430660199374,-12.98 174.7614388447255,-36.84305185452104,-12.94 174.7614434547722,-36.84303710237145,-12.86 174.7614494059235,-36.84302226640284,-12.82 174.7614556085318,-36.84300852008164,-12.82 174.7615130245686,-36.84284021146595,-12.89 174.7615703567863,-36.84269176796079,-12.69 174.7615662496537,-36.84269319288433,-12.58 174.7615654114634,-36.84269352816045,-12.11 174.7615702729672,-36.84269319288433,-12.45 174.7615692671388,-36.84269369579852,-12.74 174.7615662496537,-36.84269344434142,-12.7 174.7615687642246,-36.84269118122756,-12.44 174.7615688480437,-36.84269084595144,-12.81 174.7615701053292,-36.84269453398883,-12.73 174.7615411039442,-36.84271104633808,-12.86 174.7615422774106,-36.84271079488099,-12.57 174.7615414392203,-36.84271121397614,-12.44 174.76154060103,-36.84271171689034,-12.44 174.7615428641438,-36.84271322563291,-12.83 174.7615416068584,-36.84271448291838,-12.7 174.7615469712764,-36.84271339327097,-12.62 174.761585528031,-36.84270987287164,-12.74 174.7616001125425,-36.84271398000419,-12.74 174.7616147808731,-36.84271959587932,-12.78 174.761630538851,-36.84272487647831,-12.76 174.7616470512003,-36.84272898361087,-12.8 174.7617997694761,-36.84278095141053,-12.86 174.7620212193578,-36.84282026253641,-12.56 174.7621764522046,-36.84286694973707,-12.54 174.7622986603528,-36.84289360418916,-12.71 174.762299163267,-36.84289519675076,-12.52 174.7623010072857,-36.84289628639817,-12.71 174.7623378038406,-36.84290735051036,-12.78 174.7623514663428,-36.84291095472872,-12.75 174.7625146619976,-36.8429552949965,-12.94 174.762574005872,-36.84296937659383,-12.61 174.7625778615475,-36.84296853840351,-12.4 174.7625802922994,-36.84296912513673,-12.54 174.7625903505832,-36.84297968633473,-12.61 174.7626035939902,-36.84298438020051,-12.54 174.7626181785017,-36.84298882260919,-12.5 174.7626349423081,-36.84299267828465,-12.47 174.7626512870193,-36.84299586340785,-12.46 174.7628260497004,-36.84303718619049,-12.74 174.7629858925939,-36.8430829513818,-13.02 174.7631443105638,-36.84315352700651,-13.17 174.7631588112563,-36.84314967133105,-13.15 174.7631663549691,-36.84313852339983,-13.08 174.7632099408656,-36.84301103465259,-13.31 174.763258555904,-36.84285429306328,-13.31 174.7633261140436,-36.84268891811371,-13.61 174.763398617506,-36.84256126172841,-13.7 174.7634494956583,-36.84242430143058,-13.17 174.763477826491,-36.842404268682,-13.1 174.7634994518012,-36.84239353984594,-13.05 174.763514874503,-36.84239312075078,-13.03 174.7635302972049,-36.84239538386464,-13.02 174.7635461390018,-36.84240007773042,-13.02 174.7635618969798,-36.84240544214845,-13.02 174.7635769005865,-36.84241206385195,-13.02 174.7637785691768,-36.84248414821923,-12.66 174.7638475522399,-36.84249504469335,-12.68 174.7638587839901,-36.84250300750136,-12.73 174.7640307806432,-36.84261255897582,-13.26 174.764199424535,-36.84267735108733,-12.98 174.7643623687327,-36.84272420592606,-12.68 174.7643772885203,-36.84273040853441,-12.66 174.7645655460656,-36.84277793392539,-11.96 174.764748942107,-36.84281883761287,-11.32 174.7648941166699,-36.84285580180585,-12.12 174.7651694621891,-36.84294096194208,-12.39 174.7652236092836,-36.84298035688698,-12.67 174.7653006389737,-36.84299586340785,-13.16 174.765396611765,-36.84305260889232,-13.36 174.7654346656054,-36.84308186173439,-13.35 174.7655010502785,-36.84308672323823,-13.62 174.7656675986946,-36.84307364746928,-13.47 174.7657767310739,-36.84295043349266,-14.14 174.7659521643072,-36.84299510903656,-15.01 174.7660435270518,-36.8429915048182,-13.42 174.7661887854338,-36.84305252507329,-13.28 174.7663485445082,-36.84314866550267,-13.28 174.7664163541049,-36.8431796785444,-13.28 174.7665274981409,-36.84322854503989,-13.52 174.7665935475379,-36.84323692694306,-15 174.7666778694838,-36.84327464550734,-13.14 174.7667031828314,-36.84328386560082,-12.51 174.7668440826237,-36.84338109567761,-13.72 174.7668277379125,-36.84342283755541,-12.93 174.7668072860688,-36.8435562774539,-13.33 174.7668358683586,-36.84371016919613,-13.3 174.7668480221182,-36.84388342313468,-13.2 174.7668438311666,-36.84402843005955,-13 174.7668380476534,-36.84421995654702,-12.96 174.7667978145182,-36.84440460987389,-13.2 174.766773339361,-36.84457208029926,-13.04 174.7667798772454,-36.84457954019308,-13.04 174.7667851578444,-36.84458088129759,-13.03 174.7667986527085,-36.84460376389325,-12.94 174.7668524645269,-36.84460485354066,-12.96 174.7671316657215,-36.84476930648088,-13.36 174.767185728997,-36.84482169337571,-13.36 174.767212215811,-36.84482915326953,-13.36 174.7672340925783,-36.84484013356268,-13.36 174.7673486731946,-36.84499586932361,-13.91 174.7673635929823,-36.84499955736101,-14.05 174.7675174009055,-36.84511288069189,-12.95 174.7675382718444,-36.84509376995265,-13.06 174.7675582207739,-36.84509385377169,-13.15 174.7675779182464,-36.84510324150324,-13.21 174.7676019743085,-36.84511824510992,-13.32 174.7676211688668,-36.84512947686017,-13.32 174.7676381841302,-36.84513559564948,-13.37 174.7676537744701,-36.84514129534364,-13.38 174.767690403387,-36.84513132087886,-13.38 174.7677077539265,-36.84512863866985,-13.33 174.7677251044661,-36.84512344188988,-13.28 174.7677418682724,-36.8451139703393,-13.23 174.7677594702691,-36.84510148130357,-13.13 174.7677784971893,-36.84509754180908,-13.05 174.7677940037102,-36.8450899142772,-13 174.7678085044026,-36.84508723206818,-12.97 174.7678231727332,-36.8450880702585,-12.96 174.7678513359278,-36.84508488513529,-12.89 174.7679501585662,-36.84507608413696,-12.65 174.7679796628654,-36.84505295008421,-12.63 174.7679934091866,-36.8450325820595,-12.59 174.7679895535111,-36.8450344260782,-12.37 174.7679907269776,-36.84503543190658,-12.26 174.7680089157075,-36.84502713382244,-12.37 174.7680250089616,-36.84502612799406,-12.44 174.7680290322751,-36.84502352960408,-12.52 174.7680519986898,-36.8450293969363,-12.53 174.7680680919439,-36.84503015130758,-12.53 174.7680841013789,-36.84503308497369,-12.53 174.7681004460901,-36.84503794647753,-12.53 174.7681163717061,-36.84504222124815,-12.52 174.7681323811412,-36.84504624456167,-12.48 174.7681479714811,-36.84505093842745,-12.48 174.7682783100754,-36.84504934586585,-12.43 174.7683834191412,-36.84508237056434,-12.39 174.7684764582664,-36.84515076689422,-12.5 174.768491294235,-36.84515445493162,-12.5 174.7685026936233,-36.84518580324948,-12.52 174.7685201279819,-36.84517314657569,-12.53 174.7685817349702,-36.84526300057769,-12.54 174.7685955651104,-36.84531102888286,-12.55 174.7686130832881,-36.84534246101975,-12.55 174.7686322778463,-36.8453486636281,-12.55 174.7686503827572,-36.84535126201808,-12.57 174.7686659730971,-36.84536098502576,-12.57 174.7686839103699,-36.84538085013628,-12.54 174.768702685833,-36.84538956731558,-12.54 174.7687209583819,-36.84539157897234,-12.47 174.7687414102256,-36.84539484791458,-12.44 174.768837634474,-36.84545201249421,-12.21 174.7689172625542,-36.84532829560339,-12.39 174.7689238842577,-36.84529828839004,-12.42 174.7689336910844,-36.84530147351325,-12.24 174.7689445037395,-36.84530985541642,-12.21 174.7689569089562,-36.84531765058637,-12.2 174.7689673863351,-36.84532443992794,-12.19 174.7689798753709,-36.845329888165,-12.19 174.7689952142537,-36.84533424675465,-12.22 174.7690123133361,-36.8453383538872,-12.25 174.7691550571471,-36.84537406079471,-12.86 174.7692610882223,-36.84542007744312,-12.92 174.7692779358476,-36.8454401101917,-12.89 174.7692942805588,-36.84545125812292,-12.85 174.7693248745054,-36.84548034332693,-12.69 174.7694731503725,-36.84562384150922,-12.41 174.7695121262223,-36.84567723423243,-12.61 174.7695297282189,-36.84568704105914,-13.02 174.7695387806743,-36.84569617733359,-13.02 174.7695427201688,-36.84570657089353,-13.46 174.7697394434363,-36.8457426968962,-13.74 174.769937004894,-36.84580296278,-13.02 174.7699943371117,-36.84580539353192,-12.46 174.7701281961054,-36.8457960896194,-12.69 174.7703113406897,-36.8455648329109,-12.55 174.7703309543431,-36.84549693949521,-12.35 174.7703444492072,-36.84549090452492,-12.48 174.770335899666,-36.84547967277467,-12.35 174.7703489754349,-36.84548025950789,-12.35 174.7703652363271,-36.84548009186983,-12.35 174.7703825030476,-36.84547791257501,-12.33 174.7704000212252,-36.84547573328018,-12.32 174.7704171203077,-36.84547455981374,-12.26 174.7706245724112,-36.84546508826315,-11.93 174.7708265762776,-36.84547824785113,-11.51 174.7709114011377,-36.84543231502175,-11.29 174.7709409054369,-36.84543742798269,-11.32 174.7709563281387,-36.84544069692492,-11.37 174.7709723375738,-36.84544136747718,-11.41 174.7709884308279,-36.8454437982291,-11.45 174.7710029315203,-36.84544765390456,-11.49 174.77101248689,-36.84545704163611,-11.53 174.7711321804672,-36.84553993865848,-10.87 174.7713078651577,-36.84560154564679,-11.64 174.7714625950903,-36.84563448652625,-11.62 174.7714294865727,-36.84563272632658,-11.71 174.7714081127197,-36.8456266913563,-12.48 174.7714178357273,-36.84563767164946,-11.73 174.7714134771377,-36.8456544354558,-11.56 174.7714081127197,-36.84566667303443,-11.58 174.7714016586542,-36.84568058699369,-11.59 174.7713952045888,-36.84569324366748,-11.59 174.7713920194656,-36.84570690616965,-11.58 174.7713902592659,-36.84572132304311,-11.57 174.7713766805828,-36.84586356393993,-11.24 174.7713818773627,-36.84587253257632,-11.19 174.7713901754469,-36.84588108211756,-11.15 174.7714042570442,-36.84588711708784,-11.11 174.7715972922742,-36.845927182585,-10.38 174.77164959535,-36.84594344347715,-10.35 174.7717295587063,-36.84601661749184,-10.6 174.7717459034175,-36.84611544013023,-10.61 174.771808180958,-36.84623379260302,-10.61 174.7718388587236,-36.8463193718344,-7.79 174.7719140443951,-36.84640268795192,-7.719999999999999 174.7718671057373,-36.84649790637195,-7.719999999999999 174.7718084324151,-36.84664769098163,-7.719999999999999 174.7717972006649,-36.84677576646209,-7.719999999999999 174.7717864718288,-36.84686352498829,-7.719999999999999 174.7718157246709,-36.84692001901567,-6.209999999999999 174.7718497551978,-36.84696360491216,-4.44 174.7718911617994,-36.84704549610615,-4.8 174.772016890347,-36.84716887772083,-3.94 174.7721443790942,-36.84728211723268,-3.06 174.7723240032792,-36.84736769646406,-2.68 174.772347137332,-36.84738194569945,-2.64 174.7723880410194,-36.84739451855421,-2.56 174.7724042180926,-36.84740591794252,-2.51 174.7724183835089,-36.84742016717792,-2.46 174.7725147753954,-36.8475298024714,-1.95 174.7726245783269,-36.84761102311313,-1.45 174.7727106604725,-36.84765335172415,-0.9399999999999999 174.7727815713733,-36.84776399284601,0.01 174.7728817351162,-36.84789014048874,0.45 174.7729425877333,-36.84800069779158,1.22 174.7730356268585,-36.84809700585902,2.04 174.7731552366167,-36.8481429386884,2.33 174.7731851600111,-36.84816288761795,2.39 174.7731998283416,-36.84817990288138,2.47 174.7732136584818,-36.84819423593581,2.5 174.7732278238982,-36.84820513240993,2.56 174.773306697607,-36.84828895144165,3.08 174.7733903490007,-36.84842046350241,3.629999999999999 174.7734724916518,-36.8485798034817,4.34 174.7735689673573,-36.84867577627301,4.57 174.7735662013292,-36.84869337826967,4.59 174.7735691349953,-36.84870804660022,4.65 174.7736050095409,-36.84886554256082,5.29 174.7736150678247,-36.8489820510149,5.68 174.7735819593072,-36.84910409152508,5.97 174.7735713142902,-36.84923132881522,6.969999999999999 174.7735687997192,-36.84924239292741,6.980000000000001 174.7735310811549,-36.84931783005595,7.569999999999999 174.7734749224037,-36.84941832907498,7.29 174.7734505310655,-36.84948932379484,7.609999999999999 174.7734448313713,-36.84959032572806,6.169999999999999 174.7734827175736,-36.84963013976812,5.31 
			</coordinates>
		</LineString>
	</MultiGeometry>
	<atom:link rel="app" href="https://www.google.com/earth/about/versions/#earth-pro" title="Google Earth Pro 7.3.7.1155"></atom:link>
</Placemark>
</kml>
