<?xml version="1.0" encoding="UTF-8"?>
<kml xmlns="http://www.opengis.net/kml/2.2" xmlns:gx="http://www.google.com/kml/ext/2.2" xmlns:kml="http://www.opengis.net/kml/2.2" xmlns:atom="http://www.w3.org/2005/Atom">
<Placemark>
	<name>Track</name>
	<Style>
		<LineStyle>
			<color>ff0000ff</color>
			<width>3</width>
		</LineStyle>
	</Style>
	<LineString>
		<tessellate>1</tessellate>
		<coordinates>
			176.2188014388084,-40.89586238376796,0 176.2188389897346,-40.89584805071354,0 176.2190114893019,-40.89585274457932,0 176.2192552350461,-40.89593949727714,0 176.2194461748004,-40.89596455916762,0 176.2195764295757,-40.89596464298666,0 176.2195294909179,-40.89597377926111,0 176.2197282258421,-40.89593195356429,0 176.2198101170361,-40.8959605358541,0 176.2198618333787,-40.89595911093056,0 176.2199322413653,-40.89592415839434,0 176.2199429702014,-40.89590404182673,0 176.2199434731156,-40.8958743698895,0 176.2199302297086,-40.89587034657598,0 176.2199459038675,-40.895836064592,0 176.2198973726481,-40.8957863599062,0 176.2200039904565,-40.89577378705144,0 176.2201733887196,-40.89583514258265,0 176.220275061205,-40.89584277011454,0 176.2203959282488,-40.8960363920778,0 176.2206447869539,-40.8961093146354,0 176.2206939049065,-40.89633604511619,0 176.2207415979356,-40.89642690494657,0 176.2207213137299,-40.89649027213454,0 176.2207009457052,-40.89650225825608,0 176.2206980958581,-40.89664282277226,0 176.2206474691629,-40.89665288105607,0 176.2206386681646,-40.89667190797627,0 176.2206541746855,-40.89673209004104,0 176.2207022029907,-40.89681599289179,0 176.2206888757646,-40.89700223878026,0 176.2207403406501,-40.89713567867875,0 176.220711003989,-40.89719695039093,0 176.2206611316651,-40.8971989620477,0 176.2206663284451,-40.8971815276891,0 176.220766659826,-40.89727733284235,0 176.2209389079362,-40.89735763147473,0 176.2213543150574,-40.89759324677289,0 176.2214107252657,-40.89760825037956,0 176.2214103061706,-40.89764052070677,0 176.221395554021,-40.89763884432614,0 176.2214137427509,-40.89768980629742,0 176.2215100508183,-40.89771989732981,0 176.2215464282781,-40.89775728061795,0 176.2213811371475,-40.89788543991745,0 176.221363954246,-40.89788191951811,0 176.2213563267142,-40.89787068776786,0 176.2213706597686,-40.8978652395308,0 176.2213383894414,-40.89784026145935,0 176.2213687319309,-40.89789239689708,0 176.2214442528784,-40.89788644574583,0 176.2215431593359,-40.89791762642562,0 176.2215318437666,-40.89792978018522,0 176.221519857645,-40.89792651124299,0 176.2215486913919,-40.89792081154883,0 176.2215491104871,-40.89789834804833,0 176.2215684726834,-40.8979101665318,0 176.2215305864811,-40.89792550541461,0 176.2215472664684,-40.8979120105505,0 176.2215168401599,-40.89790396392345,0 176.2215375434607,-40.89791251346469,0 176.2215385492891,-40.89792994782329,0 176.2215666286647,-40.89792801998556,0 176.2216437421739,-40.89799867942929,0 176.2217752542347,-40.89815324172378,0 176.2218672875315,-40.89820940047503,0 176.2219107057899,-40.89827553369105,0 176.2219811137766,-40.89831300079823,0 176.2220604903996,-40.89832498691976,0 176.2220425531268,-40.89834476821125,0 176.2221919186413,-40.89843520894647,0 176.2223063316196,-40.89854635298252,0 176.2223517615348,-40.89857074432075,0 176.2223275378346,-40.89857040904462,0 176.2223172280937,-40.89855096302927,0 176.2223028950393,-40.89858809486032,0 176.2222780007869,-40.89858289808035,0 176.2222974468023,-40.89860477484763,0 176.2222811020911,-40.89860997162759,0 176.2223032303154,-40.89859513565898,0 176.2222921662033,-40.89858457446098,0 176.2223043199629,-40.89858784340322,0 176.2222909089178,-40.89860527776182,0 176.2222935073078,-40.89867074042559,0 176.2224202416837,-40.89881147257984,0 176.2224995344877,-40.89897265657783,0 176.2226315494627,-40.89910550974309,0 176.222706399858,-40.89924708008766,0 176.2226887140423,-40.89930810034275,0 176.2228823360056,-40.89945528656244,0 176.2230217270553,-40.89960322715342,0 176.2230887822807,-40.89963231235743,0 176.2233151774853,-40.89981621131301,0 176.2234804686159,-40.89999474585056,0 176.2235932890326,-40.90007504448295,0 176.2235856615007,-40.90009507723153,0 176.2236011680216,-40.90008158236742,0 176.2235911097378,-40.90007009916008,0 176.2235914450139,-40.90009273029864,0 176.2236017547548,-40.90007462538779,0 176.2236569076777,-40.90011527761817,0 176.2238012440503,-40.90026875026524,0 176.224004169926,-40.90042507275939,0 176.2242210097611,-40.90063260868192,0 176.2243572156876,-40.90079689398408,0 176.2245148792863,-40.90088465251029,0 176.2246047332883,-40.90096176601946,0 176.224638260901,-40.90101960115135,0 176.2246208265424,-40.90110258199275,0 176.2245639134198,-40.90113979764283,0 176.2245336547494,-40.90118874795735,0 176.2244654260576,-40.90124515816569,0 176.2245354149491,-40.90129905380309,0 176.2246605567634,-40.90131699107587,0 176.2247250135988,-40.9013448189944,0 176.2246932461858,-40.90136552229524,0 176.2247048132122,-40.90134859085083,0 176.2248544301838,-40.90143199078739,0 176.2248725350946,-40.90142696164548,0 176.2248615548015,-40.90143584646285,0 176.2248718645424,-40.90141707099974,0 176.2248592078686,-40.90141707099974,0 176.2248851917684,-40.90142360888422,0 176.2248406838626,-40.90142075903714,0 176.2247214931995,-40.90146300382912,0 176.2246831040829,-40.90149192139506,0 176.2246789131314,-40.90152176097035,0 176.2247698567808,-40.90171873569489,0 176.224828530103,-40.90179056860507,0 176.224871026352,-40.9019098430872,0 176.2249301187694,-40.90196130797267,0 176.2250551767647,-40.90213196352124,0 176.2251182924956,-40.90217504650354,0 176.2253776285797,-40.90228761546314,0 176.2262708041817,-40.90245776809752,0 176.2263995502144,-40.90244586579502,0 176.226697107777,-40.9024519007653,0 176.2269947491586,-40.90248048305511,0 176.2271871976554,-40.90251887217164,0 176.2272084876895,-40.90253404341638,0 176.2272106669843,-40.90255776420236,0 176.2271775584668,-40.90258886106312,0 176.2271990999579,-40.90259640477598,0 176.2273115012795,-40.90256824158132,0 176.2274459470063,-40.90258542448282,0 176.2275469489396,-40.90258064679801,0 176.2278108112514,-40.90253496542573,0 176.2280676327646,-40.90252842754126,0 176.2283064331859,-40.90241627767682,0 176.2286435533315,-40.90237864293158,0 176.2287896499038,-40.90225752443075,0 176.229033479467,-40.90232868678868,0 176.2291393429041,-40.90233949944377,0 176.2292704358697,-40.90233472175896,0 176.2293877825141,-40.90229163877666,0 176.2294499762356,-40.90229264460504,0 176.2295210547745,-40.90223640203476,0 176.2295208871365,-40.90222206898034,0 176.2295071408153,-40.90222743339837,0 176.2295570969582,-40.90219315141439,0 176.2296368926764,-40.90210220776498,0 176.2296737730503,-40.90203548781574,0 176.2297584302723,-40.90198586694896,0 176.2298492062837,-40.90189089998603,0 176.2299042753875,-40.90177732519805,0 176.2299049459398,-40.90179006569088,0 176.2299484480172,-40.90179450809956,0 176.2299069575965,-40.90178336016834,0 176.2300737574697,-40.90165712870657,0 176.2301957979798,-40.90159753337502,0 176.23047625646,-40.90138304047287,0 176.2305431440473,-40.9013588167727,0 176.2305295653641,-40.90134188532829,0 176.2308575492352,-40.90112747624516,0 176.2309691123664,-40.90102136135101,0 176.2309505045414,-40.90099856257439,0 176.2309935037047,-40.9009856544435,0 176.2310990318656,-40.90090694837272,0 176.2311863712966,-40.90081223286688,0 176.2312343996018,-40.90075045824051,0 176.231211097911,-40.90072874911129,0 176.231197854504,-40.90073294006288,0 176.2312161270529,-40.90074945241213,0 176.2312223296613,-40.90079169720411,0 176.231219060719,-40.90075347572565,0 176.2312872055918,-40.90065934695303,0 176.2313425261527,-40.9005387313664,0 176.2313001975417,-40.9004798065871,0 176.2313003651798,-40.90050889179111,0 176.231279745698,-40.90051149018109,0 176.2313069030643,-40.90051744133234,0 176.2312985211611,-40.90048902668059,0 176.2313415203243,-40.90043194591999,0 176.2313734553754,-40.90035206638277,0 176.2315210606903,-40.90017344802618,0 176.2315279338509,-40.90009683743119,0 176.2315857689828,-40.90008920989931,0 176.2315566837788,-40.90009901672602,0 176.2315767165273,-40.90011200867593,0 176.2315632216632,-40.90010438114405,0 176.2315773032606,-40.90009490959346,0 176.2315591983497,-40.90009692125022,0 176.2315576057881,-40.90005341917276,0 176.2316526565701,-40.89989575557411,0 176.2316355574876,-40.89987287297845,0 176.2316526565701,-40.89988972060382,0 176.2316531594843,-40.89991352520883,0 176.2316410895437,-40.89991553686559,0 176.2316588591784,-40.89993464760482,0 176.2316711805761,-40.8999100048095,0 176.2316545005888,-40.8999187219888,0 176.2316441908479,-40.89997655712068,0 176.2316627148539,-40.89989768341184,0 176.2316452804953,-40.89989231899381,0 176.2316645588726,-40.89994537644088,0 176.231652488932,-40.89994478970766,0 176.2317560892552,-40.89967790991068,0 176.2317757867277,-40.89969517663121,0 176.2317549996078,-40.89970322325826,0 176.2317847553641,-40.89969811029732,0 176.231747707352,-40.89968553744256,0 176.2317758705467,-40.89968000538647,0 176.2317822407931,-40.89968872256577,0 176.2317464500666,-40.89969207532704,0 176.2317420076579,-40.89967891573906,0 176.2317674886435,-40.89969484135509,0 176.2317347992212,-40.89966014027596,0 176.2317763734609,-40.89969601482153,0 176.2317058816552,-40.89974236674607,0 176.2316416762769,-40.89985627681017,0 176.2315833382308,-40.89991629123688,0 176.2315538339317,-40.90006096288562,0 176.2315685860813,-40.90009063482285,0 176.2314822524786,-40.90012055821717,0 176.2314849346876,-40.90018719434738,0 176.2313790712506,-40.9003518987447,0 176.2313675880432,-40.90040654875338,0 176.2313783168793,-40.90046128258109,0 176.2313281930983,-40.9005953092128,0 176.2311991117895,-40.90083067305386,0 176.2308643385768,-40.90115840546787,0 176.2303646933287,-40.90150147676468,0 176.2301006633788,-40.90164656750858,0 176.2299460172653,-40.90175377205014,0 176.2298963963985,-40.90182225219905,0 176.229762788862,-40.90191948227584,0 176.2296938896179,-40.90200849808753,0 176.2296435981989,-40.90203498490155,0 176.2295613717288,-40.9021291974932,0 176.2295226473361,-40.90222164988518,0 176.2294581066817,-40.90230446308851,0 176.2294379901141,-40.90236682444811,0 176.2293609604239,-40.90239917859435,0 176.2292702682316,-40.90240596793592,0 176.2292250897735,-40.90238912031054,0 176.229086117819,-40.90239733457565,0 176.2288607284427,-40.90237780474126,0 176.2286216765642,-40.90239289216697,0 176.2285733968019,-40.90237034484744,0 176.2284773401916,-40.90240026824176,0 176.2283210176975,-40.90238643810153,0 176.2282447423786,-40.90240051969886,0 176.2281924393028,-40.9024482127279,0 176.228095293045,-40.90249255299568,0 176.2280156649649,-40.90250462293625,0 176.2279779464006,-40.90252859517932,0 176.2279257271439,-40.90250487439334,0 176.2278054468334,-40.90257176198065,0 176.2276113219559,-40.90263085439801,0 176.2275182828307,-40.9026160184294,0 176.2273900397122,-40.90262565761805,0 176.2271687574685,-40.90253982692957,0 176.2269287835807,-40.90247956104577,0 176.2267185654491,-40.90246288105845,0 176.2266165576875,-40.90248961932957,0 176.2264953553677,-40.90248215943575,0 176.2259601708502,-40.90241787023842,0 176.2258483562618,-40.90238668955863,0 176.2255020160228,-40.90226657688618,0 176.2252986710519,-40.90222667902708,0 176.2250906322151,-40.90214763768017,0 176.224952749908,-40.90198813006282,0 176.2248526699841,-40.90183247812092,0 176.2247526738793,-40.90165335685015,0 176.2246507499367,-40.90142528526485,0 176.2244443036616,-40.90116385370493,0 176.2243961077183,-40.90114340186119,0 176.2242866400629,-40.90105623006821,0 176.2240588199347,-40.90094877406955,0 176.2238818779588,-40.90081457979977,0 176.2237479351461,-40.90074677020311,0 176.2235850747675,-40.90059581212699,0 176.2232462782413,-40.90034628286958,0 176.2228885386139,-40.9001415129751,0 176.2227058969438,-40.90000161901116,0 176.2227187212557,-40.90001083910465,0 176.2226768117398,-40.89998535811901,0 176.2226261850446,-40.89998024515808,0 176.2223439663649,-40.89976399205625,0 176.2222495023161,-40.89962476864457,0 176.2221986241639,-40.89958671480417,0 176.2220437265933,-40.89950356632471,0 176.2219609133899,-40.89947741478682,0 176.2219170760363,-40.89940105564892,0 176.2218348495662,-40.89932679198682,0 176.2218081112951,-40.89924079366028,0 176.2216912675649,-40.89909201487899,0 176.2216158304363,-40.89903183281422,0 176.2215724121779,-40.89896167628467,0 176.2213945481926,-40.89879915118217,0 176.2213202007115,-40.89878146536648,0 176.2212637905031,-40.89870845898986,0 176.2212780397385,-40.89869622141123,0 176.2212715018541,-40.89867467992008,0 176.2210908718407,-40.8985682297498,0 176.2210326176137,-40.89856437407434,0 176.2208521552384,-40.89847577735782,0 176.2208255846053,-40.89844979345798,0 176.2208337150514,-40.89843839406967,0 176.2207683362067,-40.89840075932443,0 176.2206043861806,-40.89815718121827,0 176.220568260178,-40.89815047569573,0 176.2205583695322,-40.8981746993959,0 176.2205441202968,-40.89816271327436,0 176.2206470500678,-40.89820831082761,0 176.2206587009132,-40.89826572686434,0 176.2206960003823,-40.8983057923615,0 176.2206825055182,-40.89825005270541,0 176.2206550128758,-40.89823085814714,0 176.2206482235342,-40.8981985040009,0 176.2206229940057,-40.89822163805366,0 176.220623748377,-40.89824007824063,0 176.2206514086574,-40.89826036244631,0 176.2206743750721,-40.89825013652444,0 176.2206945754588,-40.89829573407769,0 176.2207142729312,-40.89830252341926,0 176.2206984311342,-40.89829464443028,0 176.2206668313593,-40.89833135716617,0 176.2207063101232,-40.89831593446434,0 176.2206498160958,-40.89825843460858,0 176.2206421047449,-40.89823144488037,0 176.220629028976,-40.89823756366968,0 176.220634393394,-40.89828240685165,0 176.2207355629653,-40.89831191115081,0 176.2207232415676,-40.89830537326634,0 176.2207204755396,-40.89832783676684,0 176.2207014486194,-40.89833035133779,0 176.2206612993032,-40.89829606935382,0 176.2206889595836,-40.89831668883562,0 176.2206742074341,-40.8983039483428,0 176.220721649006,-40.89830989949405,0 176.2206913065165,-40.89830017648637,0 176.2207010295242,-40.89827209711075,0 176.2206597905606,-40.89827888645232,0 176.2206543423235,-40.89825415983796,0 176.2206870317459,-40.89825072325766,0 176.2207070644945,-40.89827729389071,0 176.2206695135683,-40.89826178736985,0 176.2206364888698,-40.89818970300257,0 176.2205411866307,-40.89806606993079,0 176.2202630750835,-40.89780564419925,0 176.2202137894928,-40.89777387678623,0 176.2200773321092,-40.8977460488677,0 176.2199459876865,-40.89769818820059,0 176.2197238672525,-40.89758176356554,0 176.2195952888578,-40.89754127897322,0 176.2194017507136,-40.89742703363299,0 176.2190662231296,-40.89733114466071,0 176.2188498023897,-40.89724204503,0 176.2183221615851,-40.89709385298193,0 176.2181196548045,-40.89698446914554,0 176.2180218379945,-40.89689034037292,0 176.2178288027644,-40.89660267345607,0 176.2177426367998,-40.89652933180332,0 176.2177554611117,-40.89644609950483,0 176.2179505918175,-40.89631483890116,0 176.2180269509554,-40.89623940177262,0 176.2183518335223,-40.89605801738799,0 176.2183815054595,-40.89601040817797,0 176.2184644024819,-40.89595139957964,0 176.2185330502689,-40.89592860080302,0 176.2186042964458,-40.89593765325844,0 176.2186167016625,-40.89597336016595,0 176.2186555936933,-40.89600177481771,0 176.2186323758215,-40.89600579813123,0 
		</coordinates>
	</LineString>
	<atom:link rel="app" href="https://www.google.com/earth/about/versions/#earth-pro" title="Google Earth Pro 7.3.7.1155"></atom:link>
</Placemark>
</kml>
