<?xml version="1.0" encoding="UTF-8"?>
<kml xmlns="http://www.opengis.net/kml/2.2" xmlns:gx="http://www.google.com/kml/ext/2.2" xmlns:kml="http://www.opengis.net/kml/2.2" xmlns:atom="http://www.w3.org/2005/Atom">
<Placemark>
	<name>Track</name>
	<Style>
		<LineStyle>
			<color>ff0000ff</color>
			<width>3</width>
		</LineStyle>
	</Style>
	<LineString>
		<tessellate>1</tessellate>
		<coordinates>
			6.851472845301032,50.17364842817187,0 6.851243013516068,50.17360651865602,0 6.851096833124757,50.17355295829475,0 6.850778991356492,50.17347668297589,0 6.850534407421947,50.17345455475152,0 6.850404571741819,50.17349830828607,0 6.850388562306762,50.1734846457839,0 6.850401638075709,50.17345086671412,0 6.850438183173537,50.17342689447105,0 6.850398955866694,50.17345480620861,0 6.850300887599587,50.17340501770377,0 6.850258894264698,50.17336243763566,0 6.850041635334492,50.17332999967039,0 6.849963013082743,50.17329378984869,0 6.8498719856143,50.17328632995486,0 6.849865280091763,50.17329898662865,0 6.849636873230338,50.17333880066872,0 6.849580379202962,50.17343234270811,0 6.8495421577245,50.17346293665469,0 6.849512653425336,50.17339303158224,0 6.849410310387611,50.17333871684968,0 6.849524388089776,50.17335388809443,0 6.849489351734519,50.17333528026938,0 6.849597729742527,50.17337081953883,0 6.849861089140177,50.17333444207907,0 6.850088238716125,50.17337584868073,0 6.850311616435647,50.17344634048641,0 6.850463077425957,50.17342857085168,0 6.850499790161848,50.17340962775052,0 6.850460059940815,50.17351817339659,0 6.850488055497408,50.17352253198624,0 6.85050280764699,50.17350459471345,0 6.850640773773193,50.17350719310343,0 6.850640270859003,50.17344566993415,0 6.850653430446982,50.17343041487038,0 6.850827019661665,50.17346427775919,0 6.850969260558486,50.17350878566504,0 6.850977642461658,50.17352144233882,0 6.850948054343462,50.17353108152747,0 6.850912850350142,50.17352303490043,0 6.851041428744793,50.17357802018523,0 6.851207390427589,50.17360467463732,0 6.851306715980172,50.1735900901258,0 6.851591030135751,50.17365530133247,0 6.851871320977807,50.17376560717821,0 6.852026386186481,50.17384959384799,0 6.852070558816195,50.17398999072611,0 6.852058824151754,50.17401169985533,0 6.852025967091322,50.17401396296918,0 6.852012220770121,50.17400030046701,0 6.852094028145075,50.17406333237886,0 6.852200562134385,50.1743221655488,0 6.852168878540397,50.17437564209104,0 6.852154042571783,50.17436382360756,0 6.852184971794486,50.17438092269003,0 6.852239118888974,50.17445384524763,0 6.852319836616516,50.174600193277,0 6.852325536310673,50.17476506531239,0 6.852288907393813,50.17477177083492,0 6.852153288200498,50.17474243417382,0 6.852133423089981,50.17473220825195,0 6.852142475545406,50.17472533509135,0 6.852193353697658,50.17474042251706,0 6.852174242958426,50.17475727014244,0 6.852202322334051,50.17476171255112,0 6.852160999551415,50.17473363317549,0 6.852212464436889,50.17476741224527,0 6.852235179394484,50.17475894652307,0 6.852172398939729,50.17474964261055,0 6.852201400324702,50.17479490488768,0 6.852140799164772,50.174774620682,0 6.852222019806504,50.1747558452189,0 6.852352945134044,50.17478803172708,0 6.852369038388133,50.17484838142991,0 6.852441458031535,50.17488953657448,0 6.852496778592467,50.17495038919151,0 6.852582776919007,50.17498634755611,0 6.852632900699973,50.17512171529233,0 6.852647569030523,50.17522246576846,0 6.852679755538702,50.17525305971503,0 6.852650251239538,50.17532472498715,0 6.852702302858233,50.17542958259583,0 6.852698614820838,50.1755450014025,0 6.852746559306979,50.17576511017978,0 6.85290053486824,50.1760093588382,0 6.852930122986436,50.17608982510865,0 6.852859379723668,50.17612519674003,0 6.8528663367033,50.17614187672734,0 6.852846806868911,50.17611262388527,0 6.852856781333685,50.17613324336708,0 6.852806741371751,50.17614296637475,0 6.852876646444201,50.17616962082684,0 6.852877316996455,50.1762392744422,0 6.852927021682262,50.17628998495638,0 6.852955436334014,50.17637833021581,0 6.852950658649206,50.1764805894345,0 6.852970356121659,50.17651403322816,0 6.852951748296618,50.17662618309259,0 6.852969015017152,50.17666993662715,0 6.852946551516652,50.17669499851763,0 6.852953089401126,50.1767451222986,0 6.852904642000794,50.17684402875602,0 6.852888884022832,50.17695081420243,0 6.852841358631849,50.17700403928757,0 6.852767430245876,50.17721434123814,0 6.852711606770754,50.1773027703166,0 6.852549416944385,50.17748859710991,0 6.852560061961412,50.17752363346517,0 6.852543130517006,50.17754509113729,0 6.852580178529024,50.17756101675332,0 6.852500298991799,50.17755473032594,0 6.852350179105997,50.17770837061107,0 6.852101404219866,50.17788187600672,0 6.851880876347423,50.17807021737099,0 6.851742994040251,50.17826844938099,0 6.851689936593175,50.1783215906471,0 6.851619780063629,50.17845402471721,0 6.851540822535753,50.17854060977697,0 6.851520203053951,50.178585620597,0 6.851453483104706,50.17864563502371,0 6.851326748728752,50.17871495336294,0 6.851331861689687,50.17872677184641,0 6.851264722645283,50.17875032499433,0 6.850997591391206,50.17877270467579,0 6.850543962791562,50.17884596250951,0 6.850506411865354,50.17889893613756,0 6.850552596151829,50.17891704104841,0 6.850558798760176,50.17895660363138,0 6.850493587553501,50.1790161151439,0 6.850205836817622,50.17908258363605,0 6.849700743332505,50.17903422005475,0 6.849572751671076,50.17904486507177,0 6.849342165514827,50.17892827279866,0 6.849330179393291,50.17890304327011,0 6.849302686750889,50.17891343683004,0 6.849314505234361,50.17892986536026,0 6.849303105846047,50.17893875017762,0 6.849183747544885,50.17896280623972,0 6.849074950441718,50.17893690615892,0 6.848917873576283,50.17896414734423,0 6.84894603677094,50.17896766774356,0 6.848936732858419,50.17906531691551,0 6.849114848300815,50.1791091542691,0 6.849052822217345,50.17912692390382,0 6.849268656224012,50.17918132245541,0 6.849382482469082,50.17916975542903,0 6.849411819130182,50.17916237935424,0 6.849424559623003,50.17914737574756,0 6.849416177719831,50.17915508709848,0 6.849414249882102,50.17913714982569,0 6.84951919130981,50.1791366469115,0 6.849498236551881,50.17910873517394,0 6.849509216845036,50.17906908877194,0 6.8494903575629,50.179063975811,0 6.8494972307235,50.1790467929095,0 6.849581301212311,50.17903539352119,0 6.849611392244697,50.17905685119331,0 6.849793447181582,50.17908576875925,0 6.84987592510879,50.17915324307978,0 6.85001565143466,50.17913941293955,0 6.85062987729907,50.17900253646076,0 6.850799359381199,50.17898174934089,0 6.850852919742465,50.17895610071719,0 6.851043021306396,50.17892248928547,0 6.851229937747121,50.17886247485876,0 6.851559933274984,50.17879961058497,0 6.851688846945763,50.17875300720334,0 6.851916667073965,50.17860095947981,0 6.852377587929368,50.17836115323007,0 6.852762149646878,50.17807407304645,0 6.852864408865571,50.17801741138101,0 6.852972870692611,50.1779053453356,0 6.853215778246522,50.17778648994863,0 6.853428175672889,50.17762589268386,0 6.853438317775726,50.17759370617568,0 6.853402946144342,50.17757643945515,0 6.853354163467884,50.17759806476533,0 6.853313343599439,50.17758909612894,0 6.853320803493261,50.17757861874998,0 6.853414010256529,50.17758850939572,0 6.853465978056192,50.17754542641342,0 6.853630430996418,50.17737636342645,0 6.853814665228128,50.17713940702379,0 6.8539750110358,50.17698911949992,0 6.854011304676533,50.17692424356937,0 6.854035696014762,50.17657144926488,0 6.853995379060507,50.17644178122282,0 6.853850288316607,50.17617464996874,0 6.853726906701922,50.17602964304388,0 6.853610733523965,50.17584943212569,0 6.853526830673218,50.17564189620316,0 6.853498667478561,50.17552379518747,0 6.853417027741671,50.17538029700518,0 6.853287694975734,50.17490445636213,0 6.853279313072562,50.17476682551205,0 6.853295154869556,50.17462508752942,0 6.853271182626486,50.17452081665397,0 6.852856697514653,50.17420859076083,0 6.852327967062593,50.17386266961694,0 6.852206597104669,50.17376652918756,0 6.852119173854589,50.17362881451845,0 6.852037198841572,50.1735692191869,0 6.851834105327725,50.17332983203232,0 6.851823544129729,50.17327845096588,0 6.851853802800179,50.17327627167106,0 6.85184801928699,50.17328850924969,0 6.851841481402516,50.17328029498458,0 6.851879451423883,50.17329865135252,0 6.851905267685652,50.17328071407974,0 6.851896718144417,50.17327266745269,0 
		</coordinates>
	</LineString>
	<atom:link rel="app" href="https://www.google.com/earth/about/versions/#earth-pro" title="Google Earth Pro 7.3.7.1155"></atom:link>
</Placemark>
</kml>
