<?xml version="1.0" encoding="UTF-8"?>
<kml xmlns="http://www.opengis.net/kml/2.2" xmlns:gx="http://www.google.com/kml/ext/2.2" xmlns:kml="http://www.opengis.net/kml/2.2" xmlns:atom="http://www.w3.org/2005/Atom">
<Placemark>
	<name>Track</name>
	<Style>
		<LineStyle>
			<color>ff0000ff</color>
			<width>3</width>
		</LineStyle>
	</Style>
	<LineString>
		<tessellate>1</tessellate>
		<coordinates>
			-112.1090593189001,36.05884300544858,0 -112.1088336780667,36.05886806733906,0 -112.1086707338691,36.05907233431935,0 -112.1080368943512,36.05922463349998,0 -112.1076887939125,36.0595257114619,0 -112.1076065674424,36.0597125440836,0 -112.1076809149235,36.06011076830328,0 -112.1076156198978,36.06037504971027,0 -112.1070196665823,36.06059616431594,0 -112.1069820318371,36.06068559922278,0 -112.1072068344802,36.06080730445683,0 -112.107153441757,36.06083798222244,0 -112.1078570187092,36.06111676432192,0 -112.1080974955112,36.06141935102642,0 -112.1083395648748,36.06141624972224,0 -112.1085346955806,36.061518676579,0 -112.1085931174457,36.06167441233993,0 -112.1089299023151,36.06194783002138,0 -112.1088474243879,36.0621246881783,0 -112.1089817024767,36.06215016916394,0 -112.108910959214,36.06215637177229,0 -112.1089617535472,36.06199937872589,0 -112.1091131307185,36.06192067265511,0 -112.1093580499291,36.06211630627513,0 -112.1097801625729,36.06204581446946,0 -112.1102870162576,36.06226122938097,0 -112.1104563307017,36.06250220909715,0 -112.1103585977107,36.0625702701509,0 -112.1106411516666,36.06271360069513,0 -112.1108288224787,36.06296732090414,0 -112.1108488552272,36.06291334144771,0 -112.1112081874162,36.06301777996123,0 -112.1115200780332,36.06333092786372,0 -112.1124113257974,36.06366218067706,0 -112.11296511814,36.06431152671576,0 -112.1134397014976,36.06430549174547,0 -112.1144262515008,36.06454152613878,0 -112.1147486194968,36.06454228051007,0 -112.1152980532497,36.06490370817482,0 -112.1161411888897,36.06507813557982,0 -112.1164069790393,36.06527938507497,0 -112.1167513076216,36.06540301814675,0 -112.1166383195668,36.06550242751837,0 -112.1168466098607,36.06563502922654,0 -112.1169088035822,36.06581012718379,0 -112.1168519742787,36.06600299477577,0 -112.1167879365385,36.06599419377744,0 -112.1168834064156,36.06583912856877,0 -112.1171146631241,36.06603861786425,0 -112.1173207741231,36.06608564034104,0 -112.1175599936396,36.0659377835691,0 -112.1177533641458,36.06601498089731,0 -112.1181217487901,36.06590459123254,0 -112.1184426918626,36.06595454737544,0 -112.118742344901,36.06570753268898,0 -112.1190918702632,36.06571549549699,0 -112.119157249108,36.06577794067562,0 -112.1191051974893,36.06590090319514,0 -112.1190958935767,36.06571197509766,0 -112.1192734222859,36.0654456820339,0 -112.1194968838245,36.06528122909367,0 -112.1199790108949,36.06519271619618,0 -112.1204898878932,36.0653436742723,0 -112.1208605356514,36.06527301482856,0 -112.1209666505456,36.06518466956913,0 -112.1207605395466,36.06532263569534,0 -112.1209665667266,36.06521400623024,0 -112.1210119128227,36.06527083553374,0 -112.1209701709449,36.06518735177815,0 -112.1210958156735,36.06516798958182,0 -112.1211086399853,36.06523462571204,0 -112.1212312672287,36.06499607674778,0 -112.1216286532581,36.0647445358336,0 -112.1222848724574,36.06473179534078,0 -112.1225158777088,36.06490982696414,0 -112.1223381813616,36.06465719640255,0 -112.1223967708647,36.06414087116718,0 -112.1229844260961,36.0637563932687,0 -112.1230087336153,36.06380869634449,0 -112.1230781357735,36.06360459700227,0 -112.1235377993435,36.06328365392983,0 -112.1237180940807,36.06303135864437,0 -112.1235749311745,36.06272047385573,0 -112.1235952153802,36.06253012083471,0 -112.1234039403498,36.0623768158257,0 -112.1232683211565,36.06178178451955,0 -112.1236082911491,36.06138884089887,0 -112.1238443255424,36.06123411096632,0 -112.1237659547478,36.06128809042275,0 -112.1242695394903,36.06069976463914,0 -112.124614873901,36.05940350331366,0 -112.1247791592032,36.05922086164355,0 -112.1248833462596,36.05926536954939,0 -112.1256236359477,36.05847646482289,0 -112.1259771846235,36.0582048073411,0 -112.1260185074061,36.05831620283425,0 -112.1260775998235,36.0582772269845,0 -112.1261363569647,36.05834051035345,0 -112.1260754205287,36.05824143625796,0 -112.1261066012084,36.05806206353009,0 -112.1261118818074,36.05825300328434,0 -112.1265816036612,36.05822609737515,0 -112.1270802430809,36.05808075517416,0 -112.1274353004992,36.05850563384593,0 -112.1282260492444,36.05893135070801,0 -112.1282454952598,36.0591337736696,0 -112.1284319926053,36.05888172984123,0 -112.1286514308304,36.05882414616644,0 -112.1297995839268,36.05795159004629,0 -112.1311204042286,36.05742847546935,0 -112.1314291935414,36.05745554901659,0 -112.1315039601177,36.05754934251308,0 -112.1315538324416,36.05742260813713,0 -112.1317958179861,36.05737240053713,0 -112.1321631968021,36.05739779770374,0 -112.1325044240803,36.05727642774582,0 -112.1326897479594,36.05735496617854,0 -112.1328475791961,36.05731900781393,0 -112.1328348387033,36.05740986764431,0 -112.1329004690051,36.05734935030341,0 -112.1331138722599,36.05748052708805,0 -112.1334741264582,36.05749821290374,0 -112.1337313670665,36.05765989981592,0 -112.1344997361302,36.05774648487568,0 -112.1348908357322,36.05798796750605,0 -112.1351222600788,36.05800573714077,0 -112.1353402733803,36.0578868817538,0 -112.1357482206076,36.05790423229337,0 -112.1360090654343,36.05808544903994,0 -112.1362187806517,36.05803758837283,0 -112.1366104669869,36.05824654921889,0 -112.1368519496173,36.05813406407833,0 -112.1368193440139,36.05819575488567,0 -112.1370452363044,36.05799718759954,0 -112.1372790075839,36.05799299664795,0 -112.1375687699765,36.05815786868334,0 -112.1379193849862,36.05776945129037,0 -112.1383283380419,36.05769284069538,0 -112.1383932977915,36.05742235668004,0 -112.1387183479965,36.05713209137321,0 -112.1389762591571,36.05716109275818,0 -112.1392871439457,36.05697258375585,0 -112.1397011261433,36.05692790821195,0 -112.1407083794475,36.05711524374783,0 -112.1408535540104,36.05723652988672,0 -112.1406784560531,36.05725513771176,0 -112.1412659436464,36.05749427340925,0 -112.1415062528104,36.05778579600155,0 -112.1420936565846,36.05793750844896,0 -112.1431773528457,36.05784187093377,0 -112.1428890153766,36.05794128030539,0 -112.1430495288223,36.05795737355947,0 -112.1432938612998,36.05783013626933,0 -112.1432862337679,36.05766794644296,0 -112.1434800233692,36.0575036611408,0 -112.143796607852,36.05745010077953,0 -112.143928706646,36.05757909826934,0 -112.1438770741224,36.05764992535114,0 -112.1440552733839,36.05746225453913,0 -112.1442571096122,36.05741263367236,0 -112.1445903740823,36.05744565837085,0 -112.1447289269418,36.05762209743261,0 -112.1452228724957,36.05781119316816,0 -112.1453098766506,36.05774380266666,0 -112.1454436518252,36.05779116041958,0 -112.1455597411841,36.05761882849038,0 -112.1457068435848,36.05762712657452,0 -112.1457804366946,36.05772821232677,0 -112.1459917444736,36.05766023509204,0 -112.1464604604989,36.05785863474011,0 -112.1467140968889,36.05825074017048,0 -112.1467688307166,36.05842608958483,0 -112.1465768013149,36.05873194523156,0 -112.1466123405844,36.05903754942119,0 -112.1466741990298,36.05905573815107,0 -112.1464458759874,36.05870235711336,0 -112.146486947313,36.05839189141989,0 -112.1463817544281,36.05837546288967,0 -112.1464785654098,36.05832525528967,0 -112.1464593708515,36.05839239433408,0 -112.1461934968829,36.05810062028468,0 -112.1457174047828,36.05804890394211,0 -112.1453492715955,36.05816105380654,0 -112.1451441664249,36.05804027058184,0 -112.1447570901364,36.05816465802491,0 -112.1445389091969,36.05810833163559,0 -112.1440017968416,36.05835115537047,0 -112.1437407005578,36.05865080840886,0 -112.1436798479408,36.05883361771703,0 -112.1434736531228,36.05899329297245,0 -112.1427408233285,36.05928590521216,0 -112.142522893846,36.05914441868663,0 -112.1424280945212,36.05922723188996,0 -112.1425540745258,36.05916881002486,0 -112.1427588444203,36.05931675061584,0 -112.1427692379802,36.05941398069263,0 -112.1430314239115,36.05927375145257,0 -112.1437013056129,36.05930208228528,0 -112.1447532344609,36.05892699211836,0 -112.1448974870145,36.05898323468864,0 -112.1449784561992,36.05914299376309,0 -112.1450126543641,36.05909085832536,0 -112.1449669729918,36.05914575979114,0 -112.1449538972229,36.05907292105258,0 -112.1450832299888,36.05897183530033,0 -112.1453339327127,36.05901307426393,0 -112.145197307691,36.05894300155342,0 -112.1451514586806,36.05880000628531,0 -112.1451140753925,36.05898491106927,0 -112.144877705723,36.0590854100883,0 -112.1448332816362,36.05925438925624,0 -112.1446997579187,36.05926738120615,0 -112.1448518894613,36.05932840146124,0 -112.1450767759234,36.05924441479146,0 -112.145057246089,36.05917241424322,0 -112.1451610140502,36.05925204232335,0 -112.1451610140502,36.05916545726359,0 -112.1452260576189,36.0591892618686,0 -112.1452007442713,36.05936595238745,0 -112.1450808830559,36.05949578806758,0 -112.145110219717,36.05958916246891,0 -112.1447953116149,36.05960047803819,0 -112.1446015220135,36.05946100316942,0 -112.1445852611214,36.05952604673803,0 -112.1445001009852,36.05948128737509,0 -112.1443726122379,36.059340974316,0 -112.1444724407047,36.05942621827126,0 -112.144639827311,36.05986484326422,0 -112.1448469441384,36.05965236201882,0 -112.1444638911635,36.05971866287291,0 -112.1444476302713,36.05980047024786,0 -112.1441247593611,36.05944231152534,0 -112.144393818453,36.05981010943651,0 -112.1443655714393,36.05996148660779,0 -112.1443528309464,36.05988688766956,0 -112.1444472111762,36.05997104197741,0 -112.1440864540637,36.05990465730429,0 -112.144124256447,36.05995872057974,0 -112.1437777485698,36.0596084408462,0 -112.1441172994673,36.06006081216037,0 -112.1440033055842,36.06012552045286,0 -112.1434942726046,36.05973098427057,0 -112.1431550569832,36.05966610834002,0 -112.1430914383382,36.05968957766891,0 -112.1433144807816,36.05971178971231,0 -112.1429413184524,36.05985076166689,0 -112.1427673939615,36.05980181135237,0 -112.1419033873826,36.0599591396749,0 -112.1414132975042,36.06025946326554,0 -112.1412034146488,36.06029349379241,0 -112.1408734191209,36.06061234138906,0 -112.1401506476104,36.06046188622713,0 -112.1397459693253,36.06070035137236,0 -112.1394874714315,36.06068132445216,0 -112.1393207553774,36.06059825979173,0 -112.1391491778195,36.06034152209759,0 -112.1390386205167,36.06032987125218,0 -112.1388374548405,36.06041997671127,0 -112.1387203596532,36.06057194061577,0 -112.1384491212666,36.06060697697103,0 -112.1383184473962,36.06078048236668,0 -112.138349711895,36.06069171801209,0 -112.1382706705481,36.0606103297323,0 -112.1383899450302,36.06071409769356,0 -112.1383036114275,36.06068241409957,0 -112.1383580937982,36.06083236634731,0 -112.1382983308285,36.06077897362411,0 -112.1382966544479,36.06087042018771,0 -112.1382735203952,36.0604739561677,0 -112.1384071279317,36.06061301194131,0 -112.1383151784539,36.06060169637203,0 -112.1383574232459,36.06052181683481,0 -112.1385785378516,36.06054436415434,0 -112.1382588520646,36.06075902469456,0 -112.1384517196566,36.06058635748923,0 -112.1386517956853,36.06058903969824,0 -112.1389014925808,36.06031109578907,0 -112.1391166560352,36.06030908413231,0 -112.1390637662262,36.06027605943382,0 -112.139584030956,36.06076304800808,0 -112.1401694230735,36.06048066169024,0 -112.1407191921026,36.06052801944315,0 -112.1409066114575,36.06059951707721,0 -112.1408689767122,36.06063840910792,0 -112.1411698870361,36.06021772138774,0 -112.1414671931416,36.06019425205886,0 -112.1415902394801,36.06005561538041,0 -112.1417218353599,36.06006123125553,0 -112.1419587917626,36.05988403782248,0 -112.1420157887042,36.05997070670128,0 -112.1423831675202,36.05972704477608,0 -112.1425224747509,36.05980667285621,0 -112.1426533162594,36.05974079109728,0 -112.1429186873138,36.05981371365488,0 -112.1430525463074,36.05966317467391,0 -112.1435321588069,36.05957902036607,0 -112.143764840439,36.05979049578309,0 -112.1441410202533,36.05994187295437,0 -112.1438868809491,36.0597194172442,0 -112.1438399422914,36.05953367426991,0 -112.1439749747515,36.05957340449095,0 -112.1442672517151,36.05985973030329,0 -112.144161304459,36.0598195809871,0 -112.1445126738399,36.05986417271197,0 -112.1443319600075,36.0598018951714,0 -112.144071450457,36.0594205185771,0 -112.1446286793798,36.05962034314871,0 -112.1446192078292,36.05969594791532,0 -112.1447249874473,36.05966158211231,0 -112.1444912999868,36.05955387465656,0 -112.144579058513,36.05961891822517,0 -112.144393818453,36.05927903205156,0 -112.1448231395334,36.05940601788461,0 -112.1448329463601,36.05926972813904,0 -112.1450948808342,36.05907778255641,0 -112.1449533943087,36.05909035541117,0 -112.1449825633317,36.05913595296443,0 -112.1448225528002,36.05923846364021,0 -112.1447590179741,36.05906889773905,0 -112.1448694914579,36.05906051583588,0 -112.145041320473,36.05887418612838,0 -112.1453344356269,36.05890134349465,0 -112.1453617606312,36.05879053473473,0 -112.1454119682312,36.05883051641285,0 -112.1453071106225,36.05902447365224,0 -112.1451859083027,36.05906051583588,0 -112.1449660509825,36.05904023163021,0 -112.1448518894613,36.05891232378781,0 -112.1446783002466,36.05889019556344,0 -112.1445902902633,36.05902296490967,0 -112.1443966683,36.05906671844423,0 -112.1442091651261,36.05922723188996,0 -112.1438962686807,36.05929403565824,0 -112.1427933778614,36.05926972813904,0 -112.142573017627,36.05916243977845,0 -112.1425224747509,36.05926000513136,0 -112.1424508932978,36.05921323411167,0 -112.1425343770534,36.05910385027528,0 -112.1428331919014,36.0592064447701,0 -112.14295883663,36.05911013670266,0 -112.1435616631061,36.05895490385592,0 -112.1440229192376,36.0582357365638,0 -112.1444437745959,36.05806533247232,0 -112.1447684895247,36.05808335356414,0 -112.1452387981117,36.0579611454159,0 -112.1462802495807,36.05806776322424,0 -112.1465197205544,36.05837806127965,0 -112.146471105516,36.05869481340051,0 -112.1466286852956,36.05897258967161,0 -112.1465612109751,36.0583686735481,0 -112.1466495562345,36.0582531709224,0 -112.1462700236589,36.05768269859254,0 -112.1462532598525,36.05777364224195,0 -112.1460269484669,36.05762184597552,0 -112.1458036545664,36.05774137191474,0 -112.1456331666559,36.05757750570774,0 -112.1453884150833,36.05784849263728,0 -112.1447985805571,36.05755680240691,0 -112.1447108220309,36.05744322761893,0 -112.1444383263588,36.05736980214715,0 -112.1440474782139,36.05753911659122,0 -112.1441273577511,36.05759762227535,0 -112.1440540999174,36.05769585818052,0 -112.144079497084,36.05750760063529,0 -112.1436397824436,36.05750290676951,0 -112.1433243714273,36.05766710825264,0 -112.1432511974126,36.05788168497384,0 -112.1429341100156,36.05798503383994,0 -112.1432187594473,36.05777657590806,0 -112.1432571485639,36.05752143077552,0 -112.14336049743,36.05741573497653,0 -112.1436785906553,36.05729578994215,0 -112.1434279717505,36.05725790373981,0 -112.1433750819415,36.05713821016252,0 -112.1434442326427,36.05707484297454,0 -112.1435029897839,36.05715648271143,0 -112.1434157341719,36.05715095065534,0 -112.1433853078634,36.05724801309407,0 -112.1433533728123,36.05715162120759,0 -112.143341973424,36.05721993371844,0 -112.1428482793272,36.05727910995483,0 -112.1426256559789,36.05739461258054,0 -112.1425610315055,36.05730601586401,0 -112.1422184631228,36.05728506110609,0 -112.1420453768224,36.0571807064116,0 -112.1417313069105,36.05718858540058,0 -112.1415955200791,36.05702094733715,0 -112.1411260496825,36.05692757293582,0 -112.1403845865279,36.05647972784936,0 -112.1401851810515,36.05647805146873,0 -112.1401155274361,36.05672531761229,0 -112.1402161102742,36.05683025904,0 -112.1400882024318,36.05687166564167,0 -112.1400785632432,36.05695682577789,0 -112.1407779492438,36.05711231008172,0 
		</coordinates>
	</LineString>
	<atom:link rel="app" href="https://www.google.com/earth/about/versions/#earth-pro" title="Google Earth Pro 7.3.6.10441"></atom:link>
</Placemark>
</kml>
