<?xml version="1.0" encoding="UTF-8"?>
<kml xmlns="http://www.opengis.net/kml/2.2" xmlns:gx="http://www.google.com/kml/ext/2.2" xmlns:kml="http://www.opengis.net/kml/2.2" xmlns:atom="http://www.w3.org/2005/Atom">
<Placemark>
	<name>Track</name>
	<Style>
		<LineStyle>
			<color>ff0000ff</color>
			<width>3</width>
		</LineStyle>
	</Style>
	<LineString>
		<tessellate>1</tessellate>
		<coordinates>
			169.0717224217951,-44.67283822596073,0 169.0718281175941,-44.67332303524017,0 169.0719067398459,-44.67340081930161,0 169.0718012116849,-44.67343828640878,0 169.0718683507293,-44.67346653342247,0 169.07181202434,-44.67306604608893,0 169.0714619960636,-44.67235861346126,0 169.0719168819487,-44.67342663556337,0 169.0715189930052,-44.67319294810295,0 169.0706207882613,-44.67309697531164,0 169.0705681499094,-44.67313645407557,0 169.0707291662693,-44.67374020256102,0 169.07041920349,-44.6738260332495,0 169.0701476298273,-44.67379149980843,0 169.0698343981057,-44.673444153741,0 169.068733016029,-44.67290997505188,0 169.0688781905919,-44.673483800143,0 169.0688366163522,-44.67375646345317,0 169.0684538148344,-44.6742903906852,0 169.0684373024851,-44.67454629018903,0 169.0681771282107,-44.67463136650622,0 169.0677271876484,-44.67455919831991,0 169.0677761379629,-44.67422123998404,0 169.067519903183,-44.67381882481277,0 169.0670903306454,-44.67362034134567,0 169.0670726448298,-44.67348346486688,0 169.0667132288218,-44.67339989729226,0 169.0663277450949,-44.67312036082149,0 169.0663778688759,-44.67308113351464,0 169.0658494736999,-44.67299991287291,0 169.0660283435136,-44.6731785312295,0 169.0658796485513,-44.67369192279875,0 169.0656519122422,-44.67378739267588,0 169.064935259521,-44.67317945323884,0 169.064115928486,-44.67270386405289,0 169.0640513040125,-44.67253639362752,0 169.0639764536172,-44.67258031480014,0 169.0640837419778,-44.67302623204887,0 169.0637985058129,-44.67378806322813,0 169.0637223981321,-44.67380809597671,0 169.0636355616152,-44.6736910007894,0 169.0636250842363,-44.67352151870728,0 169.0635056421161,-44.67336930334568,0 169.0632195677608,-44.67317727394402,0 169.0631869621575,-44.67326880432665,0 169.0627639275044,-44.67346871271729,0 169.0627732314169,-44.67356963083148,0 169.0623476821929,-44.67393248341978,0 169.0619477815926,-44.6747116651386,0 169.0612262673676,-44.67539529316127,0 169.0605495963246,-44.67665618285537,0 169.0606839582324,-44.67685902491212,0 169.0605551283807,-44.67694284394383,0 169.0606724750251,-44.677146775648,0 169.060598295182,-44.67740787193179,0 169.0607104450464,-44.67809409834445,0 169.060587817803,-44.67860531061888,0 169.0604139771312,-44.67884863726795,0 169.0604230295867,-44.6790218912065,0 169.0606207586825,-44.67954693362117,0 169.0613464638591,-44.67999888584018,0 169.0614563506097,-44.6804416179657,0 169.0616906248033,-44.680828275159,0 169.0616035368294,-44.68099700286984,0 169.0611674264073,-44.68135298229754,0 169.0607292205095,-44.6815812215209,0 169.0604698844254,-44.68153411522508,0 169.0602347720414,-44.68128458596766,0 169.0598016791046,-44.68110362067819,0 169.0591069031507,-44.68143713660538,0 169.0595171134919,-44.6821216866374,0 169.0594667382538,-44.68213744461536,0 169.0595664829016,-44.68275032937527,0 169.059496326372,-44.68300539068878,0 169.0594410896301,-44.68299298547208,0 169.0595767088234,-44.68315240927041,0 169.0600042697042,-44.68337235040963,0 169.0601303335279,-44.68395313248038,0 169.0606609079987,-44.6844722237438,0 169.0606250334531,-44.68460231088102,0 169.0604091156274,-44.68478210270405,0 169.0607492532581,-44.68513389118016,0 169.0615662373602,-44.68567301519215,0 169.0616508945823,-44.68595682643354,0 169.0620077122003,-44.6863198466599,0 169.0616860147566,-44.68648815527558,0 169.0610948391259,-44.68613619916141,0 169.0604813676327,-44.68600711785257,0 169.0596216358244,-44.68592665158212,0 169.0596578456461,-44.68588071875274,0 169.0589865390211,-44.68596135266125,0 169.0589318890125,-44.68614215031266,0 169.0590082481503,-44.68641414307058,0 169.0589584596455,-44.68661539256573,0 169.0590294543654,-44.68665378168225,0 169.0589826833457,-44.68695033341646,0 169.0592313744128,-44.68746045604348,0 169.0590947493911,-44.68753631226718,0 169.058100739494,-44.68710615299642,0 169.0573209710419,-44.6869813464582,0 169.0573466196656,-44.68711042776704,0 169.0578951314092,-44.68749700114131,0 169.0583186689764,-44.688077615574,0 169.0584925096482,-44.68848631717265,0 169.0583563875407,-44.68892217613757,0 169.05757477507,-44.688775325194,0 169.0564073435962,-44.68828464858234,0 169.0561201795936,-44.68835522420704,0 169.0555991604924,-44.68819487839937,0 169.0551424305886,-44.68823553062975,0 169.0553436800838,-44.68843962997198,0 169.055997133255,-44.68873475678265,0 169.0562340058386,-44.68901177868247,0 169.0562249533832,-44.68913013115525,0 169.0560760907829,-44.68932417221367,0 169.0558778587729,-44.68939365819097,0 169.0553078893572,-44.68943506479263,0 169.0549456235021,-44.68925770372152,0 169.0547716990113,-44.68928636983037,0 169.0546761453152,-44.6893916465342,0 169.0548100881279,-44.6894952468574,0 169.0550230722874,-44.68998977914453,0 169.0549022052437,-44.69017694704235,0 169.0547784883529,-44.6900515537709,0 169.0546152926981,-44.69005323015153,0 169.0544980298728,-44.6901879273355,0 169.0546778216958,-44.69042119570076,0 169.0561453253031,-44.69105687923729,0 169.0562515240163,-44.69118093140423,0 169.0563191659749,-44.69147706404328,0 169.0566571243107,-44.69196715392172,0 169.0553530678153,-44.69159835018218,0 169.0550533309579,-44.69176548533142,0 169.0552308596671,-44.69189909286797,0 169.055193644017,-44.69198307953775,0 169.0544518455863,-44.69203345477581,0 169.0541350096464,-44.69187763519585,0 169.0537140704691,-44.69200956635177,0 169.0532787982374,-44.69175291247666,0 169.0530512295663,-44.69168342649937,0 169.0528399217874,-44.69172751531005,0 169.052408086136,-44.6915817540139,0 169.0519681200385,-44.69123549759388,0 169.0517983864993,-44.69100566580892,0 169.0511302649975,-44.69067960977554,0 169.0510710049421,-44.69032547436655,0 169.0507595334202,-44.69013344496489,0 169.0506333857775,-44.68986882828176,0 169.0499401185662,-44.68940111808479,0 169.0495377872139,-44.68934068456292,0 169.0497656073421,-44.68932190909982,0 169.0497041679919,-44.68916801735759,0 169.0498226042837,-44.68905779533088,0 169.0498351771384,-44.68857717700303,0 169.0499387774616,-44.68840174376965,0 169.0498995501548,-44.68902410008013,0 169.0497696306556,-44.68917053192854,0 169.0498303994536,-44.68923959881067,0 169.0497779287398,-44.68928972259164,0 169.0499060880393,-44.68931218609214,0 169.0500426292419,-44.68980562873185,0 169.0499091893435,-44.69030795618892,0 169.0499606542289,-44.69057391397655,0 169.0497836284339,-44.6908407099545,0 169.0497469156981,-44.69134714454412,0 169.0498092770576,-44.69159097410738,0 169.0499122068286,-44.69166372902691,0 169.0497172437608,-44.6916158683598,0 169.0490302629769,-44.69106526114047,0 169.0489378944039,-44.69047433696687,0 169.0490150079131,-44.69068841077387,0 169.0488475374877,-44.69095034524798,0 169.0487016923726,-44.69145585782826,0 169.0488155186176,-44.69211903400719,0 169.0490277484059,-44.69250317662954,0 169.0483690146357,-44.69229044392705,0 169.0476920083165,-44.69159038737416,0 169.0477493405342,-44.69162072986364,0 169.0473384596407,-44.69187151640654,0 169.045470552519,-44.69253008253872,0 169.0452853962779,-44.69275488518178,0 169.0453663654625,-44.69295018352568,0 169.0456935111433,-44.69276703894138,0 169.046033564955,-44.69286192208529,0 169.0459752269089,-44.69282621517777,0 169.04610238038,-44.69278958626091,0 169.0462574455887,-44.69291405752301,0 169.0470958035439,-44.6928609162569,0 169.0475940238684,-44.69309183768928,0 169.0480541065335,-44.69345494173467,0 169.0481009613723,-44.69342267140746,0 169.0481194853783,-44.6935501601547,0 169.0487416740507,-44.69412423670292,0 169.0489590167999,-44.6942650526762,0 169.0490741841495,-44.6942478697747,0 169.0491414070129,-44.69434970989823,0 169.0488472022116,-44.69418123364449,0 169.048988353461,-44.69426605850458,0 169.0490989945829,-44.69464299269021,0 169.0488917939365,-44.69463779591024,0 169.048573281616,-44.69442531466484,0 169.0480729658157,-44.69423521310091,0 169.0480488259345,-44.69412784092128,0 169.0481623169035,-44.69396372325718,0 169.0480591356754,-44.69373707659543,0 169.0473454166204,-44.69287700951099,0 169.047455303371,-44.69270937144756,0 169.0475195925683,-44.69233721494675,0 169.0476834587753,-44.69211920164526,0 169.0477561298758,-44.69160337932408,0 169.0478608198464,-44.69184863381088,0 169.0483439527452,-44.6923566609621,0 169.048443865031,-44.69233830459416,0 169.0489080548286,-44.6925604250282,0 169.0490039438009,-44.69250854104757,0 169.0488223917782,-44.69217712059617,0 169.0486871916801,-44.69154671765864,0 169.0488194581121,-44.69088597223163,0 169.0489597711712,-44.690733673051,0 169.0490497928113,-44.69112678430974,0 169.0491876751184,-44.69128981232643,0 169.0495421458036,-44.69156742095947,0 169.0499168168753,-44.69168895855546,0 169.049749430269,-44.69139819033444,0 169.0497368574142,-44.6910822764039,0 169.0497582312673,-44.69085831195116,0 169.049958307296,-44.69049663282931,0 169.0499112848192,-44.69028239138424,0 169.0500502567738,-44.68976673670113,0 169.0498800203204,-44.68934940174222,0 169.0505605470389,-44.68987913802266,0 169.0507756266743,-44.69009564258158,0 169.0507918875664,-44.69023419544101,0 169.0510488767177,-44.69034106470644,0 169.051205702126,-44.69074943102896,0 169.0518141444772,-44.69101555645466,0 169.0519559662789,-44.69126860611141,0 169.0524589642882,-44.69166087917984,0 169.0527745429426,-44.6917334664613,0 169.0531182847917,-44.69165777787566,0 169.05378757976,-44.69200051389635,0 169.0541003923863,-44.69186564907432,0 169.054514542222,-44.69204393215477,0 169.0552850067616,-44.69194108620286,0 169.0553130861372,-44.69187017530203,0 169.0550670772791,-44.69171083532274,0 169.0554995834827,-44.69161125831306,0 169.0566919092089,-44.69196564517915,0 169.0562964510173,-44.69139475375414,0 169.0563240274787,-44.69122711569071,0 169.0562275517732,-44.69106819480658,0 169.0547511633486,-44.69035749323666,0 169.0546109341085,-44.69014677219093,0 169.0546535979956,-44.6900309342891,0 169.0549819171429,-44.6901173517108,0 169.0550394169986,-44.69005381688476,0 169.0550349745899,-44.68974745832384,0 169.0547794103622,-44.68932568095624,0 169.0548763051629,-44.68920833431184,0 169.0554660558701,-44.68938468955457,0 169.0560316666961,-44.68931168317795,0 169.0562226902694,-44.689174387604,0 169.0562581457198,-44.68893500044942,0 169.0560045093298,-44.68870826996863,0 169.0552767924964,-44.68834206461906,0 169.0551759582013,-44.68816671520472,0 169.0557886753231,-44.68816520646214,0 169.0561383683234,-44.68829160556197,0 169.0563891548663,-44.68825606629252,0 169.0566401090473,-44.68833460472524,0 169.0566081739962,-44.68824617564678,0 169.0566066652536,-44.68835421837866,0 169.0571032091975,-44.68856175430119,0 169.0584988798946,-44.68894254416227,0 169.0584096964449,-44.68869385309517,0 169.058473566547,-44.68836645595729,0 169.0583091136068,-44.68801156617701,0 169.0578944608569,-44.68744377605617,0 169.0574035327882,-44.68712409026921,0 169.057358186692,-44.68698746524751,0 169.0583211835474,-44.68713054433465,0 169.0591611340642,-44.68749457038939,0 169.0591934882104,-44.68742835335433,0 169.0589505806565,-44.68685369007289,0 169.0590557735413,-44.68634977005422,0 169.0589804202318,-44.6860090456903,0 169.0591049753129,-44.6859223768115,0 169.0591849386692,-44.68602086417377,0 169.0591786522418,-44.68592137098312,0 169.0594319533557,-44.68583696521819,0 169.0601435769349,-44.6859657112509,0 169.060442391783,-44.68592799268663,0 169.0612644888461,-44.68614298850298,0 169.0619822312146,-44.68659108504653,0 169.0621693152934,-44.6865201741457,0 169.0616360586137,-44.68593964353204,0 169.0615510661155,-44.68563605099916,0 169.0612852759659,-44.68556229025126,0 169.0609413664788,-44.68523229472339,0 169.0606409590691,-44.68506314791739,0 169.0604894980788,-44.68484044075012,0 169.060468710959,-44.68471764586866,0 169.0606201719493,-44.68446359038353,0 169.0603123046458,-44.68424616381526,0 169.0601112227887,-44.68394692987204,0 169.0599000826478,-44.68329037539661,0 169.0595408342779,-44.68306414783001,0 169.0595083124936,-44.68218069523573,0 169.0591853577644,-44.68144476413727,0 169.0598500426859,-44.68106288462877,0 169.0601428225636,-44.6811686642468,0 169.0604734886438,-44.68148876912892,0 169.0607686992735,-44.68157468363643,0 169.061488872394,-44.68121074140072,0 169.0616009384394,-44.68121870420873,0 169.0616435185075,-44.68140805140138,0 169.0617622900754,-44.68148625455797,0 169.0618834923953,-44.68150838278234,0 169.0619332809001,-44.68144426122308,0 169.0618995018303,-44.68113739974797,0 169.0615845937282,-44.68069609254599,0 169.0613120980561,-44.67996275983751,0 169.0606473293155,-44.67951935715973,0 169.0604680404067,-44.67897495254874,0 169.0607074275613,-44.67802444472909,0 169.0605884045362,-44.67745539732277,0 169.0605941042304,-44.67697125859559,0 169.0606867242604,-44.67686422169209,0 169.0605805255473,-44.67666263692081,0 169.0612456295639,-44.67538037337363,0 169.0619592648,-44.67466833069921,0 169.0619944687933,-44.67417287640274,0 169.0619279164821,-44.67383424751461,0 169.0625024959445,-44.67355035245419,0 169.0627958625555,-44.6735273860395,0 169.0632990282029,-44.67317786067724,0 169.063584767282,-44.67338304966688,0 169.06379356049,-44.6738033182919,0 169.0640233084559,-44.67326637357473,0 169.0639766212553,-44.67267343774438,0 169.0640336181968,-44.67263521626592,0 169.063962539658,-44.67254159040749,0 169.0640725940466,-44.67250890098512,0 169.0642549004406,-44.67271685600281,0 169.0652600582689,-44.67336100526154,0 169.0656951628625,-44.67379895970225,0 169.0658458694816,-44.67375302687287,0 169.0658810734749,-44.67361338436604,0 169.0659178700298,-44.67312639579177,0 169.0658544190228,-44.67295557260513,0 169.0666114725173,-44.67321507632732,0 169.0668757539243,-44.67346091754735,0 169.0676061529666,-44.67390121892095,0 169.0678509045392,-44.67422819696367,0 169.0678465459496,-44.67454377561808,0 169.0680172014982,-44.67465424910188,0 169.0681395772845,-44.67464117333293,0 169.068405367434,-44.67453815974295,0 169.068397488445,-44.67427748255432,0 169.068756904453,-44.67374456115067,0 169.0687007457018,-44.67285674996674,0 169.0696375072002,-44.67326746322215,0 169.0702376514673,-44.67381245456636,0 169.0705779567361,-44.67378932051361,0 169.070717766881,-44.67364314012229,0 169.0705503802747,-44.67329923063517,0 169.0705738496035,-44.67309077270329,0 169.0714353416115,-44.67317023314536,0 169.0718696918339,-44.67345161363482,0 169.0716436319053,-44.67264041304588,0 169.07146576792,-44.67236917465925,0 
		</coordinates>
	</LineString>
	<atom:link rel="app" href="https://www.google.com/earth/about/versions/#earth-pro" title="Google Earth Pro 7.3.7.1155"></atom:link>
</Placemark>
</kml>
