<?xml version="1.0" encoding="UTF-8"?>
<kml xmlns="http://www.opengis.net/kml/2.2" xmlns:gx="http://www.google.com/kml/ext/2.2" xmlns:kml="http://www.opengis.net/kml/2.2" xmlns:atom="http://www.w3.org/2005/Atom">
<Placemark>
	<name>Track</name>
	<Style>
		<LineStyle>
			<color>ff0000ff</color>
			<width>3</width>
		</LineStyle>
	</Style>
	<LineString>
		<tessellate>1</tessellate>
		<coordinates>
			175.5135432444513,-39.17550399899483,0 175.5135460104793,-39.17549058794975,0 175.513566378504,-39.17541506700218,0 175.5135862436146,-39.17539226822555,0 175.5136305838823,-39.17534558102489,0 175.5136424861848,-39.17534030042589,0 175.5136882513762,-39.1753154899925,0 175.5136973038316,-39.17530585080385,0 175.5137331783772,-39.17524592019618,0 175.5137323401868,-39.17523510754108,0 175.5137615092099,-39.17517995461822,0 175.513782883063,-39.17513435706496,0 175.5137957911938,-39.17510996572673,0 175.513835772872,-39.17505766265094,0 175.5138506088406,-39.17501986026764,0 175.5138460826129,-39.17500142008066,0 175.5138455796987,-39.17499396018684,0 175.5138496030122,-39.17498532682657,0 175.5138525366783,-39.17497258633375,0 175.5138684622943,-39.17494702152908,0 175.5138742458075,-39.17493310756981,0 175.5138900876045,-39.17489882558584,0 175.5139100365341,-39.17485104873776,0 175.5139224417508,-39.17481257580221,0 175.513933505863,-39.17478047311306,0 175.5139527842402,-39.17475960217416,0 175.5139761697501,-39.17472607456148,0 175.5139843001962,-39.17470562271774,0 175.5139965377748,-39.17465600185096,0 175.5140008963645,-39.17464376427233,0 175.5140122119337,-39.17460654862225,0 175.5140073504299,-39.17458173818886,0 175.5140143074095,-39.17455818504095,0 175.5140138044953,-39.174550389871,0 175.5140125472099,-39.17453379370272,0 175.5140165705234,-39.17452163994312,0 175.5140203423798,-39.17450973764062,0 175.5140252038836,-39.17448794469237,0 175.5140379443765,-39.17440119199455,0 175.5140428896993,-39.17437822557986,0 175.5140583124012,-39.17433388531208,0 175.5140566360205,-39.17430530302227,0 175.5140644311905,-39.17426900938153,0 175.5140676163137,-39.17425618506968,0 175.5140766687691,-39.17420723475516,0 175.5140412133187,-39.17415627278388,0 175.5140327475965,-39.17414587922394,0 175.5140444822609,-39.17414520867169,0 175.5140488408506,-39.17414805851877,0 175.5140795186162,-39.17416943237185,0 175.5140906665474,-39.17418334633112,0 175.5140978749841,-39.17418912984431,0 175.514118578285,-39.17420757003129,0 175.5141485016793,-39.17421125806868,0 175.5141698755324,-39.17421310208738,0 175.5141938477755,-39.17417253367603,0 175.514213880524,-39.17412810958922,0 175.5142392776906,-39.17401009239256,0 175.5142431333661,-39.17398151010275,0 175.5142572149634,-39.17388428002596,0 175.514258723706,-39.17386936023831,0 175.514263920486,-39.1737958509475,0 175.5142689496279,-39.17372720316052,0 175.5142774153501,-39.17369954288006,0 175.5142889823765,-39.17365905828774,0 175.5143177323043,-39.17357943020761,0 175.5143310595304,-39.17352595366538,0 175.5143324844539,-39.17348194867373,0 175.514327371493,-39.17345252819359,0 175.5143268685788,-39.17343785986304,0 175.5143269523978,-39.17341019958258,0 175.5143251921982,-39.17335672304034,0 175.5143249407411,-39.17333417572081,0 175.5143205821514,-39.1733159031719,0 175.5143270362169,-39.1733071859926,0 175.5143370106816,-39.17329578660429,0 175.5143525172025,-39.17328690178692,0 175.5143938399851,-39.17327893897891,0 175.514446394518,-39.17326301336288,0 175.5144550278783,-39.17326083406806,0 175.5144691094756,-39.17325303889811,0 175.5145026370883,-39.17323946021497,0 175.5145271960646,-39.1732154879719,0 175.514544127509,-39.17318070307374,0 175.5145671777427,-39.17310551740229,0 175.5145719554275,-39.17306595481932,0 175.5145608074963,-39.17303284630179,0 175.5145499948412,-39.17302471585572,0 175.5145460553467,-39.17302739806473,0 175.5145540181547,-39.17303083464503,0 175.5145605560392,-39.17303494177759,0 175.5145709495991,-39.17303871363401,0 175.5145831033587,-39.1730497777462,0 175.5145934969187,-39.17305698618293,0 175.5146073270589,-39.17305924929678,0 175.5146147869527,-39.17305614799261,0 175.5146268568933,-39.17305287905037,0 175.5146283656359,-39.17305983603001,0 175.5146483145654,-39.17305891402066,0 175.5146568641067,-39.17305522598326,0 175.5146766453981,-39.17304743081331,0 175.5146751366556,-39.17303712107241,0 175.5146707780659,-39.17301960289478,0 175.5146611388773,-39.17303125374019,0 175.5146364960819,-39.17304391041398,0 175.5146205704659,-39.17302664369345,0 175.5146300420165,-39.17300887405872,0 175.5146297067404,-39.17300677858293,0 175.5146323889494,-39.17299286462367,0 175.5146297067404,-39.17299646884203,0 175.5146264377981,-39.17299672029912,0 175.5146349873394,-39.17299278080463,0 175.5146426986903,-39.17299211025238,0 175.5146495718509,-39.17299931868911,0 175.5146478116512,-39.17300007306039,0 175.5146529246122,-39.17299806140363,0 175.5146607197821,-39.17298976331949,0 175.5146930739284,-39.1730206925422,0 175.5147003661841,-39.17302194982767,0 175.514750406146,-39.1730154119432,0 175.514755435288,-39.1730133164674,0 175.5147603806108,-39.17301038280129,0 175.5147576145828,-39.1730117239058,0 175.5147535912693,-39.17300946079195,0 175.5147383362055,-39.17302186600864,0 175.5147278588265,-39.17302832007408,0 175.5147320497781,-39.17302966117859,0 175.5147468857467,-39.17302748188376,0 175.5147727858275,-39.17302798479795,0 175.5148420203477,-39.17302781715989,0 175.5148426070809,-39.17302723042667,0 175.5148339737207,-39.17302999645472,0 175.5148554313928,-39.17303167283535,0 175.5148912221193,-39.17297903448343,0 175.5148901324719,-39.17298431508243,0 175.5148975085467,-39.1729895118624,0 175.5149021185935,-39.17299018241465,0 175.514908740297,-39.17298750020564,0 175.5149119254202,-39.17298280633986,0 175.5149190500379,-39.17294416576624,0 175.5149343889207,-39.17292539030313,0 175.5149316228926,-39.17292807251215,0 175.5149367358536,-39.17297660373151,0 175.5149343889207,-39.1729895118624,0 175.5149210616946,-39.17298020794988,0 175.5149187985808,-39.17298733256757,0 175.5148856062442,-39.17298750020564,0 175.5148468818516,-39.17299554683268,0 175.5148499831557,-39.17298682965338,0 175.5148289445788,-39.17297945357859,0 175.5148194730282,-39.17298171669245,0 175.5148061458021,-39.17297953739762,0 175.5147929023951,-39.17297928594053,0 175.5147886276245,-39.17298188433051,0 175.5147854425013,-39.17298356071115,0 175.51478728652,-39.17298800311983,0 175.514818970114,-39.17299018241465,0 175.5148472171277,-39.17299814522266,0 175.5148684233427,-39.17300686240196,0 175.5148959159851,-39.17301775887609,0 175.5149184633046,-39.17301775887609,0 175.514921983704,-39.17301775887609,0 175.5149231571704,-39.17301775887609,0 175.5149214807898,-39.17301708832383,0 175.5149181280285,-39.17301625013351,0 175.5147143639624,-39.17294969782233,0 175.5146926548332,-39.17295916937292,0 175.5146633181721,-39.17297325097024,0 175.5146451294422,-39.17296612635255,0 175.5146328918636,-39.17296185158193,0 175.5145745538175,-39.17296444997191,0 175.5145553592592,-39.17295020073652,0 175.5145515874028,-39.17295162566006,0 175.5145420320332,-39.17294969782233,0 175.5145281180739,-39.17291030287743,0 175.514528369531,-39.17289043776691,0 175.5145190656185,-39.17286152020097,0 175.5144978594035,-39.17281751520932,0 175.5144937522709,-39.17280410416424,0 175.5144635774195,-39.17275724932551,0 175.5144506692886,-39.17274761013687,0 175.5144375935197,-39.17274123989046,0 175.5144182313234,-39.17273034341633,0 175.5143763218075,-39.17268600314856,0 175.5143736395985,-39.17267804034054,0 175.5143748130649,-39.17266362346709,0 175.5143769085407,-39.17265348136425,0 175.5143755674362,-39.17264074087143,0 175.5143781658262,-39.17263059876859,0 175.5143757350743,-39.17261358350515,0 175.5143689457327,-39.17258466593921,0 175.5143531039357,-39.17256806977093,0 175.5143567919731,-39.17256169952452,0 175.5143576301634,-39.17256714776158,0 175.5143614858389,-39.17258248664439,0 175.5143687780946,-39.17258759960532,0 175.514377662912,-39.17259321548045,0 175.5143811833113,-39.17259648442268,0 175.5143948458135,-39.17261316441,0 175.5143978632987,-39.17262934148312,0 175.5144046526402,-39.17264996096492,0 175.5144082568586,-39.17266739532351,0 175.5144194047898,-39.17268063873053,0 175.5144229251891,-39.17269312776625,0 175.5144478194416,-39.17269078083336,0 175.514480592683,-39.17268759571016,0 175.5144845321774,-39.17270008474588,0 175.5144791677594,-39.17270192876458,0 175.5144940875471,-39.17269941419363,0 175.5145090911537,-39.17270670644939,0 175.5145253520459,-39.17270846664906,0 175.5145452171564,-39.17271299287677,0 175.514533482492,-39.17270687408745,0 175.5145365837961,-39.17269832454622,0 175.5145430378616,-39.17270109057426,0 175.514552174136,-39.17269648052752,0 175.5145724583417,-39.17267041280866,0 175.5145765654743,-39.17264157906175,0 175.5146088358015,-39.17263110168278,0 175.5146167986095,-39.17262976057827,0 175.5146487336606,-39.17263680137694,0 175.5146807525307,-39.1726491227746,0 175.5146834347397,-39.17264987714589,0 175.5145645793527,-39.17266714386642,0 175.5145564489067,-39.17267141863704,0 175.5145622324198,-39.17269321158528,0 175.5145455524325,-39.17268985882401,0 175.5145333986729,-39.17268918827176,0 175.5145168863237,-39.17268918827176,0 175.5144914891571,-39.17269270867109,0 175.5144655052572,-39.17269396595657,0 175.5144673492759,-39.17268860153854,0 175.5144915729761,-39.17267301119864,0 175.51453624852,-39.17265172116458,0 175.5145320575684,-39.17265658266842,0 175.514552006498,-39.17265825904906,0 175.5145489051938,-39.17265591211617,0 175.5145210772753,-39.17261869646609,0 175.5144619010389,-39.17261249385774,0 175.5144267808646,-39.1726181935519,0 175.5144186504185,-39.17261626571417,0 175.5143968574703,-39.17259505949914,0 175.5143647547811,-39.17257569730282,0 175.5143598094583,-39.17257418856025,0 175.5143305566162,-39.17256287299097,0 175.5143212527037,-39.17256329208612,0 175.5143189895898,-39.17256262153387,0 175.5143344122916,-39.17257938534021,0 175.5143329873681,-39.17259011417627,0 175.5143375974149,-39.17260067537427,0 175.5143389385194,-39.17260687798262,0 175.5143593065441,-39.17261852882802,0 175.514372382313,-39.17263344861567,0 175.5143684428185,-39.17265121825039,0 175.5143572110683,-39.17266747914255,0 175.5143679399043,-39.17269480414689,0 175.5143838655204,-39.1727146692574,0 175.5144089274108,-39.17272062040865,0 175.5144156329334,-39.17274216189981,0 175.514414627105,-39.1727476939559,0 175.5144240148365,-39.17278633452952,0 175.5144362524152,-39.17281005531549,0 175.5144526809454,-39.17286059819162,0 175.5144396051764,-39.17289135977626,0 175.5144564528018,-39.17292044498026,0 175.5144580453634,-39.17292991653085,0 175.5144613143057,-39.17293712496758,0 175.5144762340933,-39.17295590043068,0 175.5145083367825,-39.17298791930079,0 175.5145092587918,-39.17300795204937,0 175.5145135335624,-39.17303041554987,0 175.5145175568759,-39.17305028066039,0 175.5145214963704,-39.17310811579227,0 175.5145159643143,-39.17313502170146,0 175.5145128630102,-39.17314407415688,0 175.5145075824112,-39.17315228842199,0 175.51449383609,-39.17315958067775,0 175.5144764017314,-39.17318489402533,0 175.5144817661494,-39.17320216074586,0 175.5144494958222,-39.17320878244936,0 175.5144091788679,-39.17321372777224,0 175.5143795907497,-39.17324231006205,0 175.5143522657454,-39.17330827564001,0 175.5143470689654,-39.17334213852882,0 175.5143493320793,-39.17335135862231,0 175.5143494997174,-39.17337675578892,0 175.5143452249467,-39.17340776883066,0 175.5143388547003,-39.17340986430645,0 175.5143423750997,-39.17341757565737,0 175.5143378488719,-39.17344850488007,0 175.5143282096833,-39.1735003888607,0 175.5143306404352,-39.17351271025836,0 175.5143228452653,-39.1735352575779,0 175.5143231805414,-39.17354950681329,0 175.5143199954182,-39.17356048710644,0 175.5143073387444,-39.17358580045402,0 175.5143018066883,-39.1735971160233,0 175.5142540298402,-39.17363374494016,0 175.5142567120492,-39.17364866472781,0 175.5142531078309,-39.17365469969809,0 175.5142579693347,-39.1736629139632,0 175.5142469052225,-39.17369669303298,0 175.5142433848232,-39.17370331473649,0 175.5142411217093,-39.17371463030577,0 175.5142512638122,-39.17377715930343,0 175.5142588913441,-39.17380725033581,0 175.5142547003925,-39.17387221008539,0 175.5142652615905,-39.17391194030643,0 175.514266518876,-39.17394345626235,0 175.5142619926482,-39.17395795695484,0 175.5142657645047,-39.17397321201861,0 175.5142813548446,-39.17404144071043,0 175.5142729729414,-39.17408854700625,0 175.5142769962549,-39.1740997787565,0 175.5142818577588,-39.17413825169206,0 175.5142674408853,-39.17416884563863,0 175.5142404511571,-39.17417731136084,0 175.5142277106643,-39.17417814955115,0 175.5142174009234,-39.17417680844665,0 175.5141850467771,-39.17419550009072,0 175.5141800176352,-39.17419415898621,0 175.5141749046743,-39.17419223114848,0 175.5141693726182,-39.17419415898621,0 175.5141297262162,-39.17421452701092,0 175.5141146387905,-39.17420916259289,0 175.5140858050436,-39.17413984425366,0 175.5140441469848,-39.17411746457219,0 175.5140304006636,-39.17411134578288,0 175.5140225216746,-39.17411427944899,0 175.514023611322,-39.17414780706167,0 175.5140241142362,-39.17415602132678,0 175.5140345916152,-39.17418376542628,0 175.5140337534249,-39.17420547455549,0 175.514031490311,-39.17421419173479,0 175.5140346754342,-39.17422726750374,0 175.5140329152346,-39.17428677901626,0 175.5140303168446,-39.174331035465,0 175.5140214320272,-39.17435282841325,0 175.514018330723,-39.17438358999789,0 175.5140108708292,-39.17440814897418,0 175.5140046682209,-39.17442256584764,0 175.514002405107,-39.17444787919521,0 175.5139899998903,-39.17451996356249,0 175.5139878205955,-39.17455558665097,0 175.5139775108546,-39.17460772208869,0 175.5139709729701,-39.17469589971006,0 175.5139394570142,-39.17476563714445,0 175.5139329191297,-39.17477276176214,0 175.5139275547117,-39.17477544397116,0 175.5139243695885,-39.174780305475,0 175.513917747885,-39.17480553500354,0 175.513912467286,-39.17482087388635,0 175.5138985533267,-39.1748593468219,0 175.5138843879104,-39.17491357773542,0 175.5138680431992,-39.17494400404394,0 175.5138651933521,-39.17495146393776,0 175.5138319171965,-39.17499957606196,0 175.513814734295,-39.17502178810537,0 175.5137941986322,-39.17506503872573,0 175.5137922707945,-39.17507601901889,0 175.5137887503952,-39.17508934624493,0 175.5137825477868,-39.17510267347097,0 175.5137730762362,-39.17513435706496,0 175.5137704778463,-39.17515053413808,0 175.5137628503144,-39.17516059242189,0 175.513674505055,-39.17523946613073,0 175.5136063601822,-39.17530392296612,0 175.5135801248252,-39.17533678002656,0 175.5135599244386,-39.17538941837847,0 175.5135422386229,-39.17542504146695,0 
		</coordinates>
	</LineString>
	<atom:link rel="app" href="https://www.google.com/earth/about/versions/#earth-pro" title="Google Earth Pro 7.3.7.1155"></atom:link>
</Placemark>
</kml>
