<?xml version="1.0" encoding="UTF-8"?>
<kml xmlns="http://www.opengis.net/kml/2.2" xmlns:gx="http://www.google.com/kml/ext/2.2" xmlns:kml="http://www.opengis.net/kml/2.2" xmlns:atom="http://www.w3.org/2005/Atom">
<Placemark>
	<name>track</name>
	<Style>
		<LineStyle>
			<color>ff0000ff</color>
			<width>4</width>
		</LineStyle>
	</Style>
	<MultiGeometry>
		<LineString>
			<coordinates>
				171.722410870716,-43.23353486135602,754.8 171.7224100325257,-43.23353460989892,754.8 171.7223973758519,-43.23352413251996,754.8 171.722387066111,-43.23351600207388,754.8 171.7223756667227,-43.23350912891328,754.8 171.7223644349724,-43.23350108228624,757.41 171.7223518621176,-43.23349219746888,756.16 171.7222871538252,-43.23344768956304,759.51 171.7221296578646,-43.23342966847122,758.97 171.7219812143594,-43.23341625742614,758.87 171.7219648696482,-43.23341650888324,758.6799999999999 171.7219251394272,-43.23340720497072,758.4400000000001 171.7217878438532,-43.2333371322602,758.91 171.7217124067247,-43.23323294520378,759.75 171.7216353770345,-43.233064385131,759.01 171.7215506359935,-43.23291803710163,758.24 171.7215035296977,-43.23283103294671,758.13 171.7214897833765,-43.23278694413602,757.2 171.7214822396636,-43.23278878815472,756.8099999999998 171.7214680742472,-43.23279172182083,756.76 171.7214402463287,-43.23279029689729,756.34 171.7214101552963,-43.23277588002384,756.39 171.7213959060609,-43.23276582174003,756.4799999999999 171.7212014459074,-43.23266305960715,756.62 171.7210623901337,-43.23258544318378,755.86 171.7209331411868,-43.2325241714716,755.9 171.7207692749798,-43.23244370520115,756.5700000000001 171.7206053249538,-43.23239659890532,754.92 171.720423437655,-43.23229568079114,755.22 171.7202444002032,-43.23219208046794,755.01 171.7200503591448,-43.23207724839449,754.4299999999999 171.7200102098286,-43.2320355065167,753.78 171.720011131838,-43.23203676380217,753.73 171.7200162447989,-43.23203642852604,753.37 171.7200179211795,-43.2320368476212,753.65 171.7200177535415,-43.23203751817346,753.67 171.7200074438006,-43.23203567415476,753.3499999999999 171.7199612595141,-43.23202511295676,753.16 171.7199432384223,-43.23201823979616,753.16 171.7199242115021,-43.23201052844524,753.17 171.7196883447468,-43.23189594782889,752.64 171.719567310065,-43.23182009160519,752.1 171.7195573356003,-43.23181673884392,751.61 171.7195424996316,-43.23181078769267,751.59 171.7195272445679,-43.23180290870368,751.5599999999999 171.7195108998567,-43.23179553262889,751.48 171.7194943036884,-43.23178807273507,751.34 171.719477456063,-43.23177994228899,751.29 171.7192662321031,-43.23167156428099,751.0599999999999 171.7191116698086,-43.23161708191037,751.3200000000001 171.7191044613719,-43.23160626925528,751.3200000000001 171.7191104125232,-43.23159168474376,751.78 171.7190754599869,-43.23159562423825,751.83 171.7190590314567,-43.23159394785762,751.76 171.7190433572978,-43.23158858343959,751.65 171.719028102234,-43.23158070445061,751.54 171.7190137691796,-43.23157190345228,751.49 171.7189991846681,-43.23156301863492,751.45 171.7189838457853,-43.23155404999852,751.4299999999999 171.7188255116343,-43.23146763257682,752.1900000000001 171.7186990287155,-43.23140510357916,752.1 171.7185422033072,-43.23134534060955,752.54 171.7183481622487,-43.23123369365931,752.3 171.7182547878474,-43.23118675500154,752.3 171.7181501816958,-43.23113839142025,752.28 171.7181114573032,-43.2311319373548,752.27 171.7181021533906,-43.23112053796649,752.26 171.7180906701833,-43.2311129104346,752.3099999999999 171.7180782649666,-43.23110528290272,752.33 171.7180650215596,-43.23109740391374,752.34 171.7180505208671,-43.23109002783895,752.35 171.7180358525366,-43.23108256794512,752.34 171.7180216871202,-43.23107452131808,752.3200000000001 171.7178434878588,-43.23098357766867,751.7 171.7176716588438,-43.2309059612453,752.47 171.7175093013793,-43.23082717135549,753.01 171.7174508795142,-43.23080009780824,753.6799999999998 171.7174366302788,-43.23079171590507,753.72 171.7174232192338,-43.23078433983028,753.72 171.7174088023603,-43.23077721521258,753.7 171.7173944693059,-43.23077025823295,753.6900000000001 171.7173819802701,-43.23076254688203,753.6900000000001 171.7173717543483,-43.23075265623629,753.7 171.717360522598,-43.23074259795249,753.76 171.71734736301,-43.23073446750641,753.85 171.7173336166888,-43.23072658851743,753.98 171.7171652242541,-43.2306297775358,755.37 171.7170119192451,-43.23055593296885,754.03 171.7168466281146,-43.23047932237387,754.02 171.7167762201279,-43.23044219054282,754.02 171.7167275212705,-43.23041243478656,757.15 171.7166030500084,-43.23031973093748,758.5 171.7165132798254,-43.23027698323131,761.16 171.7163869645447,-43.23027606122196,760.29 171.7163816839457,-43.23027128353715,759.86 171.7163722123951,-43.23026223108172,759.83 171.7163631599396,-43.23025166988373,759.8099999999999 171.7163570411503,-43.23024119250476,759.83 171.7163545265794,-43.23022996075451,759.97 171.7163528501987,-43.23021814227104,760.1799999999999 171.7162763234228,-43.23013071902096,761.37 171.716232066974,-43.23007984086871,762.42 171.7162195779383,-43.23006793856621,763.0599999999999 171.7162078432739,-43.230059472844,763.1 171.716197701171,-43.23005042038858,763.13 171.7161697056144,-43.22993994690478,763.96 171.7161705438048,-43.22980223223567,765.67 171.716247741133,-43.22969636879861,766.49 171.7162851244211,-43.22965211234987,767.2599999999999 171.7162963561714,-43.22963425889611,768.27 171.7163019720465,-43.22962403297424,768.27 171.7163081746548,-43.22961296886206,768.25 171.7163582984358,-43.22948045097291,768.89 171.7163677699864,-43.22946527972817,769.66 171.7163751460612,-43.22945589199662,769.76 171.7163836117834,-43.22944566607475,769.88 171.7163895629346,-43.22943502105772,770.22 171.7163928318769,-43.22942362166941,770.3 171.7164199054241,-43.22932370938361,770.72 171.7164269462228,-43.22931507602334,770.72 171.7164707835764,-43.22923444211483,770.72 171.716469777748,-43.22917417623103,771.03 171.716469861567,-43.22917643934488,772.48 171.7164743039757,-43.22916579432786,772.13 171.7164779081941,-43.22915439493954,772.1 171.7164819315076,-43.22914190590382,772.08 171.7164879664779,-43.22913000360131,772.08 171.7164965998381,-43.22911961004138,772.08 171.7165073286742,-43.22910930030048,772.08 171.7166128568351,-43.22895515710115,771.5199999999999 171.7166391760111,-43.22894015349448,771.5 171.7166395112872,-43.22894291952252,771.24 171.7166406009346,-43.22894409298897,770.42 171.7166353203356,-43.22892506606877,770.66 171.716641690582,-43.22891333140433,770.73 171.7166484799236,-43.22890075854957,770.86 171.7166520003229,-43.22888650931418,771 171.7166536767036,-43.22887184098363,771.1 171.7166652437299,-43.22876203805208,771.5599999999999 171.7166661657393,-43.2286505587399,771.5599999999999 171.716636326164,-43.22859599255025,771.5599999999999 171.716631129384,-43.22858509607613,773.14 171.7165953386575,-43.2285350561142,776.26 171.7165882978588,-43.22853899560869,778.23 171.7165831848979,-43.2285366486758,779.0599999999999 171.7165896389633,-43.2285519875586,778.85 171.7165816761553,-43.22852944023907,778.59 171.7165815923363,-43.22851728647947,778.5700000000001 171.7165820952505,-43.22850446216762,778.53 171.7165841907263,-43.22849113494158,778.46 171.7165877111256,-43.22847764007747,778.4 171.7166403494775,-43.22839206084609,777.12 171.7166556883603,-43.22837932035327,777.37 171.7166817560792,-43.22836708277464,778.62 171.7166951671243,-43.22835962288082,778.59 171.7167105898261,-43.22834973223507,778.5700000000001 171.7167249228805,-43.22833858430386,778.5599999999999 171.7167359869927,-43.22832735255361,778.5700000000001 171.7167433630675,-43.22831662371755,778.5700000000001 171.7167496494949,-43.22830572724342,778.6 171.716794911772,-43.22824722155929,779.3999999999999 171.716778986156,-43.22825501672924,779.51 171.7167808301747,-43.22826063260436,781.08 171.716763228178,-43.22826163843274,781.28 171.716697094962,-43.22835417464375,780.4499999999999 171.7167276050895,-43.22835073806345,779.5799999999999 171.7167777288705,-43.2284193020314,777.05 171.716797426343,-43.22842265479267,776.11 171.7168088257313,-43.22841636836529,775.72 171.7168311215937,-43.22839030064642,774.3199999999999 171.7168577760458,-43.22832617908716,773.91 171.7168630566448,-43.22829248383641,774.83 171.716866157949,-43.22828141972423,774.88 171.7168716900051,-43.22827069088817,774.89 171.7168788146228,-43.2282602135092,774.9299999999999 171.7168549261987,-43.22820589877665,774.64 171.7168536689132,-43.22820673696697,773.99 171.7168415151536,-43.22815409861505,773.6900000000001 171.7168443650007,-43.22814395651221,773.24 171.7168339714408,-43.22813666425645,772.3099999999999 171.7168244160712,-43.22812819853425,771.86 171.7168156150728,-43.22810749523342,771.48 171.7168117593974,-43.22809626348317,771.0700000000001 171.7167738731951,-43.22808302007616,770.36 171.7167998570949,-43.22805158793926,769.03 171.7167886253446,-43.22804756462574,767.5 171.7168110050261,-43.22801940143108,767.9 171.7168204765767,-43.22801018133759,767.9 171.7168287746608,-43.22800523601472,767.33 171.7168306186795,-43.22800179943442,768.0700000000001 171.7168342228979,-43.22800037451088,767.29 171.7167678382248,-43.22810573503375,770.36 171.7167456261814,-43.22808687575161,769.4 171.7167145293206,-43.22807086631656,769.09 171.7166228312999,-43.22807975113392,768.28 171.7165874596685,-43.22804060764611,768.74 171.7165999487042,-43.22801529429853,768.27 171.7165848612785,-43.22799970395863,767.58 171.716522583738,-43.22796952910721,765.72 171.7164921574295,-43.22794362902641,765.6 171.7164838593453,-43.22793113999069,765.59 171.7164794169366,-43.22792250663042,765.59 171.7164758965373,-43.22791437618434,765.53 171.7164277005941,-43.22789979167283,764.76 171.7164325620979,-43.22788713499904,763.28 171.7164147086442,-43.22784815914929,761.02 171.7163289617747,-43.227823600173,759.49 171.7163069173694,-43.22780993767083,758.49 171.7162176501006,-43.22777892462909,756.28 171.7162116151303,-43.22776610031724,756 171.7162094358355,-43.22774891741574,754.5700000000001 171.7162111122161,-43.22774916887283,754.63 171.7162123695016,-43.22774983942509,754.4799999999999 171.71621597372,-43.22774874977767,754.51 171.7162143811584,-43.22775729931891,754.34 171.7161984555423,-43.22775419801474,754.33 171.7161575518548,-43.22771052829921,753.2 171.7161565460265,-43.22770734317601,751.14 171.7161598149687,-43.22769024409354,751.15 171.7162780836225,-43.2275904994458,748.65 171.7163070850074,-43.22752377949655,748.2 171.7163187358528,-43.22753023356199,747.92 171.7163181491196,-43.22752914391458,747.86 171.716297948733,-43.22751933708787,747.9299999999999 171.7162850406021,-43.22751330211759,747.9599999999999 171.7162708751857,-43.22750550694764,747.98 171.71625578776,-43.2274972088635,747.95 171.7162042390555,-43.22747834958136,747.01 171.7160874791443,-43.22743928991258,746.95 171.7160851322114,-43.22743937373161,748.35 171.7160583939403,-43.22742990218103,748.67 171.7160462401807,-43.22742353193462,748.6900000000001 171.7160325776786,-43.22741900570691,748.6799999999999 171.7159744072706,-43.22739612311125,748.8099999999999 171.7159578949213,-43.22740978561342,748.62 171.7159635107964,-43.22740609757602,749.1599999999999 171.7159547936171,-43.22741691023111,749.28 171.7159574758261,-43.2274332549423,749.38 171.7159662768245,-43.2274385355413,749.46 171.7159670311958,-43.22740199044347,749.6 171.7159361019731,-43.22737751528621,749.47 171.7158074397594,-43.22729084640741,749.12 171.7156574036926,-43.2272191811353,746.96 171.7155103012919,-43.22719981893897,749.53 171.7154137417674,-43.22718280367553,750.12 171.7153874225914,-43.22717911563814,749.86 171.7153480276465,-43.22719034738839,749.99 171.7152922879905,-43.22722152806818,750.85 171.7152891866863,-43.22721197269857,751.05 171.7152681481093,-43.22718213312328,751.51 171.7152551561594,-43.22717458941042,751.58 171.715240906924,-43.22716746479273,751.62 171.7152257356793,-43.22716176509857,751.67 171.7152100615203,-43.2271552272141,751.7 171.7151940520853,-43.22714860551059,751.7 171.7151772882789,-43.22714399546385,751.6900000000001 171.7151601053774,-43.22714114561677,751.67 171.7151445150375,-43.22713854722679,751.61 171.7151296790689,-43.22713561356068,751.54 171.7151134181768,-43.2271346077323,751.5 171.7150970734656,-43.22713511064649,751.5 171.7150433454663,-43.22713737376034,752.2 171.7150652222335,-43.22710510343313,752.64 171.7150759510696,-43.22709864936769,752.15 171.7150968220085,-43.2270791195333,752.47 171.7151040304452,-43.22706788778305,752.51 171.71511400491,-43.22705699130893,752.52 171.7151241470128,-43.2270463462919,752.5599999999999 171.7151317745447,-43.2270344439894,752.58 171.7151384800673,-43.22702195495367,752.58 171.7151440121233,-43.22701047174633,752.53 171.7151469457895,-43.22699940763414,752.3099999999999 171.715137725696,-43.22695925831795,750.91 171.7151838261634,-43.22696252726018,750.89 171.7151972372085,-43.22695875540376,751 171.7152126599103,-43.22695154696703,751.22 171.7152522224933,-43.22690226137638,748.77 171.7152511328459,-43.22690108790994,748.5599999999999 171.7152491211891,-43.22689916007221,751.13 171.715227747336,-43.22689765132964,750.9299999999999 171.7152114864439,-43.22689631022513,750.92 171.715103359893,-43.22689010761678,749.9599999999999 171.715090116486,-43.22688273154199,749.51 171.7150803096592,-43.22687233798206,749.28 171.7150723468512,-43.22685993276536,749.21 171.7149639688432,-43.2267059572041,750.78 171.714889286086,-43.22665122337639,751.13 171.7148779705167,-43.22663471102715,750.78 171.7148307804018,-43.22652256116271,750.01 171.7147821653634,-43.2264400832355,749.0599999999999 171.7147772200406,-43.22643203660846,746.86 171.7147883679718,-43.22645642794669,750.95 171.714791636914,-43.22645634412766,752.64 171.7148137651384,-43.22645299136639,752.77 171.7148441914469,-43.22644838131964,752.23 171.7148835863918,-43.22643019258976,751.26 171.7148690856993,-43.22644729167223,750.3 171.7148580215871,-43.22652281261981,750.25 171.7148864362389,-43.22657402604818,750.36 171.7149331234396,-43.22666924446821,749.86 171.7149619571865,-43.22669237852097,749.77 171.7150768730789,-43.22683336213231,749.76 171.7151178605855,-43.2268790435046,750.6900000000001 171.7151697445661,-43.22688071988523,750.71 171.7151905316859,-43.22688432410359,750.77 171.7152088880539,-43.22688717395067,750.8099999999998 171.7152247298509,-43.22688541375101,750.83 171.7152439244092,-43.22688415646553,750.85 171.7152662202716,-43.22688516229391,750.85 171.7153509613127,-43.22687476873398,750.17 171.7153738439083,-43.22685674764216,750.1 171.7153896018863,-43.22685096412897,750.08 171.7155332677066,-43.22681198827922,749.4400000000001 171.7156001552939,-43.22678248398006,749.1900000000001 171.7155978921801,-43.22677141986787,749.17 171.7155957967043,-43.22676035575569,749.17 171.7156014125794,-43.22675096802413,749.1 171.7156263068318,-43.22672355920076,748.75 171.7156471777707,-43.22671710513532,748.71 171.7156559787691,-43.22670922614634,748.75 171.7156806215644,-43.2266610302031,748.78 171.7157214414328,-43.22659657336771,748.67 171.7157279793173,-43.22658760473132,748.62 171.7157411389053,-43.22658156976104,748.5599999999999 171.7157567292452,-43.22657746262848,748.51 171.7157722357661,-43.22657494805753,748.48 171.7157869040966,-43.22657285258174,748.48 171.7158021591604,-43.22656841017306,748.48 171.7158166598529,-43.22656329721212,748.48 171.7158718965948,-43.22648542933166,748.76 171.7158677056432,-43.22644452564418,749.3099999999999 171.7158590722829,-43.22643522173166,749.34 171.7158501036465,-43.22642700746655,749.36 171.715835519135,-43.22641200385988,749.1 171.7158294841647,-43.2263985928148,749.05 171.7158190906048,-43.22638384066522,750.11 171.7158045899123,-43.22637336328626,750.6 171.7157915141433,-43.22636548429728,750.85 171.7156790290028,-43.22630605660379,750.27 171.7156554758549,-43.22628761641681,750.78 171.7156551405787,-43.22627956978977,750.47 171.7156484350562,-43.22626825422049,750.46 171.7156392149627,-43.22625769302249,750.61 171.7156306654215,-43.2262466289103,750.75 171.7156235408038,-43.22623413987458,750.85 171.715616248548,-43.22622190229595,750.9400000000001 171.7156071122736,-43.22621025145054,750.99 171.7155987303704,-43.22619943879545,751.0599999999999 171.7155912704766,-43.22618837468326,751.15 171.7155846487731,-43.22617630474269,751.23 171.7154631949961,-43.22610480710864,751.74 171.7154728341848,-43.22605510242283,750.39 171.7154962196946,-43.22604387067258,751.3 171.7155238799751,-43.22603347711265,752.1900000000001 171.7155709862709,-43.22600740939379,753.55 171.7155822180212,-43.22599994949996,753.72 171.7155957128853,-43.22599223814905,753.8 171.7156069446355,-43.22598201222718,753.85 171.7156167514622,-43.22597027756274,753.65 171.7156227026135,-43.22595946490765,753.28 171.7156245466322,-43.22593943215907,752.5599999999999 171.715624211356,-43.22592685930431,752.38 171.7156227026135,-43.22591562755406,752.28 171.7155639454722,-43.22579878382385,751.21 171.7155049368739,-43.22568302974105,748.6799999999999 171.7155028413981,-43.22566919960082,748.46 171.715476186946,-43.22555663064122,749.23 171.7154678050429,-43.22543241083622,748.47 171.7154659610242,-43.22536242194474,746.67 171.7154670506716,-43.22534029372036,748.26 171.7154672183096,-43.22530006058514,750.2 171.7154909390956,-43.22519553825259,750.37 171.7155147437006,-43.22511171922088,749.3099999999999 171.7155248019844,-43.22509210556746,749.3099999999999 171.7155293282121,-43.22508037090302,750.98 171.7155338544399,-43.22506997734308,752.1 171.715579116717,-43.22501172311604,753.0899999999999 171.7155917733908,-43.22500359266996,753.0599999999999 171.7156539671123,-43.22492371313274,754.5499999999998 171.7156924400479,-43.22486512362957,754.96 171.7156828846782,-43.22483805008233,754.75 171.7156771011651,-43.22482782416046,754.74 171.7156623490155,-43.22475054301322,754.16 171.7157014925033,-43.22471776977181,757.3499999999999 171.7157102096826,-43.22471081279218,757.51 171.7157169152051,-43.22470201179385,757.65 171.7157211899757,-43.22467108257115,758.23 171.7157225310802,-43.22463814169168,758.96 171.7157160770148,-43.22458231821656,760.29 171.7157380376011,-43.22448492050171,761.04 171.7157755047083,-43.22437536902726,762.04 171.7157918494195,-43.22426623664796,763.46 171.7157860659063,-43.22414989583194,763.47 171.7158066853881,-43.2240448705852,763.47 171.7158288974315,-43.22397144511342,764.3 171.7158318310976,-43.22395199909806,768.53 171.7158386204392,-43.22392609901726,770.64 171.7158822063357,-43.22383012622595,771.58 171.7158897500485,-43.22382275015116,771.65 171.7159516084939,-43.22376030497253,773.0599999999999 171.7159640975296,-43.22377312928438,773.29 171.7159575596452,-43.22377120144665,773.8200000000001 171.7159604094923,-43.22377145290375,773.87 171.7159644328058,-43.22373180650175,774.25 171.7159683723003,-43.2237221673131,774.4 171.715970383957,-43.22371177375317,774.52 171.7159635946155,-43.22369878180325,774.75 171.7159819509834,-43.22368721477687,774.67 171.7159911710769,-43.22367858141661,774.67 171.7160664405674,-43.22357716038823,774.27 171.7160613276064,-43.22357506491244,774.12 171.7160689551383,-43.22357280179858,774.17 171.7160807736218,-43.22356609627604,774.1799999999999 171.7160904128104,-43.22355670854449,774.21 171.716099716723,-43.2235461473465,774.25 171.7161093559116,-43.22353566996753,774.29 171.7161983717233,-43.22344145737588,772.66 171.7162086814642,-43.22343165054917,772.66 171.7163163889199,-43.22331455536187,771.98 171.71645661816,-43.22317407466471,771.97 171.7165228351951,-43.22311523370445,775.02 171.7165319714695,-43.22310819290578,775.29 171.7166069895029,-43.2230466697365,776.0599999999999 171.7167033813894,-43.22296142578125,776.15 171.7168115917593,-43.22285204194486,777.41 171.7169024515897,-43.22276310995221,778.6 171.7169823311269,-43.22268172167242,779.59 171.7170681618154,-43.22259848937392,781.4 171.7171375639737,-43.22252305224538,782.67 171.7171783000231,-43.22247636504471,783.9400000000001 171.7172397393733,-43.22241735644639,784.6399999999999 171.7173269949853,-43.222331777215,787.2299999999999 171.7174025159329,-43.22225290350616,788.51 171.71749798581,-43.22217117995024,787.01 171.7175945453346,-43.22209917940199,789.6099999999999 171.7176064476371,-43.22208970785141,793.3099999999998 171.7176567390561,-43.22200806811452,796.24 171.7176597565413,-43.2220019493252,796.5399999999998 171.7176967207342,-43.22192047722638,799.16 171.7177202738822,-43.22186037898064,801.23 171.7177372053266,-43.22179122827947,804.26 171.7177392169833,-43.22177924215794,805.0099999999999 171.71774902381,-43.22172040119767,807.39 171.7177476827055,-43.2217207364738,808.78 171.7177477665246,-43.22171880863607,809.3099999999998 171.717759585008,-43.22168469429016,809.9100000000001 171.717823036015,-43.22163121774793,811.2300000000001 171.7179263848811,-43.22156441397965,810.2299999999999 171.7179527878761,-43.22154639288783,813.64 171.7179906740785,-43.22152216918766,814.3600000000001 171.7180515266955,-43.22145871818066,815.7899999999998 171.7181133851409,-43.22138554416597,817.0099999999999 171.7181871458888,-43.22130432352424,818.62 171.7182657681406,-43.22124020196497,819.55 171.7183257825673,-43.22117331437767,820.6799999999999 171.7183748167008,-43.22109402157366,822.2099999999999 171.7184369266033,-43.2210074365139,823.65 171.7184727173299,-43.2209331728518,824.5599999999998 171.7185033950955,-43.22085807099938,825.62 171.718536503613,-43.22079461999238,826.4799999999999 171.7185774911195,-43.22072161361575,827.61 171.7186297941953,-43.22063812986016,828.9299999999999 171.7186573706567,-43.2205877546221,829.5900000000001 171.7187078297138,-43.22049605660141,830.8299999999999 171.7187693528831,-43.22039631195366,832.2399999999999 171.7187845241278,-43.22036940604448,832.58 171.7187913972884,-43.2203596830368,832.6799999999999 171.7188009526581,-43.22033956646919,833.3100000000001 171.7188094183803,-43.22032305411994,833.9299999999998 171.7188474722207,-43.22023236192763,833.7799999999999 171.7188305407763,-43.22021710686386,834.5799999999999 171.718774465844,-43.2201627921313,835.5000000000001 171.7187720350921,-43.22015340439975,836.45 171.7187470570207,-43.22012641467154,837.12 171.718679163605,-43.22005801834166,837.65 171.7186204064637,-43.22000194340944,839.6999999999999 171.7185168899596,-43.21995341219008,841.1899999999999 171.7184349149466,-43.2199125085026,842.9499999999999 171.7183848749846,-43.21987705305219,844.38 171.7182982899249,-43.21985743939877,846.25 171.7181516066194,-43.21985878050327,848.88 171.7180676199496,-43.21986154653132,850.3299999999999 171.7179542127997,-43.2198678329587,850.1100000000001 171.7179176677018,-43.21986883878708,851.55 171.7178739141673,-43.21987244300544,854.5999999999999 171.7178067751229,-43.21988300420344,855.88 171.7178034223616,-43.21989130228758,857.49 171.7177981417626,-43.21989012882113,857.91 171.7177553940564,-43.21986716240644,858.4799999999999 171.7176666297019,-43.21985165588558,857.3400000000001 171.7176592536271,-43.21985308080912,861.2 171.7176600079983,-43.21985366754234,862.76 171.7176280729473,-43.2198538351804,862.9400000000001 171.7175463493913,-43.21986716240644,864.2899999999998 171.7174462694675,-43.21985442191362,866.97 171.7173847462982,-43.21984134614468,868.65 171.7173299286515,-43.21981653571129,870.8000000000001 171.7172846663743,-43.21981653571129,872.17 171.7172616999596,-43.21980656124651,873.3400000000001 171.7172132525593,-43.21979289874434,874.2100000000002 171.7171775456518,-43.21976850740612,875.0999999999999 171.7171541601419,-43.21974696591496,875.9899999999999 171.7171363905072,-43.21971234865487,877.3099999999999 171.7170669045299,-43.21970949880779,879.7000000000002 171.7170132603496,-43.21970044635236,879.6900000000001 171.7169690039009,-43.21969700977206,883.5599999999999 171.7169524077326,-43.21969608776271,885.0900000000001 171.7168701812625,-43.21968334726989,884.97 171.7168285232037,-43.21968242526054,887.9899999999999 171.7168090771884,-43.2196846883744,888.6599999999999 171.7167947441339,-43.219691561535,889.97 171.7167654912919,-43.21967840194702,890.4999999999999 171.7167007829994,-43.21968024596572,891.84 171.7166510783136,-43.21967806667089,893.5700000000001 171.7166558559984,-43.2196796592325,894.27 171.7166556883603,-43.21967680938542,894.1900000000001 171.7166052293032,-43.21967136114836,894.98 171.7165574524552,-43.21966608054936,896.3099999999998 171.7164997011423,-43.21965711191297,898.1300000000001 171.7164358310401,-43.21964261122048,900.33 171.7163677699864,-43.21964185684919,902.3999999999999 171.716340277344,-43.2196363247931,903.9699999999999 171.7163194064051,-43.21963154710829,905.1099999999999 171.716245058924,-43.21962459012866,906.41 171.7161989584565,-43.21961645968258,907.9400000000001 171.7161994613707,-43.21961947716773,908.6 171.7161727230996,-43.21961838752031,908.62 171.7161225154996,-43.21960925124586,909.91 171.7160642612725,-43.21959575638175,911.28 171.7160329967737,-43.21958385407925,912.8 171.7160397861153,-43.21958544664085,914.29 171.7160293087363,-43.21958435699344,914.51 171.7159770894796,-43.21956273168325,915.3099999999999 171.7159268818796,-43.21954001672566,915.96 171.7158796079457,-43.21950405836105,917.8799999999999 171.7158496007323,-43.21942593902349,920.8200000000001 171.7158123012632,-43.21937967091799,922.29 171.7158214375377,-43.21937003172934,923.4299999999999 171.7157928552479,-43.2193289604038,923.77 171.7157813720405,-43.21932066231966,924.5099999999999 171.7157699726522,-43.2193133700639,925.0599999999999 171.7157571483403,-43.21929174475372,925.34 171.7157538793981,-43.21928604505956,925.62 171.7157683800906,-43.21926902979612,925.5599999999999 171.7157599981874,-43.21929660625756,925.7 171.7157541308552,-43.2193067483604,925.76 171.7157370317727,-43.2193255238235,925.7999999999998 171.7157236207277,-43.21933675557375,925.7800000000001 171.7156607564539,-43.21939425542951,924.83 171.7156112194061,-43.21941370144486,924.73 171.7155695613474,-43.21943524293602,924.1899999999999 171.7155091278255,-43.21950053796172,923.38 171.7154571600258,-43.21958871558309,922.02 171.7154082935303,-43.21961704641581,920.0899999999999 171.7153428308666,-43.21967571973801,920.58 171.7153031006455,-43.21970916353166,920.8 171.7152735125273,-43.21973020210862,920.9 171.7152421642095,-43.21975937113166,921.89 171.7152370512486,-43.21977437473834,922.14 171.715227579698,-43.21978610940278,922.3200000000001 171.715219700709,-43.21979641914368,922.34 171.7152122408152,-43.21980840526521,922.34 171.7152026854455,-43.21981829591095,922.34 171.7151922080666,-43.21982751600444,922.34 171.7151818983257,-43.21983740665019,922.34 171.7150747776031,-43.21991795673966,922.6900000000001 171.7150513920933,-43.21997168473899,923.33 171.7149753682315,-43.22006547823548,923.76 171.7149754520506,-43.22008433751762,923.7 171.7149705067277,-43.22007813490927,924.0400000000001 171.7149615380913,-43.22006966918707,924 171.7149181198329,-43.22005826979876,923.92 171.7149023618549,-43.2200644724071,923.7199999999999 171.7148535791785,-43.22012490592897,922.63 171.7148457001895,-43.22017310187221,921.4799999999999 171.7148396652192,-43.22018383070827,921.4799999999999 171.7148068081588,-43.22028005495667,921.96 171.7147685866803,-43.22040276601911,920.1599999999999 171.714741513133,-43.22041500359774,919.98 171.7147259227931,-43.22041667997837,919.88 171.7147101648152,-43.22041802108288,919.8099999999998 171.714696502313,-43.22042137384415,919.8099999999998 171.7146844323725,-43.22042665444314,919.8099999999998 171.7146729491651,-43.2204339466989,919.8 171.7146623879671,-43.22044316679239,919.8 171.7146529164165,-43.22045381180942,919.8 171.714643528685,-43.22046504355967,919.8 171.7146325483918,-43.22047560475767,919.8 171.714622573927,-43.22048465721309,919.8 171.7145386710763,-43.22057090699673,918.46 171.7145098373294,-43.22062295861542,917.3599999999999 171.7145028803498,-43.22063947096467,916.6599999999999 171.7144991084933,-43.22065070271492,916.65 171.7144984379411,-43.22066294029355,916.58 171.7144965939224,-43.22067718952894,916.46 171.7144918162376,-43.22069194167852,916.46 171.7144830990583,-43.22070518508554,916.46 171.7144698556513,-43.22071733884513,916.42 171.7144549358636,-43.2207278162241,916.27 171.7144387587905,-43.22073594667017,916.0099999999999 171.7144229169935,-43.220743406564,915.78 171.7142979428172,-43.22082001715899,915.5399999999998 171.7142813466489,-43.22082261554897,915.42 171.714262906462,-43.22082730941474,915.0999999999999 171.7142469808459,-43.22083451785147,914.74 171.7142362520099,-43.22084415704012,913.95 171.7142240982503,-43.22085622698069,913.95 171.7142007965595,-43.2208850607276,913.37 171.7141352500767,-43.22100307792425,910.72 171.7140393611044,-43.22109251283109,906.73 171.7140003852546,-43.22111916728318,905.24 171.7139004729688,-43.22124104015529,904.46 171.7138773389161,-43.22132309898734,902.64 171.7138763330877,-43.22133474983275,902.3999999999999 171.7138604074717,-43.22134891524911,902.0999999999999 171.7138469964266,-43.22136023081839,901.3599999999999 171.7138372734189,-43.22136752307415,901.3099999999999 171.7138251196593,-43.22137615643442,901.3099999999999 171.7138121277094,-43.22138437069952,901.2799999999999 171.7136856447905,-43.22148537263274,900.0899999999999 171.7135409731418,-43.22151613421738,898.9000000000001 171.713541643694,-43.22151973843575,898.47 171.7135361116379,-43.2215119432658,898.3200000000001 171.7135246284306,-43.22151504456997,898.37 171.7135087028146,-43.22151998989284,898.38 171.7134920228273,-43.22152770124376,898.39 171.7134775221348,-43.2215375918895,898.39 171.7134636081755,-43.22154672816396,898.3499999999999 171.7134475987405,-43.22155284695327,898.3200000000001 171.7134299967438,-43.2215568702668,898.2499999999999 171.7134111374617,-43.22155988775194,898.1900000000001 171.7133917752653,-43.22156307287514,898.11 171.7132009193301,-43.22165619581938,896.5599999999998 171.7130113206804,-43.22175652720034,896.33 171.712888777256,-43.22180748917162,897.7 171.7128135915846,-43.22187865152955,900.3 171.7127746995538,-43.22191108949482,901.25 171.7127669882029,-43.22192098014057,901.2799999999999 171.7127582710236,-43.22193187661469,901.3099999999999 171.7127473745495,-43.22194285690784,901.3599999999999 171.712735556066,-43.2219535857439,901.3799999999999 171.7126041278243,-43.22209507226944,900.4299999999998 171.7125450354069,-43.2221332937479,899.1799999999999 171.7125244997442,-43.22212130762637,899.14 171.7125089932233,-43.22211594320834,899.13 171.7124938219786,-43.2221108302474,899.13 171.7124778125435,-43.22210756130517,899.13 171.7124619707465,-43.22210630401969,899.13 171.7124461289495,-43.22210672311485,899.13 171.7124312091619,-43.22210932150483,899.0999999999999 171.7123902216554,-43.22213572449982,898.26 171.7123861145228,-43.22214821353555,898.1300000000001 171.712381253019,-43.22216112166643,897.8799999999999 171.7122601345181,-43.22221744805574,895.76 171.7122085019946,-43.22221417911351,895.6900000000001 171.7121905647218,-43.22221895679832,895.6900000000001 171.712172627449,-43.22222247719765,895.63 171.712048240006,-43.22225952520967,894.49 171.7119867168367,-43.22227117605507,894.41 171.7119739763439,-43.22226564399898,894.41 171.7118339147419,-43.22225198149681,894.4400000000001 171.7117564659566,-43.22224108502269,896.73 171.7116293124855,-43.22221007198095,898.2299999999999 171.7115388717502,-43.22217905893922,899.6900000000001 171.7114646080881,-43.22207855992019,899.0399999999998 171.7114585731179,-43.22206724435091,900.4 171.7114630155265,-43.22205659933388,900.2900000000001 171.7114664521068,-43.22204603813589,900.47 171.7114750016481,-43.22200278751552,900.88 171.7114846408367,-43.22200396098197,901.1600000000001 171.7114605009556,-43.22200018912554,901.1099999999999 171.7113620135933,-43.22199231013656,900.99 171.7113458365202,-43.22198702953756,900.46 171.7113340180367,-43.22198191657662,900.01 171.711324295029,-43.22197185829282,899.78 171.7113174218684,-43.2219609618187,899.66 171.7113131470978,-43.22195031680167,899.6 171.7113105487078,-43.22193942032754,899.5599999999999 171.7113107163459,-43.22187865152955,899.6399999999999 171.7113031726331,-43.22186700068414,900.46 171.7112952936441,-43.22185585275292,901.0700000000001 171.7112895939499,-43.22184478864074,901.7099999999999 171.7112350277603,-43.22178670205176,902.78 171.7112202756107,-43.22178301401436,902.59 171.711178701371,-43.22177454829216,902.16 171.7111261468381,-43.22179734706879,902.73 171.7110455967486,-43.22185015305877,905.33 171.7110262345523,-43.22185702621937,905.5599999999999 171.7110141646117,-43.22186440229416,905.59 171.7109720874578,-43.22187094017863,906.22 171.7109571676701,-43.22187370620668,906.8 171.7109401524067,-43.22187831625342,906.8 171.7108647990972,-43.22192483581603,906.84 171.7108213808388,-43.22198216803372,905.64 171.7107831593603,-43.22198049165308,907.48 171.710729598999,-43.22202458046377,907.95 171.7107175290585,-43.2220402546227,908.05 171.7106864321977,-43.22208886966109,908.45 171.7105755396187,-43.22215064428747,907.5399999999998 171.7104722745717,-43.22215123102069,907.8399999999999 171.7103853542358,-43.22213337756693,910.3200000000001 171.7103284411132,-43.22208778001368,911.5200000000001 171.7103226576,-43.22205182164907,914.2499999999999 171.7103360686451,-43.22202491573989,915.01 171.7103607952595,-43.22198954410851,915.53 171.7103592026979,-43.22192735038698,915.7 171.7103994358331,-43.22181159630418,916.33 171.7103867791593,-43.22179458104074,915.6900000000001 171.7103940714151,-43.22177387773991,916.64 171.7103827558458,-43.22177287191153,915.8899999999999 171.710404464975,-43.22178795933723,915.86 171.7104277666658,-43.22179458104074,916.11 171.7104581929743,-43.22180036455393,916 171.7105266731232,-43.22179667651653,915.7 171.7105509806424,-43.22180438786745,915.24 171.7105432692915,-43.22179323993623,915.05 171.710544610396,-43.22179198265076,913.8099999999999 171.7105436045676,-43.22179147973657,912.89 171.7105487175286,-43.22180137038231,914.11 171.7105586081743,-43.22180078364909,914.21 171.710557853803,-43.22180363349617,914.64 171.7105726897717,-43.22180522605777,914.99 171.7105885315686,-43.22180489078164,915.0000000000001 171.7106437683105,-43.22180606424809,914.79 171.710658101365,-43.22180832736194,914.6500000000001 171.7106718476862,-43.2218121830374,914.49 171.7106852587312,-43.22181712836027,914.29 171.7107539903373,-43.2218552660197,912.54 171.7107688263059,-43.22185719385743,912.3900000000001 171.7107837460935,-43.22186088189483,912.28 171.7107986658812,-43.22186465375125,912.2 171.7108137533069,-43.22186616249382,912.03 171.7108288407326,-43.22186792269349,911.8 171.7108435090631,-43.22187035344541,911.58 171.7108585964888,-43.22187228128314,911.4299999999999 171.7108739353716,-43.22187420912087,911.1699999999998 171.7108893580735,-43.22187504731119,911.0000000000001 171.7109760269523,-43.22185761295259,909.95 171.7109917011112,-43.22185736149549,909.8299999999999 171.711096810177,-43.22186917997897,908.67 171.7111289966851,-43.22187001816928,908.4399999999999 171.7111205309629,-43.22186264209449,898.3200000000001 171.7111139092594,-43.22186012752354,898.34 171.7111254762858,-43.22186482138932,898.1300000000001 171.7111303377897,-43.22186700068414,897.74 171.7111279908568,-43.22186381556094,898.0599999999999 171.7111292481422,-43.22186180390418,898.2499999999999 171.7111305892467,-43.22185954079032,898.09 171.7111318465322,-43.22185702621937,897.99 171.7111329361796,-43.22185476310551,898.1900000000001 171.7111383005977,-43.22185216471553,898.2 171.7111397255212,-43.22184939868748,898.0599999999999 171.7111367918551,-43.22185065597296,897.7799999999999 171.7111340258271,-43.22184646502137,898.7699999999999 171.7111310921609,-43.22184990160167,898.91 171.7111437488347,-43.22182609699667,898.8300000000002 171.7111530527472,-43.22181846946478,898.7499999999999 171.7111706547439,-43.22181603871286,897.23 171.7111716605723,-43.22181788273156,898.4800000000001 171.7112173419446,-43.22183473035693,896.3899999999999 171.711266124621,-43.22186607867479,897.66 171.7112771887332,-43.22187127545476,897.67 171.7112957965583,-43.22188468649983,896.52 171.7113042622805,-43.22189072147012,896.3099999999998 171.7113170865923,-43.22189918719232,896.0599999999998 171.7113286536187,-43.22190840728581,895.86 171.7113356105983,-43.22191846556962,895.76 171.7113392986357,-43.22192994877696,895.67 171.7114272248,-43.2220072299242,894.6799999999999 171.7114409711212,-43.2220072299242,894.5799999999999 171.7114521190524,-43.22199943475425,894.4800000000001 171.7114618420601,-43.22198971174657,893.8999999999999 171.711466955021,-43.22200957685709,893.97 171.7114814557135,-43.22203187271953,893.95 171.7114873230457,-43.22204385884106,893.97 171.7114915139973,-43.2220558449626,893.9400000000001 171.7115677893162,-43.22218132205307,893.4 171.7116136383265,-43.22221769951284,892.83 171.7116300668567,-43.22221878916025,892.7599999999999 171.7116467468441,-43.2222199626267,892.7 171.7117924243212,-43.22226229123771,891.7399999999999 171.7118867207319,-43.22230964899063,888.3899999999999 171.7119044903666,-43.22230922989547,888.05 171.711921421811,-43.2223093137145,887.88 171.7119404487312,-43.22231266647577,887.78 171.7119603138417,-43.22231057099998,888.0599999999998 171.7119779158384,-43.2223077211529,888.3199999999999 171.7120328173041,-43.22231023572385,888.73 171.7120463959873,-43.22231836616993,888.7399999999999 171.7121416144073,-43.22237586602569,887.33 171.7121932469308,-43.22247561067343,885.59 171.7122032213956,-43.22248575277627,885.4 171.7122618947178,-43.2225130777806,884.3099999999998 171.7123209871352,-43.22254962287843,883.78 171.7123103421181,-43.22255884297192,883.46 171.7122969310731,-43.22256546467543,883.23 171.7122845258564,-43.22257208637893,882.98 171.712272875011,-43.22257937863469,882.66 171.7121478170156,-43.22265263646841,880.2 171.7120321467519,-43.22270812466741,878.1299999999999 171.7118873074651,-43.2227760180831,875.33 171.7118248622864,-43.22281432338059,873.74 171.7117389477789,-43.22286268696189,870.6900000000001 171.7116014845669,-43.22290057316422,868.3099999999998 171.7113962117583,-43.22295111604035,866.3800000000001 171.7112433258444,-43.22301439940929,863.21 171.7111142445356,-43.22308857925236,861.25 171.7110856622458,-43.22312872856855,860.1199999999999 171.7109683994204,-43.22318874299526,859.34 171.7109142523259,-43.22320860810578,857.7099999999999 171.7108714208007,-43.22322746738791,857.2799999999999 171.7108542378992,-43.22323735803366,857.12 171.710835378617,-43.22324791923165,856.97 171.7107313591987,-43.22330810129642,856.5099999999999 171.7107224743813,-43.22331908158958,856.38 171.710721636191,-43.22332897223532,856.1799999999999 171.7107223905623,-43.22333861142397,855.92 171.7107284255326,-43.22339829057455,853.13 171.7106982506812,-43.22342033497989,851.6799999999999 171.7106908746064,-43.22342972271144,851.33 171.7106897011399,-43.22344078682363,850.9400000000001 171.7106818221509,-43.22349057532847,849.4599999999999 171.7106733564287,-43.22351362556219,848.6399999999999 171.7106829117984,-43.2235287129879,848.3099999999998 171.7106969933957,-43.22354019619524,848.0200000000001 171.7107127513736,-43.22354690171778,847.75 171.7107298504561,-43.22355151176453,847.4 171.7107468657196,-43.2235562056303,847.0599999999999 171.710761366412,-43.22356123477221,846.39 171.7107753641903,-43.22356634773314,846.0599999999999 171.7108239792287,-43.22359761223197,844.25 171.7108333669603,-43.22360591031611,843.8199999999999 171.7108462750912,-43.22361387312412,843.3699999999999 171.7108612786978,-43.2236185669899,842.9800000000001 171.7109358776361,-43.22365947067738,839.7899999999998 171.7110319342464,-43.22369316592813,836.4400000000001 171.7110585886985,-43.22372820228338,834.84 171.7110958043486,-43.22376172989607,833.73 171.7111317627132,-43.22378561832011,833.5900000000001 171.711147101596,-43.2237842772156,833.58 171.7111988179386,-43.2238120213151,830.91 171.7112113907933,-43.22381604462862,828.9399999999999 171.7112182639539,-43.22385636158288,828.2899999999998 171.7112274002284,-43.22385778650641,828.34 171.7112359497696,-43.22384806349874,827.9200000000001 171.7112857382745,-43.22387865744531,826.5700000000001 171.711392775178,-43.22394579648972,824.7900000000001 171.7114851437509,-43.22399080730975,821.29 171.7115009017289,-43.22399089112878,820.83 171.7115174978971,-43.22399231605232,820.3899999999999 171.7115366086364,-43.22399583645165,819.99 171.7115548811853,-43.22400044649839,819.59 171.7115703038871,-43.22400631383061,819.22 171.7115843854845,-43.22401201352477,818.8800000000001 171.7116314079612,-43.22402659803629,815.8699999999999 171.7116520274431,-43.2240379974246,814.5599999999999 171.7116604093462,-43.22404285892844,814.34 171.7116738203913,-43.22408208623528,812.24 171.7117061745375,-43.22411301545799,811.21 171.7117625847459,-43.22414386086166,809.0699999999999 171.7117903288454,-43.22416682727635,808.1999999999999 171.7118029017001,-43.22417353279889,807.89 171.7118355911225,-43.22419507429004,806.74 171.7118626646698,-43.22421116754413,804.1700000000001 171.7118837032467,-43.22422047145665,803.6500000000001 171.7118959408253,-43.2242280151695,803.4999999999999 171.711908262223,-43.22423522360623,803.38 171.7119217570871,-43.2242420129478,803.24 171.711937263608,-43.22424838319421,803.0599999999999 171.7119526024908,-43.22425257414579,802.8800000000001 171.7119681928307,-43.22425500489771,802.6900000000001 171.7119843699038,-43.22425634600222,802.49 171.7119987867773,-43.22425953112543,802.04 171.7120117787272,-43.22426531463861,801.7799999999999 171.7120228428394,-43.22427235543728,801.46 171.7120328173041,-43.22428199462593,801.0899999999999 171.7120776604861,-43.22433463297784,799.1900000000001 171.7120919097215,-43.2243387401104,798.79 171.7121074162424,-43.22434200905263,798.3999999999999 171.71212233603,-43.22434603236616,797.99 171.7121351603419,-43.22435332462192,797.2 171.7121480684727,-43.22436212562025,796.92 171.7122382577509,-43.22440889663994,794.5700000000001 171.7122515011579,-43.22441551834345,794.1900000000002 171.7122659180313,-43.22441979311407,793.8 171.7123661655933,-43.22445097379386,791.09 171.7123773135245,-43.22445818223059,790.72 171.7123879585415,-43.22446689940989,790.42 171.712397262454,-43.22447704151273,790.1 171.7124068178236,-43.22448785416782,789.8100000000001 171.7124427761883,-43.22451828047633,788.58 171.7125840950757,-43.22457167319953,785.5599999999998 171.7126968316734,-43.22463143616915,782.42 171.7128503043205,-43.22471064515412,779.26 171.7129849176854,-43.22479689493775,776.08 171.7130928765982,-43.2248445879668,772.9099999999999 171.7132599279284,-43.2249225396663,772.5599999999999 171.7133785318583,-43.22496252134442,769.25 171.7135675437748,-43.22502337396145,766.09 171.7137585673481,-43.22513669729233,763.23 171.7139271274209,-43.22520777583122,761.4 171.7140364274383,-43.2252933550626,759.34 171.714149499312,-43.22540525346994,756.78 171.7142727971077,-43.22550407610834,754.3200000000001 171.7144261859357,-43.22558160871267,752.9400000000001 171.7147098295391,-43.22567925788462,750.46 171.7149678245187,-43.22578931227326,747.98 171.7150885239244,-43.22586718015373,747.0599999999999 171.7152186110616,-43.22597153484821,746.87 171.7153645399958,-43.22605602443218,747.2 171.7155598383397,-43.22616448625922,747.91 171.7156461719424,-43.22620497085154,746.5599999999999 171.7156325094402,-43.22622248902917,746.3 171.7156324256212,-43.22623648680747,746.4400000000001 171.7156285699457,-43.22625844739377,746.76 171.7156259715557,-43.22627655230463,747.04 171.7156488541514,-43.22630865499377,746.9400000000001 171.7156619299203,-43.22632214985788,746.79 171.7156737484038,-43.22633396834135,746.65 171.7157981358469,-43.22640219703317,745.35 171.7159031610936,-43.22647201828659,746.39 171.7160518560559,-43.22652272880077,744.98 171.7161468230188,-43.22652415372431,743.9299999999999 171.7161729745567,-43.22652767412364,743.5 171.716274144128,-43.22654527612031,743.3 171.7162910755724,-43.22655466385186,743.41 171.7163082584739,-43.22656203992665,743.49 171.7163288779557,-43.22656832635403,743.55 171.7163489107043,-43.2265748642385,743.58 171.716448655352,-43.22660302743316,743.49 171.7164686042815,-43.22660470381379,742.84 171.7164840269834,-43.22660830803216,742.58 171.7164978571236,-43.22661903686821,742.34 171.7165128607303,-43.22662716731429,742.24 171.7165283672512,-43.22663496248424,742.08 171.7166396789253,-43.22667930275202,740.95 171.7167714424431,-43.22673663496971,739.75 171.7167965881526,-43.22674753144383,740.48 171.7168114241213,-43.22675415314734,740.92 171.7168285232037,-43.2267614454031,741.16 171.7169231548905,-43.22683503851295,740.4400000000001 171.7169743683189,-43.22685180231929,740.04 171.7169907130301,-43.226861609146,740 171.7170298565179,-43.2268872577697,739.97 171.7170508112758,-43.22689857333899,739.96 171.7171499691904,-43.22694844566286,739.64 171.7172461934388,-43.22700460441411,739.1799999999999 171.7172889411449,-43.22704936377704,739.02 171.7173305153847,-43.22714692912996,738.72 171.7173352930695,-43.22716788388789,738.71 171.7173385620117,-43.22718540206552,738.71 171.7173416633159,-43.22720224969089,738.71 171.7173629533499,-43.22730953805149,737.85 171.7173907812685,-43.22736376896501,737.25 171.7173991631716,-43.22738053277135,737.16 171.717405281961,-43.22739620693028,737.05 171.7174138315022,-43.22745773009956,736.6799999999999 171.7174303438514,-43.22758052498102,736.49 171.717455657199,-43.22771430015564,736.6900000000001 171.7174777854234,-43.2278201635927,736.25 171.7175180185586,-43.22793474420905,736.21 171.7175526358187,-43.22802283801138,736.63 171.7175357043743,-43.22810925543308,736.46 171.7175371292979,-43.22812316939235,736.45 171.7175397276878,-43.22813691571355,736.45 171.7175779491663,-43.22825568728149,736.88 171.7175854090601,-43.22826993651688,736.96 171.7175875045359,-43.22831025347114,737.35 171.717582475394,-43.22832492180169,737.4399999999999 171.7175778653473,-43.22838678024709,738.5599999999999 171.7175457626581,-43.2284639775753,739.7 171.7175283282995,-43.22854989208281,741.23 171.7175320163369,-43.22863966226578,740.63 171.7175155039877,-43.22875348851085,742.04 171.7175100557506,-43.22876547463238,742.24 171.7175059486181,-43.22878316044807,742.35 171.7175041884184,-43.22880101390183,742.41 171.7175034340471,-43.22881903499365,742.4299999999999 171.7174896039069,-43.22888986207545,742.88 171.7174683138728,-43.2289595156908,743.51 171.717460853979,-43.22897309437394,743.5700000000001 171.7174525558949,-43.22898575104773,743.6999999999999 171.7174441739917,-43.22898943908513,743.87 171.7174379713833,-43.22900393977761,744.13 171.7174333613366,-43.22901492007077,744.35 171.7174268234521,-43.22902615182102,744.71 171.7174170166254,-43.2290374673903,745.1 171.7174073774368,-43.22905029170215,745.4400000000001 171.7173353768885,-43.22912740521133,746.5599999999999 171.7173226363957,-43.22914970107377,746.84 171.7173138353974,-43.22916688397527,747.14 171.7173045314848,-43.22918146848679,747.26 171.7172975745052,-43.22919697500765,747.4199999999998 171.7172949761152,-43.22921818122268,747.54 171.7172952275723,-43.22923670522869,747.64 171.7172765359282,-43.22929521091282,747.74 171.7172801401466,-43.2293104659766,747.74 171.7172813136131,-43.22932345792651,747.71 171.7172793019563,-43.22933737188578,747.5 171.717278631404,-43.22935447096825,746.66 171.7172801401466,-43.22937140241265,746.4400000000001 171.7172793857753,-43.22938330471516,746.34 171.7172262445092,-43.2294846419245,747.33 171.7171544954181,-43.22958463802934,746.97 171.7170814052224,-43.2296625059098,746.75 171.7170616239309,-43.22967776097357,748.0599999999999 171.7170097399503,-43.22973266243935,747.78 171.7169786430895,-43.22980399243534,747.63 171.7169332969934,-43.22990356944501,748.62 171.716919131577,-43.22993382811546,748.8 171.7169120907784,-43.22994279675186,748.87 171.7169011104852,-43.22995411232114,748.95 171.7168913036585,-43.22996567934752,748.99 171.7168823350221,-43.22997448034585,749.03 171.716874204576,-43.22998269461095,749.13 171.7168558482081,-43.23000809177756,749.4199999999998 171.7168469633907,-43.23002259247005,749.45 171.7168392520398,-43.23003642261028,749.48 171.7167752142996,-43.23010867461562,750.16 171.7167539242655,-43.23012300767004,750.5 171.7167415190488,-43.23013289831579,750.72 171.7167303711176,-43.23014304041862,750.89 171.7167193070054,-43.23015234433115,751.12 171.7166663333774,-43.23021395131946,751.58 171.7165792454034,-43.23027756996453,752.37 171.7165689356625,-43.23029156774282,752.47 171.7165563628078,-43.23030246421695,752.5700000000001 171.7165462207049,-43.23030908592045,752.73 171.7165257688612,-43.23033498600125,753.26 171.7165290378034,-43.23035661131144,753.54 171.7165372520685,-43.2303652446717,753.66 171.7165757250041,-43.23037530295551,753.83 171.7165963444859,-43.23038980364799,753.8099999999999 171.7166173830628,-43.23040028102696,753.7 171.7166341468692,-43.23040916584432,753.59 171.7166454624385,-43.23041453026235,753.53 171.7166598793119,-43.23042324744165,753.5 171.7166742123663,-43.23042978532612,753.45 171.7167603783309,-43.23048225603998,754.79 171.7169295251369,-43.23060379363596,754.1799999999999 171.7170033697039,-43.23062801733613,752.98 171.717114681378,-43.2306900434196,752.52 171.7172744404525,-43.23076028376818,750.84 171.7173378914595,-43.23078442364931,750.4 171.7173539008945,-43.23079297319055,750.21 171.7173746041954,-43.23080118745565,749.95 171.7173993308097,-43.2308192923665,749.67 171.717415926978,-43.23084066621959,749.4299999999999 171.7174310144037,-43.2308607827872,749.1599999999999 171.7174957226962,-43.23090218938887,748.38 171.7175300046802,-43.23091425932944,748.24 171.7175521329045,-43.23092381469905,748.16 171.7175710760057,-43.23092850856483,748.0599999999999 171.7175872530788,-43.23093965649605,747.95 171.7176046874374,-43.23095415718853,747.87 171.7177159991115,-43.23099271394312,747.73 171.7178515344858,-43.23104032315314,747.1799999999999 171.7180527001619,-43.23112816549838,747.64 171.7182409577072,-43.23121785186231,747.64 171.7183975316584,-43.231296306476,747.64 171.7185637447983,-43.23137920349836,746.41 171.7187194805592,-43.23145631700754,746.4 171.7188784852624,-43.23153619654477,746.4 171.7190116737038,-43.23160962201655,746.4 171.7190237436444,-43.23161825537682,746.4 171.7190377414227,-43.23162596672773,746.4 171.7190552596003,-43.23163292370737,746.4 171.7190726101398,-43.23164013214409,746.3099999999999 171.7192634660751,-43.23171615600586,746.21 171.7194330319762,-43.23178748600185,744.97 171.7196383886039,-43.23188731446862,744.6799999999999 171.7197716608644,-43.23195101693273,744.6799999999999 171.7199527099729,-43.23205151595175,744.6799999999999 171.7201229464263,-43.23213223367929,744.6799999999999 171.7202791851014,-43.23222351260483,746.4299999999999 171.7203086055815,-43.23224253952503,748.23 171.7203210107982,-43.23225947096944,748.66 171.7203364335001,-43.23227531276643,748.79 171.7203516885638,-43.23228696361184,748.8299999999999 171.7203650157899,-43.23229509405792,748.89 171.720378510654,-43.23230255395174,748.89 171.7205059155822,-43.23239567689598,748.67 171.7206142097712,-43.23246784508228,748.89 171.720663914457,-43.23248460888863,748.9 171.7206806782633,-43.23249005712569,748.8200000000001 171.7206987831742,-43.23249852284789,748.73 171.7207207437605,-43.23250606656075,748.67 171.7207408603281,-43.23251578956842,748.62 171.7208566982299,-43.23256934992969,748.53 171.72099432908,-43.2326277717948,748.5499999999998 171.7211071494967,-43.23268325999379,748.8 171.7212441097945,-43.23274788446724,749.04 171.721359193325,-43.23281125165522,749.25 171.7214548308402,-43.23288392275572,749.39 171.7215492110699,-43.23295164853334,749.4199999999998 171.7215728480369,-43.23297763243318,749.47 171.7215819004923,-43.23298735544086,749.59 171.7215913720429,-43.23299976065755,749.76 171.7216520570219,-43.23307855054736,750.46 171.721729002893,-43.23318785056472,750.4299999999999 171.7217970639467,-43.23330310173333,750.4299999999999 171.7218352016062,-43.23338457383215,752.08 171.7219222895801,-43.23344643227756,752.42 171.7220454197377,-43.23347945697606,752.62 171.7221085354686,-43.23348850943148,752.62 171.7221225332469,-43.23349538259208,752.61 171.7221374530345,-43.23349907062948,752.58 171.7221523728222,-43.23350368067622,752.54 171.7221714835614,-43.23350854218006,752.42 171.7221955396235,-43.23350938037038,752.37 171.722215237096,-43.23350762017071,752.35 171.7222351022065,-43.2335065305233,752.34 171.7223589029163,-43.23353318497539,752.29 171.7224063444883,-43.23354743421078,752.17 
			</coordinates>
		</LineString>
	</MultiGeometry>
	<atom:link rel="app" href="https://www.google.com/earth/about/versions/#earth-pro" title="Google Earth Pro 7.3.7.1155"></atom:link>
</Placemark>
</kml>
