<?xml version="1.0" encoding="UTF-8"?>
<kml xmlns="http://www.opengis.net/kml/2.2" xmlns:gx="http://www.google.com/kml/ext/2.2" xmlns:kml="http://www.opengis.net/kml/2.2" xmlns:atom="http://www.w3.org/2005/Atom">
<Placemark>
	<name>Track</name>
	<Style>
		<LineStyle>
			<color>ff0000ff</color>
			<width>3</width>
		</LineStyle>
	</Style>
	<LineString>
		<tessellate>1</tessellate>
		<coordinates>
			173.0466265138239,-40.88861136697233,0 173.0466332193464,-40.88841472752392,0 173.0463649984449,-40.88832579553127,0 173.04632820189,-40.88813544251025,0 173.046613773331,-40.88773378171027,0 173.046476142481,-40.88738559745252,0 173.0468031205237,-40.88616074994206,0 173.0477637704462,-40.88477270677686,0 173.0489836726338,-40.88359370827675,0 173.0512410029769,-40.88202017359436,0 173.0513375625014,-40.8817639388144,0 173.0511835031211,-40.88125674985349,0 173.0514039471745,-40.88102700188756,0 173.0519465915859,-40.8808711823076,0 173.0523449834436,-40.87997582741082,0 173.0529641546309,-40.87987222708762,0 173.0527102667838,-40.87921349331737,0 173.0530719459057,-40.87873262353241,0 173.0527038127184,-40.87868928909302,0 173.0524459853768,-40.87828544899821,0 173.0527557805181,-40.87794405408204,0 173.0532080680132,-40.87779150344431,0 173.0534042883664,-40.87739495560527,0 173.0530262645334,-40.87732865475118,0 173.0528417788446,-40.87706822901964,0 173.0521277245134,-40.8767615351826,0 173.051820024848,-40.87625761516392,0 173.0514508020133,-40.87609961628914,0 173.0512353032827,-40.87576450780034,0 173.0520115513355,-40.87479773908854,0 173.0513367243111,-40.87471031583846,0 173.0516031850129,-40.87409030646086,0 173.0515746027231,-40.87386080995202,0 173.0513481236994,-40.87405535392463,0 173.0511943995953,-40.87396625429392,0 173.0510496441275,-40.87343157269061,0 173.0511536635458,-40.87295229546726,0 173.0505994521081,-40.87326477281749,0 173.0497659556568,-40.87299822829664,0 173.0486695189029,-40.87212315760553,0 173.0484085064381,-40.87212667800486,0 173.0483864620328,-40.87133358232677,0 173.0479865614325,-40.87124632671475,0 173.0478574801236,-40.87091515772045,0 173.0480727273971,-40.8705204539001,0 173.0470535717905,-40.87022507563233,0 173.0471328645945,-40.87014008313417,0 173.0463430378586,-40.86972501128912,0 173.0462919082493,-40.86927574127913,0 173.0458678677678,-40.86895211599767,0 173.0461814347655,-40.86920214816928,0 173.0462795030326,-40.86964965797961,0 173.0474632792175,-40.87036522105336,0 173.0480741523206,-40.87054400704801,0 173.0478437338024,-40.87091331370175,0 173.0483569577336,-40.87129854597151,0 173.0484118591994,-40.8720522467047,0 173.0492172762752,-40.87268147617579,0 173.0496866628528,-40.87302002124488,0 173.0504101049155,-40.87325060740113,0 173.0511579383165,-40.87297165766358,0 173.050992898643,-40.87336409837008,0 173.0511469580233,-40.87392141111195,0 173.0512952338904,-40.87401897646487,0 173.0515150073916,-40.87388654239476,0 173.0516212899238,-40.87404755875468,0 173.0512803979218,-40.87465264834464,0 173.0515453498811,-40.87483034469187,0 173.051965534687,-40.87476689368486,0 173.0512515641749,-40.87556828744709,0 173.051262544468,-40.87586073204875,0 173.05145801045,-40.87616499513388,0 173.0518249701709,-40.8762398455292,0 173.0521153192967,-40.8767528180033,0 173.0523641780019,-40.87676404975355,0 173.0524176545441,-40.87696831673384,0 173.0528207402676,-40.87702950462699,0 173.0531647335738,-40.87738523259759,0 173.0534171964973,-40.87741808965802,0 173.0532056372613,-40.87779049761593,0 173.0527130328119,-40.87797825224698,0 173.0524137988687,-40.87828477844596,0 173.0526429601014,-40.87861209176481,0 173.0530149489641,-40.87861586362123,0 173.0526940897107,-40.87926227599382,0 173.0529812537134,-40.87991807609797,0 173.0523411277682,-40.8799628354609,0 173.0518947076052,-40.88093664497137,0 173.0511384923011,-40.88128005154431,0 173.051317948848,-40.88176821358502,0 173.0511931423098,-40.88209209032357,0 173.0494738463312,-40.88319296948612,0 173.0477721523494,-40.88501553051174,0 173.0468498915434,-40.88689198717475,0 173.0466362368315,-40.88865151628852,0 173.0461820214987,-40.88865243829787,0 173.0458832066506,-40.88839394040406,0 173.0458171572536,-40.8879875857383,0 173.0454525444657,-40.88782271370292,0 173.0453611817211,-40.88803930208087,0 173.0453113093972,-40.88782648555934,0 173.0454734992236,-40.88764610700309,0 173.0454355292022,-40.88782095350325,0 173.0458680354059,-40.88780041784048,0 173.0459717195481,-40.888293357566,0 173.0462554469705,-40.88854908943176,0 173.0461760703474,-40.88887623511255,0 173.0465351510793,-40.88901059702039,0 173.0467712692916,-40.88982741348445,0 173.0472547374666,-40.8898766990751,0 173.0481909960508,-40.8904158230871,0 173.0484732985497,-40.89032119140029,0 173.0492080561817,-40.89044817723334,0 173.0497578252107,-40.89089711196721,0 173.0498030036688,-40.89143707416952,0 173.0500231962651,-40.89168819598854,0 173.04990677163,-40.89169423095882,0 173.0499018263072,-40.89204777963459,0 173.0495016742498,-40.89129768311977,0 173.049018541351,-40.89095930568874,0 173.0493668094277,-40.89143606834114,0 173.0490684136748,-40.89139583520591,0 173.0487089976668,-40.89107799343765,0 173.0483344104141,-40.89106005616486,0 173.0486997775733,-40.89119584299624,0 173.0492609459907,-40.89179858565331,0 173.0491233151406,-40.89213226921856,0 173.049174696207,-40.89279511012137,0 173.049317356199,-40.8928713016212,0 173.0494956392795,-40.89260349981487,0 173.0496598407626,-40.89309166185558,0 173.0498699750751,-40.89286895468831,0 173.0498866550624,-40.89311261661351,0 173.049341076985,-40.8931443002075,0 173.0494523886591,-40.89363656938076,0 173.0492664780468,-40.89384284801781,0 173.049666211009,-40.89352089911699,0 173.0504210013896,-40.89350245893002,0 173.0498012434691,-40.89358015917242,0 173.0498975515366,-40.89372994378209,0 173.0504262819886,-40.89366942644119,0 173.050231654197,-40.89369046501815,0 173.0502087716013,-40.89394661597908,0 173.0499131418765,-40.89413730427623,0 173.0503165628761,-40.89449353516102,0 173.0503501743078,-40.89471682906151,0 173.0506297945976,-40.89467617683113,0 173.0506904795766,-40.89452664367855,0 173.05071529001,-40.89474214240909,0 173.0509085766971,-40.89477047324181,0 173.0504612345248,-40.89487181045115,0 173.0503515154123,-40.89545334689319,0 173.0502049997449,-40.89550288394094,0 173.0505794193596,-40.89532468467951,0 173.0507336463779,-40.89555518701673,0 173.050390323624,-40.89588828384876,0 173.0506498273462,-40.89596070349216,0 173.050797181204,-40.89621542952955,0 173.0506210774183,-40.89622842147946,0 173.0506273638457,-40.89636714197695,0 173.0510605406016,-40.89776985347271,0 173.0514093115926,-40.8983227238059,0 173.0516367126256,-40.89932695962489,0 173.0511736962944,-40.90009004808962,0 173.0508556030691,-40.90029657818377,0 173.0509361531585,-40.90070905163884,0 173.0507830157876,-40.90099336579442,0 173.051011255011,-40.90110719203949,0 173.0512285977602,-40.90181604959071,0 173.0505639128387,-40.90205099433661,0 173.050781339407,-40.90231452137232,0 173.0510419327766,-40.90233312919736,0 173.0506576225162,-40.90253731235862,0 173.0504591390491,-40.90286890044808,0 173.0509386677295,-40.90309688821435,0 173.0510870274156,-40.90394186787307,0 173.0508084129542,-40.90443103574216,0 173.0500128027052,-40.90446380898356,0 173.0504133738577,-40.90565823018551,0 173.0501751601696,-40.90555161237717,0 173.0498117208481,-40.90606550686061,0 173.0492295976728,-40.90629072859883,0 173.0494337808341,-40.90642835944891,0 173.0492641311139,-40.90666707605124,0 173.0499598290771,-40.90705105103552,0 173.0496640317142,-40.90710947290063,0 173.0494300089777,-40.90784154832363,0 173.0490910448134,-40.90785839594901,0 173.0490058846772,-40.90836835093796,0 173.0487866979092,-40.90850346721709,0 173.0483448877931,-40.90931223705411,0 173.0484784115106,-40.90985965915024,0 173.0490544997156,-40.91036081314087,0 173.0495316814631,-40.91043499298394,0 173.0498868227005,-40.91099867597222,0 173.0501738190651,-40.91105558909476,0 173.050340116024,-40.91152992099524,0 173.0502646788955,-40.912303654477,0 173.0504938401282,-40.91256441548467,0 173.0503220111132,-40.91279659420252,0 173.0504048243165,-40.91296481899917,0 173.0515838228166,-40.91342096216977,0 173.0503920838237,-40.91320797801018,0 173.0504965223372,-40.91337234713137,0 173.050297871232,-40.91339975595474,0 173.050408763811,-40.91324343346059,0 173.0515772011131,-40.91346161440015,0 173.0510318744928,-40.91311116702855,0 173.0504936724901,-40.9130045492202,0 173.0503173172474,-40.91282023116946,0 173.0503765773028,-40.91263272799551,0 173.0494022648782,-40.91229242272675,0 173.0493316054344,-40.91196577996016,0 173.0487761367112,-40.91208404861391,0 173.048291830346,-40.91177525930107,0 173.0479224398732,-40.91177106834948,0 173.0478123854846,-40.91230767779052,0 173.0479658581316,-40.91300304047763,0 173.0483595561236,-40.91338559053838,0 173.0481078475714,-40.91340813785791,0 173.0479389522225,-40.91362472623587,0 173.0473833158612,-40.91360536403954,0 173.047094726935,-40.91385958716273,0 173.0462572909892,-40.91380250640213,0 173.045276273042,-40.91446727514267,0 173.04487997666,-40.91448470950127,0 173.0448204651475,-40.91473775915802,0 173.0457265488803,-40.91492962092161,0 173.0460569635034,-40.91533631086349,0 173.0468311998993,-40.91581248678267,0 173.0481011420488,-40.91645881533623,0 173.0484126135707,-40.91647172346711,0 173.0492456909269,-40.91720212250948,0 173.0492472834885,-40.91761451214552,0 173.0499796103686,-40.91806353069842,0 173.0502196680754,-40.91808565892279,0 173.0507136974484,-40.91779111884534,0 173.0509589519352,-40.91790276579559,0 173.0506978556514,-40.91825162060559,0 173.0509156174958,-40.91831222176552,0 173.0516096390784,-40.91918913647532,0 173.0522777605802,-40.91964293271303,0 173.0530929844826,-40.91990235261619,0 173.0540100485086,-40.91980269178748,0 173.0541499424726,-40.9204248804599,0 173.0543112941086,-40.92053954489529,0 173.0541936121881,-40.92079938389361,0 173.0535474512726,-40.92062654905021,0 173.0534884426743,-40.92106852680445,0 173.0527403578162,-40.9214510768652,0 173.0522598233074,-40.92147647403181,0 173.0524365976453,-40.92172273434699,0 173.0519973859191,-40.92205482535064,0 173.0528623145074,-40.92210939154029,0 173.052951162681,-40.92232002876699,0 173.0537038575858,-40.92280953191221,0 173.0537873413414,-40.92314095236361,0 173.0541948694736,-40.92325100675225,0 173.0544703826308,-40.92319015413523,0 173.0547819379717,-40.92278019525111,0 173.0551292002201,-40.92263208702207,0 173.0559864174575,-40.92153514735401,0 173.0565074365586,-40.92177780345082,0 173.0567721370608,-40.9221831522882,0 173.0565894115716,-40.92173824086785,0 173.0559999123216,-40.92161460779607,0 173.0552988499403,-40.92225146479905,0 173.0552283581346,-40.9224989823997,0 173.0546008888632,-40.92289226129651,0 173.0545490887016,-40.92317976057529,0 173.0548597220331,-40.92400345019996,0 173.0546353384852,-40.92426748014987,0 173.0545690376312,-40.92488296329975,0 173.0543516948819,-40.92492638155818,0 173.0544564686716,-40.92494574375451,0 173.0537027679384,-40.92493157833815,0 173.0532758776098,-40.92457199469209,0 173.0522030778229,-40.92440846376121,0 173.0526396073401,-40.92524908483028,0 173.0523445643485,-40.9254380967468,0 173.0526792537421,-40.92580949887633,0 173.0527939181775,-40.92621141113341,0 173.0525077600032,-40.92639673501253,0 173.052253453061,-40.92742192558944,0 173.0516279954463,-40.92760641127825,0 173.0512728542089,-40.92753105796874,0 173.0509949941188,-40.9278333093971,0 173.0500611662865,-40.92802383005619,0 173.0499449931085,-40.92824100516737,0 173.0497465934604,-40.92813530936837,0 173.0495431646705,-40.92847242951393,0 173.0488343909383,-40.92850654385984,0 173.0485286191106,-40.92891801148653,0 173.0486193951219,-40.92923769727349,0 173.0483854562044,-40.92913971282542,0 173.0479036644101,-40.92932621017098,0 173.0479416344315,-40.9298381768167,0 173.0486270226538,-40.93014302663505,0 173.0482215061784,-40.93021553009748,0 173.0480986274779,-40.93053940683603,0 173.0482400301844,-40.93042524531484,0 173.0485452990979,-40.9307864215225,0 173.0483955983073,-40.93091147951782,0 173.048482267186,-40.9311331808567,0 173.0489153601229,-40.93125731684268,0 173.0489061400294,-40.93159711919725,0 173.0491341277957,-40.93186953105032,0 173.0495771951973,-40.93199333176017,0 173.0496631935239,-40.93263329006732,0 173.0500871501863,-40.93332823365927,0 173.049512989819,-40.93325765803456,0 173.0491127539426,-40.93340157531202,0 173.0469936411828,-40.9321350697428,0 173.0469903722405,-40.93243505805731,0 173.0472655501217,-40.9327445179224,0 173.0470060463995,-40.93349654227495,0 173.0478485953063,-40.93385034240782,0 173.0476295761764,-40.93432475812733,0 173.0478246230632,-40.93451092019677,0 173.0480377748609,-40.9344885405153,0 173.0481554567814,-40.93473337590694,0 173.0486099235713,-40.93486396595836,0 173.0482413712889,-40.93506840057671,0 173.0482408683747,-40.93538951128721,0 173.0487143620849,-40.93528272584081,0 173.0487910564989,-40.93547198921442,0 173.049409808591,-40.93575253151357,0 173.0495034344494,-40.93623834662139,0 173.0501298140734,-40.93636223115027,0 173.0503678601235,-40.93674972653389,0 173.0502414610237,-40.936921807006,0 173.0502997990698,-40.93722724355757,0 173.0508719477803,-40.9376316703856,0 173.0505411140621,-40.93796317465603,0 173.0504546128213,-40.93781054019928,0 173.0497395526618,-40.93777416273952,0 173.0497605074197,-40.93801522627473,0 173.0500613339245,-40.93821278773248,0 173.0493752751499,-40.93854060396552,0 173.048550747335,-40.93857144936919,0 173.0482717975974,-40.93836776912212,0 173.0482710432261,-40.93818579800427,0 173.0476278159767,-40.93802997842431,0 173.0475404765457,-40.93835603445768,0 173.0480360146612,-40.93911568634212,0 173.048368440941,-40.93913781456649,0 173.0491078924388,-40.93954643234611,0 173.0497841443866,-40.93961491249502,0 173.0494882632047,-40.939976926893,0 173.0492689926177,-40.94001498073339,0 173.0493180267513,-40.94044589437544,0 173.0487209837884,-40.94090555794537,0 173.049512822181,-40.94091553241014,0 173.0499149020761,-40.94117411412299,0 173.0502483341843,-40.94176964834332,0 173.0498842243105,-40.9419815428555,0 173.0493989959359,-40.94200015068054,0 173.0493031907827,-40.94218103215098,0 173.0501529481262,-40.94262359663844,0 173.0504551995546,-40.94345918856561,0 173.0499575659633,-40.94311033375561,0 173.0491302721202,-40.94322114251554,0 173.0482373479754,-40.94298628158867,0 173.0487368255854,-40.94328844919801,0 173.0491316132247,-40.94400744885206,0 173.0497546400875,-40.94461228698492,0 173.0495637841523,-40.94459116458893,0 173.049230184406,-40.94518275931478,0 173.0486944969743,-40.94518116675317,0 173.048498025164,-40.94531997106969,0 173.0485418625176,-40.9473037160933,0 173.0484007950872,-40.94707740470767,0 173.0474309250712,-40.94751896336675,0 173.0460806004703,-40.94763597473502,0 173.0464990250766,-40.94823368825018,0 173.0466431099921,-40.94874733127654,0 173.0471749417484,-40.94877549447119,0 173.0469024460763,-40.94918855465949,0 173.0469354707748,-40.94969029538333,0 173.0476719886065,-40.95196673646569,0 173.0490422621369,-40.95368879847229,0 173.0505651701242,-40.95440754666924,0 173.0505708698183,-40.95422130078077,0 173.0509312078357,-40.95402591861784,0 173.0515137501061,-40.95448792912066,0 173.0518481042236,-40.95437418669462,0 173.0543303210288,-40.9558308776468,0 173.0562960449606,-40.95641375519335,0 173.0576726887375,-40.95652255229652,0 173.0579896084964,-40.95680116675794,0 173.0586800258607,-40.95701599493623,0 173.0593525059521,-40.9570452477783,0 173.0594041384757,-40.95682103186846,0 173.0595420207828,-40.95685514621437,0 173.0594048928469,-40.95677635632455,0 173.0594912264496,-40.95694441348314,0 173.059402294457,-40.95672187395394,0 173.0595157854259,-40.95685229636729,0 
		</coordinates>
	</LineString>
	<atom:link rel="app" href="https://www.google.com/earth/about/versions/#earth-pro" title="Google Earth Pro 7.3.7.1155"></atom:link>
</Placemark>
</kml>
