<?xml version="1.0" encoding="UTF-8"?>
<kml xmlns="http://www.opengis.net/kml/2.2" xmlns:gx="http://www.google.com/kml/ext/2.2" xmlns:kml="http://www.opengis.net/kml/2.2" xmlns:atom="http://www.w3.org/2005/Atom">
<Placemark>
	<name>Track</name>
	<Style>
		<LineStyle>
			<color>ff0000ff</color>
			<width>3</width>
		</LineStyle>
	</Style>
	<LineString>
		<tessellate>1</tessellate>
		<coordinates>
			173.0594608839601,-40.95680586062372,0 173.0595280230045,-40.95688817091286,0 173.059386620298,-40.95660293474793,0 173.058908181265,-40.95654451288283,0 173.0574788153172,-40.9565824829042,0 173.0570376757532,-40.95671751536429,0 173.0577785521746,-40.9566514659673,0 173.0580627825111,-40.95684005878866,0 173.0584811232984,-40.95688708126545,0 173.0590199120343,-40.95713258720934,0 173.060020878911,-40.95707450062037,0 173.0605342704803,-40.95729913562536,0 173.0607928521931,-40.95723300240934,0 173.0607567261904,-40.95710425637662,0 173.0610034894198,-40.95715614035726,0 173.0616006162018,-40.95683653838933,0 173.062256583944,-40.95679747872055,0 173.0625676363707,-40.9564802236855,0 173.0630129668862,-40.95625382848084,0 173.0631899088621,-40.95602860674262,0 173.06316845119,-40.95589005388319,0 173.0634551122785,-40.95578678883612,0 173.0634981114417,-40.95561873167753,0 173.0633934214711,-40.95542217604816,0 173.0629259627312,-40.95527180470526,0 173.0629373621196,-40.95488213002682,0 173.0618690047413,-40.95466160215437,0 173.0620528198779,-40.95426429994404,0 173.0613705329597,-40.95290986821055,0 173.0614476464689,-40.95238440670073,0 173.0613113567233,-40.95138033851981,0 173.0614219140261,-40.95129660330713,0 173.0613738019019,-40.95149357803166,0 173.0614618118852,-40.9516208153218,0 173.0618108343333,-40.95178744755685,0 173.0622294265777,-40.95110750757158,0 173.0626226216555,-40.95079788006842,0 173.0629479233176,-40.95082688145339,0 173.0633107759058,-40.95069503411651,0 173.063678573817,-40.95075303688645,0 173.0643289256841,-40.95056109130383,0 173.0649703927338,-40.95004317350686,0 173.0663779657334,-40.94921336509287,0 173.0653595644981,-40.94987746328115,0 173.0653028190136,-40.95029295422137,0 173.0650468356907,-40.95078572630882,0 173.0650524515659,-40.95142090693116,0 173.0649411398917,-40.95153456553817,0 173.0647759325802,-40.95164679922163,0 173.0639043822885,-40.95164629630744,0 173.0638885404915,-40.95177453942597,0 173.0640865210444,-40.95202138647437,0 173.064072355628,-40.9523185249418,0 173.0636921525002,-40.95280081965029,0 173.0640535801649,-40.95317716710269,0 173.0640063900501,-40.95302143134177,0 173.0641775485128,-40.95309720374644,0 173.0641588568687,-40.95339249819517,0 173.0639664083719,-40.95347011461854,0 173.0642205476761,-40.95392215065658,0 173.0641156062484,-40.95446915365756,0 173.0639900453389,-40.95468431711197,0 173.0637725349516,-40.9547724109143,0 173.0629136413336,-40.95495119690895,0 173.0628885794431,-40.95520173199475,0 173.0632997117937,-40.95535185188055,0 173.0635103490204,-40.9556892234832,0 173.0632801819593,-40.95574026927352,0 173.0632877256721,-40.95596926286817,0 173.0627148225904,-40.95631459727883,0 173.0623843241483,-40.95671282149851,0 173.0613836087286,-40.95688339322805,0 173.0605015810579,-40.95726518891752,0 173.0598478764296,-40.95702680759132,0 173.059373209253,-40.95702974125743,0 173.0581758543849,-40.95677794888616,0 173.0577899515629,-40.95655113458633,0 173.0565817002207,-40.95678247511387,0 173.0548318102956,-40.9566184412688,0 173.0545000545681,-40.95645767636597,0 173.0542569793761,-40.9568465128541,0 173.0542902555317,-40.95724582672119,0 173.0553882010281,-40.95744456164539,0 173.05524780415,-40.95777682028711,0 173.0558396503329,-40.9585178643465,0 173.0564863979816,-40.9589703194797,0 173.0565304867923,-40.95934239216149,0 173.0562909319997,-40.95972410403192,0 173.0559621937573,-40.95973424613476,0 173.0555547494441,-40.9600395988673,0 173.0557176098228,-40.96082213334739,0 173.055031048134,-40.96083168871701,0 173.0547381844372,-40.96096227876842,0 173.0542480107397,-40.96137642860413,0 173.0534885264933,-40.96166166476905,0 173.0523784272373,-40.9625846799463,0 173.0525290500373,-40.96256347373128,0 173.0524210911244,-40.96282356418669,0 173.0526265315711,-40.96340510062873,0 173.0524696223438,-40.96283513121307,0 173.0525001324713,-40.96251217648387,0 173.0515540670604,-40.9625246655196,0 173.050086228177,-40.96207522787154,0 173.0494484491646,-40.96222341991961,0 173.0484566185623,-40.96290386281908,0 173.0478972103447,-40.96312237903476,0 173.0468420125544,-40.9632374625653,0 173.0461028125137,-40.96317283809185,0 173.0456835497171,-40.96293135546148,0 173.0453905183822,-40.96361313946545,0 173.0449786316603,-40.96323779784143,0 173.0444946605712,-40.96344457939267,0 173.0441695265472,-40.9633859898895,0 173.0439122021198,-40.96316588111222,0 173.043883703649,-40.96289992332458,0 173.0436622537673,-40.96289640292525,0 173.0431352835149,-40.9625643119216,0 173.0429359618574,-40.96258183009923,0 173.0431243032217,-40.96320829354227,0 173.0428833235055,-40.96335765905678,0 173.0429614428431,-40.9635517001152,0 173.0428347922862,-40.96374473534524,0 173.04318591021,-40.96391522325575,0 173.0433107167482,-40.96415511332452,0 173.0432755965739,-40.9643117710948,0 173.0428905319422,-40.96430799923837,0 173.0429861694574,-40.96454596146941,0 173.043415741995,-40.96468694508076,0 173.0438966117799,-40.96455635502934,0 173.0439151357859,-40.96474922262132,0 173.0440588016063,-40.96485123038292,0 173.0443824268878,-40.96464629285038,0 173.0446467921138,-40.96468744799495,0 173.0445057246834,-40.96508483402431,0 173.0441879667342,-40.96511299721897,0 173.0441861227155,-40.96560778096318,0 173.0443111807108,-40.96571808680892,0 173.0448989197612,-40.96552957780659,0 173.0454134847969,-40.96556100994349,0 173.0453777778894,-40.96611513756216,0 173.0450691562146,-40.96621354110539,0 173.0450504645705,-40.96632124856114,0 173.0453056935221,-40.96657320857048,0 173.0452400632203,-40.96683321520686,0 173.0455962941051,-40.96680647693574,0 173.0458003934473,-40.96647103317082,0 173.0465758033097,-40.96610935404897,0 173.047060361132,-40.96604380756617,0 173.0469833314419,-40.96636072732508,0 173.0467685870826,-40.96650497987866,0 173.046621484682,-40.96687286160886,0 173.045974066481,-40.96699666231871,0 173.0459119565785,-40.96715264953673,0 173.0461534392089,-40.96780987456441,0 173.0459585599601,-40.96800961531699,0 173.045656811446,-40.96805085428059,0 173.0450943857431,-40.96844706684351,0 173.04518641904,-40.96861436963081,0 173.0456738267094,-40.96870330162346,0 173.0453606788069,-40.9689481370151,0 173.0457381159067,-40.96928031183779,0 173.0465062335134,-40.96928978338838,0 173.047020630911,-40.96990157850087,0 173.0469570122659,-40.97011171281338,0 173.0465789046139,-40.97032033838332,0 173.0466551799327,-40.97076248377562,0 173.0463747214526,-40.97075468860567,0 173.0462533514947,-40.97087354399264,0 173.0463268607855,-40.97109625115991,0 173.0462379287928,-40.97118543460965,0 173.0464581213892,-40.97151786088943,0 173.0464782379568,-40.97181608900428,0 173.0463383439928,-40.97188792191446,0 173.0463676806539,-40.97199738956988,0 173.0467690061778,-40.97232554107904,0 173.0473824776709,-40.9732070658356,0 173.0479002278298,-40.97355927340686,0 173.0481070093811,-40.97394735552371,0 173.0479471664876,-40.97357335500419,0 173.0474938731641,-40.97328007221222,0 173.0468707624823,-40.9724990464747,0 173.0462493281811,-40.97243911586702,0 173.046114211902,-40.97253190353513,0 173.0460430495441,-40.97288486547768,0 173.0457617528737,-40.97277204506099,0 173.0454848986119,-40.97282988019288,0 173.0452723335475,-40.97264162264764,0 173.0449475347996,-40.97267548553646,0 173.0448779650033,-40.97247457131743,0 173.0445751268417,-40.97246342338622,0 173.0443352367729,-40.97272175364196,0 173.0435737408698,-40.97251178696752,0 173.0432087928057,-40.97273969091475,0 173.042279323563,-40.97242562100291,0 173.0422750487924,-40.97277749329805,0 173.0423915572464,-40.97297136671841,0 173.0430051963776,-40.97308829426765,0 173.042977117002,-40.9730136115104,0 173.042876534164,-40.97311964258552,0 173.0428190343082,-40.97346028313041,0 173.0424534995109,-40.97368810325861,0 173.042279491201,-40.97402698360384,0 173.0424182955176,-40.97404584288597,0 173.0422702711076,-40.97404642961919,0 173.0425560940057,-40.97380980849266,0 173.0428825691342,-40.97327026538551,0 173.0427495483309,-40.97309776581824,0 173.0423472169787,-40.97292250022292,0 173.0423604603857,-40.97259317524731,0 173.0422414373606,-40.97290850244462,0 173.0425698403269,-40.97325425595045,0 173.0420398525894,-40.97358760423958,0 173.0413783527911,-40.97332692705095,0 173.0414303205907,-40.97380796447396,0 173.0415978748351,-40.97399421036243,0 173.0414133053273,-40.97443040460348,0 173.0413218587637,-40.97449737600982,0 173.0405839160085,-40.97427919507027,0 173.0404595285654,-40.97452218644321,0 173.0406960658729,-40.97505770623684,0 173.0403866060078,-40.97518888302147,0 173.0405375640839,-40.97544813528657,0 173.040891867131,-40.975570846349,0 173.0408880114555,-40.97582163289189,0 173.0407067108899,-40.97600343637168,0 173.0406237300485,-40.97630954347551,0 173.0404322873801,-40.97634214907885,0 173.0403943173587,-40.97653040662408,0 173.0397325661033,-40.97657508216798,0 173.0395882297307,-40.97681798972189,0 173.0397088453174,-40.97705829888582,0 173.0402908008546,-40.97731755115092,0 173.0404605343938,-40.97780185751617,0 173.0403073132038,-40.9779454395175,0 173.0398774053901,-40.97803755663335,0 173.0401101708412,-40.97845489159226,0 173.0402930639684,-40.97857098095119,0 173.0399689357728,-40.9788432251662,0 173.0399429518729,-40.97949768416584,0 173.0397385172546,-40.97966565750539,0 173.0400867015123,-40.98037535324693,0 173.0396751500666,-40.98055849783123,0 173.0393263790756,-40.98095387220383,0 173.0391077790409,-40.98098916001618,0 173.0388528853655,-40.98137657158077,0 173.038206640631,-40.98134798929095,0 173.0383101571351,-40.98144010640681,0 173.0381175410002,-40.98153599537909,0 173.0383432656527,-40.98164018243551,0 173.0383022781461,-40.98171109333634,0 173.0385337024927,-40.9816911444068,0 173.0380077380687,-40.98261466249824,0 173.0381887033582,-40.98227351903915,0 173.0381113383919,-40.98186087794602,0 173.0382531601936,-40.98164378665388,0 173.0380844324827,-40.98146173171699,0 173.0383199639618,-40.98147665150464,0 173.0380579456687,-40.98131882026792,0 173.0378807522357,-40.98133005201817,0 173.0378544330597,-40.98149827681482,0 173.0375971924514,-40.98170908167958,0 173.0369111336768,-40.98182701505721,0 173.036446524784,-40.98203203640878,0 173.0360219813883,-40.98200798034668,0 173.0354373436421,-40.98234032280743,0 173.0356588773429,-40.98248222842813,0 173.0355086736381,-40.98271558061242,0 173.0355780757964,-40.98290761001408,0 173.0362999252975,-40.98327071405947,0 173.0364653840661,-40.98354698158801,0 173.0365015100688,-40.98401720635593,0 173.0361631326377,-40.98426170647144,0 173.0361653957516,-40.98444141447544,0 173.0364045314491,-40.98453872837126,0 173.0363242328167,-40.98484843969345,0 173.0364576727152,-40.98511666059494,0 173.0358383338898,-40.98578972741961,0 173.0356566980481,-40.98582157865167,0 173.0352854635566,-40.98565855063498,0 173.0350920092314,-40.98599223420024,0 173.0347185954452,-40.98601226694882,0 173.0345398932695,-40.98609407432377,0 173.0345336906612,-40.98620345816016,0 173.0350060947239,-40.98637210205197,0 173.0351416300982,-40.98653990775347,0 173.035696009174,-40.98666018806398,0 173.0355049856007,-40.98694089800119,0 173.0355392675847,-40.9871460031718,0 173.0354013852775,-40.98714910447598,0 173.0352879781276,-40.98733954131603,0 173.0357266869396,-40.98771085962653,0 173.03601577878,-40.9882234968245,0 173.0359877832234,-40.98870503716171,0 173.0357975140214,-40.98894216120243,0 173.0354506708682,-40.98907794803381,0 173.0351345892996,-40.98901332356036,0 173.0345869157463,-40.98871031776071,0 173.0345430783927,-40.98846430890262,0 173.0336465500295,-40.98839775659144,0 173.0336409341544,-40.98826951347291,0 173.033135086298,-40.98843547515571,0 173.0325930286199,-40.98833003081381,0 173.0324728321284,-40.98819114267826,0 173.0321098957211,-40.98825509659946,0 173.0318658985198,-40.98804873414338,0 173.0320370569825,-40.98765109665692,0 173.0318555887789,-40.98757456988096,0 173.0312928277999,-40.9877245221287,0 173.0308767501265,-40.98761136643589,0 173.0307052563876,-40.98776358179748,0 173.030777676031,-40.98803582601249,0 173.0306300707161,-40.98829390481114,0 173.0304121412337,-40.9882752969861,0 173.0303344409913,-40.98840957507491,0 173.0295643955469,-40.98856966942549,0 173.0284347664565,-40.98861023783684,0 173.0280585028231,-40.98848928697407,0 173.0279786232859,-40.98827244713902,0 173.0277048703283,-40.9881302062422,0 173.0274888686836,-40.98841770552099,0 173.0275012739003,-40.98866580985487,0 173.0280511267483,-40.98928355611861,0 173.0279267393053,-40.98944574594498,0 173.0272474698722,-40.98916243761778,0 173.0267411191016,-40.98931884393096,0 173.0261427350342,-40.98881701938808,0 173.0256057903171,-40.98869757726789,0 173.0255305208266,-40.98844880238175,0 173.0253120884299,-40.98841125145555,0 173.0249700229615,-40.98863094113767,0 173.0248715355992,-40.98887787200511,0 173.0249600484967,-40.98949779756367,0 173.0245442222804,-40.98982226103544,0 173.0246295500547,-40.99008981138468,0 173.024559058249,-40.98987682722509,0 173.0237535573542,-40.9902407694608,0 173.0229399260134,-40.98979895934463,0 173.0225273687392,-40.99022434093058,0 173.0220400448889,-40.99044922739267,0 173.0208504851907,-40.99013901315629,0 173.0197309143841,-40.99017924629152,0 173.0187876988202,-40.99001144059002,0 173.0183339025825,-40.99008260294795,0 173.0181194096804,-40.98994279280305,0 173.0171013437212,-40.99005267955363,0 173.0156293138862,-40.99047898314893,0 173.0152157507837,-40.99029826931655,0 173.0151913594455,-40.9906604513526,0 173.0138913262635,-40.99060957320035,0 173.0132531281561,-40.99100695922971,0 173.0125757865608,-40.99190541543067,0 173.0122518260032,-40.99204413592815,0 173.0116024799645,-40.99208545871079,0 173.0113008990884,-40.99195796996355,0 173.010536134243,-40.99192821420729,0 173.0096966028214,-40.99151959642768,0 173.0092787649482,-40.991076445207,0 173.0091070197523,-40.99103529006243,0 173.0081456992775,-40.99113763310015,0 173.0062949750572,-40.9939743205905,0 173.0058991815895,-40.99489356391132,0 173.0052539426833,-40.9955386351794,0 173.0052122008055,-40.99596234038472,0 173.0049559660256,-40.99652669392526,0 173.0047392938286,-40.99658327177167,0 173.0036321282387,-40.9983294736594,0 173.0036079045385,-40.99863549694419,0 173.0038239900023,-40.99904646165669,0 173.005982581526,-41.00162171758711,0 173.005992975086,-41.00174065679312,0 173.00556499511,-41.00212555378675,0 173.0049420520663,-41.00193310528994,0 
		</coordinates>
	</LineString>
	<atom:link rel="app" href="https://www.google.com/earth/about/versions/#earth-pro" title="Google Earth Pro 7.3.7.1155"></atom:link>
</Placemark>
</kml>
