<?xml version="1.0" encoding="UTF-8"?>
<kml xmlns="http://www.opengis.net/kml/2.2" xmlns:gx="http://www.google.com/kml/ext/2.2" xmlns:kml="http://www.opengis.net/kml/2.2" xmlns:atom="http://www.w3.org/2005/Atom">
<Placemark>
	<name>Track</name>
	<snippet></snippet>
	<Style>
		<LineStyle>
			<color>ff0000ff</color>
			<width>3</width>
		</LineStyle>
	</Style>
	<MultiGeometry>
		<LineString>
			<tessellate>1</tessellate>
			<coordinates>
				173.0466265138239,-40.88861136697233,0 173.0466332193464,-40.88841472752392,0 173.0463649984449,-40.88832579553127,0 173.04632820189,-40.88813544251025,0 173.046613773331,-40.88773378171027,0 173.046476142481,-40.88738559745252,0 173.0468031205237,-40.88616074994206,0 173.0477637704462,-40.88477270677686,0 173.0489836726338,-40.88359370827675,0 173.0512410029769,-40.88202017359436,0 173.0513375625014,-40.8817639388144,0 173.0511835031211,-40.88125674985349,0 173.0514039471745,-40.88102700188756,0 173.0519465915859,-40.8808711823076,0 173.0523449834436,-40.87997582741082,0 173.0529641546309,-40.87987222708762,0 173.0527102667838,-40.87921349331737,0 173.0530719459057,-40.87873262353241,0 173.0527038127184,-40.87868928909302,0 173.0524459853768,-40.87828544899821,0 173.0527557805181,-40.87794405408204,0 173.0532080680132,-40.87779150344431,0 173.0534042883664,-40.87739495560527,0 173.0530262645334,-40.87732865475118,0 173.0528417788446,-40.87706822901964,0 173.0521277245134,-40.8767615351826,0 173.051820024848,-40.87625761516392,0 173.0514508020133,-40.87609961628914,0 173.0512353032827,-40.87576450780034,0 173.0520115513355,-40.87479773908854,0 173.0513367243111,-40.87471031583846,0 173.0516031850129,-40.87409030646086,0 173.0515746027231,-40.87386080995202,0 173.0513481236994,-40.87405535392463,0 173.0511943995953,-40.87396625429392,0 173.0510496441275,-40.87343157269061,0 173.0511536635458,-40.87295229546726,0 173.0505994521081,-40.87326477281749,0 173.0497659556568,-40.87299822829664,0 173.0486695189029,-40.87212315760553,0 173.0484085064381,-40.87212667800486,0 173.0483864620328,-40.87133358232677,0 173.0479865614325,-40.87124632671475,0 173.0478574801236,-40.87091515772045,0 173.0480727273971,-40.8705204539001,0 173.0470535717905,-40.87022507563233,0 173.0471328645945,-40.87014008313417,0 173.0463430378586,-40.86972501128912,0 173.0462919082493,-40.86927574127913,0 173.0458678677678,-40.86895211599767,0 173.0461814347655,-40.86920214816928,0 173.0462795030326,-40.86964965797961,0 173.0474632792175,-40.87036522105336,0 173.0480741523206,-40.87054400704801,0 173.0478437338024,-40.87091331370175,0 173.0483569577336,-40.87129854597151,0 173.0484118591994,-40.8720522467047,0 173.0492172762752,-40.87268147617579,0 173.0496866628528,-40.87302002124488,0 173.0504101049155,-40.87325060740113,0 173.0511579383165,-40.87297165766358,0 173.050992898643,-40.87336409837008,0 173.0511469580233,-40.87392141111195,0 173.0512952338904,-40.87401897646487,0 173.0515150073916,-40.87388654239476,0 173.0516212899238,-40.87404755875468,0 173.0512803979218,-40.87465264834464,0 173.0515453498811,-40.87483034469187,0 173.051965534687,-40.87476689368486,0 173.0512515641749,-40.87556828744709,0 173.051262544468,-40.87586073204875,0 173.05145801045,-40.87616499513388,0 173.0518249701709,-40.8762398455292,0 173.0521153192967,-40.8767528180033,0 173.0523641780019,-40.87676404975355,0 173.0524176545441,-40.87696831673384,0 173.0528207402676,-40.87702950462699,0 173.0531647335738,-40.87738523259759,0 173.0534171964973,-40.87741808965802,0 173.0532056372613,-40.87779049761593,0 173.0527130328119,-40.87797825224698,0 173.0524137988687,-40.87828477844596,0 173.0526429601014,-40.87861209176481,0 173.0530149489641,-40.87861586362123,0 173.0526940897107,-40.87926227599382,0 173.0529812537134,-40.87991807609797,0 173.0523411277682,-40.8799628354609,0 173.0518947076052,-40.88093664497137,0 173.0511384923011,-40.88128005154431,0 173.051317948848,-40.88176821358502,0 173.0511931423098,-40.88209209032357,0 173.0494738463312,-40.88319296948612,0 173.0477721523494,-40.88501553051174,0 173.0468498915434,-40.88689198717475,0 173.0466362368315,-40.88865151628852,0 173.0461820214987,-40.88865243829787,0 173.0458832066506,-40.88839394040406,0 173.0458171572536,-40.8879875857383,0 173.0454525444657,-40.88782271370292,0 173.0453611817211,-40.88803930208087,0 173.0453113093972,-40.88782648555934,0 173.0454734992236,-40.88764610700309,0 173.0454355292022,-40.88782095350325,0 173.0458680354059,-40.88780041784048,0 173.0459717195481,-40.888293357566,0 173.0462554469705,-40.88854908943176,0 173.0461760703474,-40.88887623511255,0 173.0465351510793,-40.88901059702039,0 173.0467712692916,-40.88982741348445,0 173.0472547374666,-40.8898766990751,0 173.0481909960508,-40.8904158230871,0 173.0484732985497,-40.89032119140029,0 173.0492080561817,-40.89044817723334,0 173.0497578252107,-40.89089711196721,0 173.0498030036688,-40.89143707416952,0 173.0500231962651,-40.89168819598854,0 173.04990677163,-40.89169423095882,0 173.0499018263072,-40.89204777963459,0 173.0495016742498,-40.89129768311977,0 173.049018541351,-40.89095930568874,0 173.0493668094277,-40.89143606834114,0 173.0490684136748,-40.89139583520591,0 173.0487089976668,-40.89107799343765,0 173.0483344104141,-40.89106005616486,0 173.0486997775733,-40.89119584299624,0 173.0492609459907,-40.89179858565331,0 173.0491233151406,-40.89213226921856,0 173.049174696207,-40.89279511012137,0 173.049317356199,-40.8928713016212,0 173.0494956392795,-40.89260349981487,0 173.0496598407626,-40.89309166185558,0 173.0498699750751,-40.89286895468831,0 173.0498866550624,-40.89311261661351,0 173.049341076985,-40.8931443002075,0 173.0494523886591,-40.89363656938076,0 173.0492664780468,-40.89384284801781,0 173.049666211009,-40.89352089911699,0 173.0504210013896,-40.89350245893002,0 173.0498012434691,-40.89358015917242,0 173.0498975515366,-40.89372994378209,0 173.0504262819886,-40.89366942644119,0 173.050231654197,-40.89369046501815,0 173.0502087716013,-40.89394661597908,0 173.0499131418765,-40.89413730427623,0 173.0503165628761,-40.89449353516102,0 173.0503501743078,-40.89471682906151,0 173.0506297945976,-40.89467617683113,0 173.0506904795766,-40.89452664367855,0 173.05071529001,-40.89474214240909,0 173.0509085766971,-40.89477047324181,0 173.0504612345248,-40.89487181045115,0 173.0503515154123,-40.89545334689319,0 173.0502049997449,-40.89550288394094,0 173.0505794193596,-40.89532468467951,0 173.0507336463779,-40.89555518701673,0 173.050390323624,-40.89588828384876,0 173.0506498273462,-40.89596070349216,0 173.050797181204,-40.89621542952955,0 173.0506210774183,-40.89622842147946,0 173.0506273638457,-40.89636714197695,0 173.0510605406016,-40.89776985347271,0 173.0514093115926,-40.8983227238059,0 173.0516367126256,-40.89932695962489,0 173.0511736962944,-40.90009004808962,0 173.0508556030691,-40.90029657818377,0 173.0509361531585,-40.90070905163884,0 173.0507830157876,-40.90099336579442,0 173.051011255011,-40.90110719203949,0 173.0512285977602,-40.90181604959071,0 173.0505639128387,-40.90205099433661,0 173.050781339407,-40.90231452137232,0 173.0510419327766,-40.90233312919736,0 173.0506576225162,-40.90253731235862,0 173.0504591390491,-40.90286890044808,0 173.0509386677295,-40.90309688821435,0 173.0510870274156,-40.90394186787307,0 173.0508084129542,-40.90443103574216,0 173.0500128027052,-40.90446380898356,0 173.0504133738577,-40.90565823018551,0 173.0501751601696,-40.90555161237717,0 173.0498117208481,-40.90606550686061,0 173.0492295976728,-40.90629072859883,0 173.0494337808341,-40.90642835944891,0 173.0492641311139,-40.90666707605124,0 173.0499598290771,-40.90705105103552,0 173.0496640317142,-40.90710947290063,0 173.0494300089777,-40.90784154832363,0 173.0490910448134,-40.90785839594901,0 173.0490058846772,-40.90836835093796,0 173.0487866979092,-40.90850346721709,0 173.0483448877931,-40.90931223705411,0 173.0484784115106,-40.90985965915024,0 173.0490544997156,-40.91036081314087,0 173.0495316814631,-40.91043499298394,0 173.0498868227005,-40.91099867597222,0 173.0501738190651,-40.91105558909476,0 173.050340116024,-40.91152992099524,0 173.0502646788955,-40.912303654477,0 173.0504938401282,-40.91256441548467,0 173.0503220111132,-40.91279659420252,0 173.0504048243165,-40.91296481899917,0 173.0515838228166,-40.91342096216977,0 173.0503920838237,-40.91320797801018,0 173.0504965223372,-40.91337234713137,0 173.050297871232,-40.91339975595474,0 173.050408763811,-40.91324343346059,0 173.0515772011131,-40.91346161440015,0 173.0510318744928,-40.91311116702855,0 173.0504936724901,-40.9130045492202,0 173.0503173172474,-40.91282023116946,0 173.0503765773028,-40.91263272799551,0 173.0494022648782,-40.91229242272675,0 173.0493316054344,-40.91196577996016,0 173.0487761367112,-40.91208404861391,0 173.048291830346,-40.91177525930107,0 173.0479224398732,-40.91177106834948,0 173.0478123854846,-40.91230767779052,0 173.0479658581316,-40.91300304047763,0 173.0483595561236,-40.91338559053838,0 173.0481078475714,-40.91340813785791,0 173.0479389522225,-40.91362472623587,0 173.0473833158612,-40.91360536403954,0 173.047094726935,-40.91385958716273,0 173.0462572909892,-40.91380250640213,0 173.045276273042,-40.91446727514267,0 173.04487997666,-40.91448470950127,0 173.0448204651475,-40.91473775915802,0 173.0457265488803,-40.91492962092161,0 173.0460569635034,-40.91533631086349,0 173.0468311998993,-40.91581248678267,0 173.0481011420488,-40.91645881533623,0 173.0484126135707,-40.91647172346711,0 173.0492456909269,-40.91720212250948,0 173.0492472834885,-40.91761451214552,0 173.0499796103686,-40.91806353069842,0 173.0502196680754,-40.91808565892279,0 173.0507136974484,-40.91779111884534,0 173.0509589519352,-40.91790276579559,0 173.0506978556514,-40.91825162060559,0 173.0509156174958,-40.91831222176552,0 173.0516096390784,-40.91918913647532,0 173.0522777605802,-40.91964293271303,0 173.0530929844826,-40.91990235261619,0 173.0540100485086,-40.91980269178748,0 173.0541499424726,-40.9204248804599,0 173.0543112941086,-40.92053954489529,0 173.0541936121881,-40.92079938389361,0 173.0535474512726,-40.92062654905021,0 173.0534884426743,-40.92106852680445,0 173.0527403578162,-40.9214510768652,0 173.0522598233074,-40.92147647403181,0 173.0524365976453,-40.92172273434699,0 173.0519973859191,-40.92205482535064,0 173.0528623145074,-40.92210939154029,0 173.052951162681,-40.92232002876699,0 173.0537038575858,-40.92280953191221,0 173.0537873413414,-40.92314095236361,0 173.0541948694736,-40.92325100675225,0 173.0544703826308,-40.92319015413523,0 173.0547819379717,-40.92278019525111,0 173.0551292002201,-40.92263208702207,0 173.0559864174575,-40.92153514735401,0 173.0565074365586,-40.92177780345082,0 173.0567721370608,-40.9221831522882,0 173.0565894115716,-40.92173824086785,0 173.0559999123216,-40.92161460779607,0 173.0552988499403,-40.92225146479905,0 173.0552283581346,-40.9224989823997,0 173.0546008888632,-40.92289226129651,0 173.0545490887016,-40.92317976057529,0 173.0548597220331,-40.92400345019996,0 173.0546353384852,-40.92426748014987,0 173.0545690376312,-40.92488296329975,0 173.0543516948819,-40.92492638155818,0 173.0544564686716,-40.92494574375451,0 173.0537027679384,-40.92493157833815,0 173.0532758776098,-40.92457199469209,0 173.0522030778229,-40.92440846376121,0 173.0526396073401,-40.92524908483028,0 173.0523445643485,-40.9254380967468,0 173.0526792537421,-40.92580949887633,0 173.0527939181775,-40.92621141113341,0 173.0525077600032,-40.92639673501253,0 173.052253453061,-40.92742192558944,0 173.0516279954463,-40.92760641127825,0 173.0512728542089,-40.92753105796874,0 173.0509949941188,-40.9278333093971,0 173.0500611662865,-40.92802383005619,0 173.0499449931085,-40.92824100516737,0 173.0497465934604,-40.92813530936837,0 173.0495431646705,-40.92847242951393,0 173.0488343909383,-40.92850654385984,0 173.0485286191106,-40.92891801148653,0 173.0486193951219,-40.92923769727349,0 173.0483854562044,-40.92913971282542,0 173.0479036644101,-40.92932621017098,0 173.0479416344315,-40.9298381768167,0 173.0486270226538,-40.93014302663505,0 173.0482215061784,-40.93021553009748,0 173.0480986274779,-40.93053940683603,0 173.0482400301844,-40.93042524531484,0 173.0485452990979,-40.9307864215225,0 173.0483955983073,-40.93091147951782,0 173.048482267186,-40.9311331808567,0 173.0489153601229,-40.93125731684268,0 173.0489061400294,-40.93159711919725,0 173.0491341277957,-40.93186953105032,0 173.0495771951973,-40.93199333176017,0 173.0496631935239,-40.93263329006732,0 173.0500871501863,-40.93332823365927,0 173.049512989819,-40.93325765803456,0 173.0491127539426,-40.93340157531202,0 173.0469936411828,-40.9321350697428,0 173.0469903722405,-40.93243505805731,0 173.0472655501217,-40.9327445179224,0 173.0470060463995,-40.93349654227495,0 173.0478485953063,-40.93385034240782,0 173.0476295761764,-40.93432475812733,0 173.0478246230632,-40.93451092019677,0 173.0480377748609,-40.9344885405153,0 173.0481554567814,-40.93473337590694,0 173.0486099235713,-40.93486396595836,0 173.0482413712889,-40.93506840057671,0 173.0482408683747,-40.93538951128721,0 173.0487143620849,-40.93528272584081,0 173.0487910564989,-40.93547198921442,0 173.049409808591,-40.93575253151357,0 173.0495034344494,-40.93623834662139,0 173.0501298140734,-40.93636223115027,0 173.0503678601235,-40.93674972653389,0 173.0502414610237,-40.936921807006,0 173.0502997990698,-40.93722724355757,0 173.0508719477803,-40.9376316703856,0 173.0505411140621,-40.93796317465603,0 173.0504546128213,-40.93781054019928,0 173.0497395526618,-40.93777416273952,0 173.0497605074197,-40.93801522627473,0 173.0500613339245,-40.93821278773248,0 173.0493752751499,-40.93854060396552,0 173.048550747335,-40.93857144936919,0 173.0482717975974,-40.93836776912212,0 173.0482710432261,-40.93818579800427,0 173.0476278159767,-40.93802997842431,0 173.0475404765457,-40.93835603445768,0 173.0480360146612,-40.93911568634212,0 173.048368440941,-40.93913781456649,0 173.0491078924388,-40.93954643234611,0 173.0497841443866,-40.93961491249502,0 173.0494882632047,-40.939976926893,0 173.0492689926177,-40.94001498073339,0 173.0493180267513,-40.94044589437544,0 173.0487209837884,-40.94090555794537,0 173.049512822181,-40.94091553241014,0 173.0499149020761,-40.94117411412299,0 173.0502483341843,-40.94176964834332,0 173.0498842243105,-40.9419815428555,0 173.0493989959359,-40.94200015068054,0 173.0493031907827,-40.94218103215098,0 173.0501529481262,-40.94262359663844,0 173.0504551995546,-40.94345918856561,0 173.0499575659633,-40.94311033375561,0 173.0491302721202,-40.94322114251554,0 173.0482373479754,-40.94298628158867,0 173.0487368255854,-40.94328844919801,0 173.0491316132247,-40.94400744885206,0 173.0497546400875,-40.94461228698492,0 173.0495637841523,-40.94459116458893,0 173.049230184406,-40.94518275931478,0 173.0486944969743,-40.94518116675317,0 173.048498025164,-40.94531997106969,0 173.0485418625176,-40.9473037160933,0 173.0484007950872,-40.94707740470767,0 173.0474309250712,-40.94751896336675,0 173.0460806004703,-40.94763597473502,0 173.0464990250766,-40.94823368825018,0 173.0466431099921,-40.94874733127654,0 173.0471749417484,-40.94877549447119,0 173.0469024460763,-40.94918855465949,0 173.0469354707748,-40.94969029538333,0 173.0476719886065,-40.95196673646569,0 173.0490422621369,-40.95368879847229,0 173.0505651701242,-40.95440754666924,0 173.0505708698183,-40.95422130078077,0 173.0509312078357,-40.95402591861784,0 173.0515137501061,-40.95448792912066,0 173.0518481042236,-40.95437418669462,0 173.0543303210288,-40.9558308776468,0 173.0562960449606,-40.95641375519335,0 173.0576726887375,-40.95652255229652,0 173.0579896084964,-40.95680116675794,0 173.0586800258607,-40.95701599493623,0 173.0593525059521,-40.9570452477783,0 173.0594041384757,-40.95682103186846,0 173.0595420207828,-40.95685514621437,0 173.0594048928469,-40.95677635632455,0 173.0594912264496,-40.95694441348314,0 173.059402294457,-40.95672187395394,0 173.0595157854259,-40.95685229636729,0 
			</coordinates>
		</LineString>
		<LineString>
			<tessellate>1</tessellate>
			<coordinates>
				173.0594608839601,-40.95680586062372,0 173.0595280230045,-40.95688817091286,0 173.059386620298,-40.95660293474793,0 173.058908181265,-40.95654451288283,0 173.0574788153172,-40.9565824829042,0 173.0570376757532,-40.95671751536429,0 173.0577785521746,-40.9566514659673,0 173.0580627825111,-40.95684005878866,0 173.0584811232984,-40.95688708126545,0 173.0590199120343,-40.95713258720934,0 173.060020878911,-40.95707450062037,0 173.0605342704803,-40.95729913562536,0 173.0607928521931,-40.95723300240934,0 173.0607567261904,-40.95710425637662,0 173.0610034894198,-40.95715614035726,0 173.0616006162018,-40.95683653838933,0 173.062256583944,-40.95679747872055,0 173.0625676363707,-40.9564802236855,0 173.0630129668862,-40.95625382848084,0 173.0631899088621,-40.95602860674262,0 173.06316845119,-40.95589005388319,0 173.0634551122785,-40.95578678883612,0 173.0634981114417,-40.95561873167753,0 173.0633934214711,-40.95542217604816,0 173.0629259627312,-40.95527180470526,0 173.0629373621196,-40.95488213002682,0 173.0618690047413,-40.95466160215437,0 173.0620528198779,-40.95426429994404,0 173.0613705329597,-40.95290986821055,0 173.0614476464689,-40.95238440670073,0 173.0613113567233,-40.95138033851981,0 173.0614219140261,-40.95129660330713,0 173.0613738019019,-40.95149357803166,0 173.0614618118852,-40.9516208153218,0 173.0618108343333,-40.95178744755685,0 173.0622294265777,-40.95110750757158,0 173.0626226216555,-40.95079788006842,0 173.0629479233176,-40.95082688145339,0 173.0633107759058,-40.95069503411651,0 173.063678573817,-40.95075303688645,0 173.0643289256841,-40.95056109130383,0 173.0649703927338,-40.95004317350686,0 173.0663779657334,-40.94921336509287,0 173.0653595644981,-40.94987746328115,0 173.0653028190136,-40.95029295422137,0 173.0650468356907,-40.95078572630882,0 173.0650524515659,-40.95142090693116,0 173.0649411398917,-40.95153456553817,0 173.0647759325802,-40.95164679922163,0 173.0639043822885,-40.95164629630744,0 173.0638885404915,-40.95177453942597,0 173.0640865210444,-40.95202138647437,0 173.064072355628,-40.9523185249418,0 173.0636921525002,-40.95280081965029,0 173.0640535801649,-40.95317716710269,0 173.0640063900501,-40.95302143134177,0 173.0641775485128,-40.95309720374644,0 173.0641588568687,-40.95339249819517,0 173.0639664083719,-40.95347011461854,0 173.0642205476761,-40.95392215065658,0 173.0641156062484,-40.95446915365756,0 173.0639900453389,-40.95468431711197,0 173.0637725349516,-40.9547724109143,0 173.0629136413336,-40.95495119690895,0 173.0628885794431,-40.95520173199475,0 173.0632997117937,-40.95535185188055,0 173.0635103490204,-40.9556892234832,0 173.0632801819593,-40.95574026927352,0 173.0632877256721,-40.95596926286817,0 173.0627148225904,-40.95631459727883,0 173.0623843241483,-40.95671282149851,0 173.0613836087286,-40.95688339322805,0 173.0605015810579,-40.95726518891752,0 173.0598478764296,-40.95702680759132,0 173.059373209253,-40.95702974125743,0 173.0581758543849,-40.95677794888616,0 173.0577899515629,-40.95655113458633,0 173.0565817002207,-40.95678247511387,0 173.0548318102956,-40.9566184412688,0 173.0545000545681,-40.95645767636597,0 173.0542569793761,-40.9568465128541,0 173.0542902555317,-40.95724582672119,0 173.0553882010281,-40.95744456164539,0 173.05524780415,-40.95777682028711,0 173.0558396503329,-40.9585178643465,0 173.0564863979816,-40.9589703194797,0 173.0565304867923,-40.95934239216149,0 173.0562909319997,-40.95972410403192,0 173.0559621937573,-40.95973424613476,0 173.0555547494441,-40.9600395988673,0 173.0557176098228,-40.96082213334739,0 173.055031048134,-40.96083168871701,0 173.0547381844372,-40.96096227876842,0 173.0542480107397,-40.96137642860413,0 173.0534885264933,-40.96166166476905,0 173.0523784272373,-40.9625846799463,0 173.0525290500373,-40.96256347373128,0 173.0524210911244,-40.96282356418669,0 173.0526265315711,-40.96340510062873,0 173.0524696223438,-40.96283513121307,0 173.0525001324713,-40.96251217648387,0 173.0515540670604,-40.9625246655196,0 173.050086228177,-40.96207522787154,0 173.0494484491646,-40.96222341991961,0 173.0484566185623,-40.96290386281908,0 173.0478972103447,-40.96312237903476,0 173.0468420125544,-40.9632374625653,0 173.0461028125137,-40.96317283809185,0 173.0456835497171,-40.96293135546148,0 173.0453905183822,-40.96361313946545,0 173.0449786316603,-40.96323779784143,0 173.0444946605712,-40.96344457939267,0 173.0441695265472,-40.9633859898895,0 173.0439122021198,-40.96316588111222,0 173.043883703649,-40.96289992332458,0 173.0436622537673,-40.96289640292525,0 173.0431352835149,-40.9625643119216,0 173.0429359618574,-40.96258183009923,0 173.0431243032217,-40.96320829354227,0 173.0428833235055,-40.96335765905678,0 173.0429614428431,-40.9635517001152,0 173.0428347922862,-40.96374473534524,0 173.04318591021,-40.96391522325575,0 173.0433107167482,-40.96415511332452,0 173.0432755965739,-40.9643117710948,0 173.0428905319422,-40.96430799923837,0 173.0429861694574,-40.96454596146941,0 173.043415741995,-40.96468694508076,0 173.0438966117799,-40.96455635502934,0 173.0439151357859,-40.96474922262132,0 173.0440588016063,-40.96485123038292,0 173.0443824268878,-40.96464629285038,0 173.0446467921138,-40.96468744799495,0 173.0445057246834,-40.96508483402431,0 173.0441879667342,-40.96511299721897,0 173.0441861227155,-40.96560778096318,0 173.0443111807108,-40.96571808680892,0 173.0448989197612,-40.96552957780659,0 173.0454134847969,-40.96556100994349,0 173.0453777778894,-40.96611513756216,0 173.0450691562146,-40.96621354110539,0 173.0450504645705,-40.96632124856114,0 173.0453056935221,-40.96657320857048,0 173.0452400632203,-40.96683321520686,0 173.0455962941051,-40.96680647693574,0 173.0458003934473,-40.96647103317082,0 173.0465758033097,-40.96610935404897,0 173.047060361132,-40.96604380756617,0 173.0469833314419,-40.96636072732508,0 173.0467685870826,-40.96650497987866,0 173.046621484682,-40.96687286160886,0 173.045974066481,-40.96699666231871,0 173.0459119565785,-40.96715264953673,0 173.0461534392089,-40.96780987456441,0 173.0459585599601,-40.96800961531699,0 173.045656811446,-40.96805085428059,0 173.0450943857431,-40.96844706684351,0 173.04518641904,-40.96861436963081,0 173.0456738267094,-40.96870330162346,0 173.0453606788069,-40.9689481370151,0 173.0457381159067,-40.96928031183779,0 173.0465062335134,-40.96928978338838,0 173.047020630911,-40.96990157850087,0 173.0469570122659,-40.97011171281338,0 173.0465789046139,-40.97032033838332,0 173.0466551799327,-40.97076248377562,0 173.0463747214526,-40.97075468860567,0 173.0462533514947,-40.97087354399264,0 173.0463268607855,-40.97109625115991,0 173.0462379287928,-40.97118543460965,0 173.0464581213892,-40.97151786088943,0 173.0464782379568,-40.97181608900428,0 173.0463383439928,-40.97188792191446,0 173.0463676806539,-40.97199738956988,0 173.0467690061778,-40.97232554107904,0 173.0473824776709,-40.9732070658356,0 173.0479002278298,-40.97355927340686,0 173.0481070093811,-40.97394735552371,0 173.0479471664876,-40.97357335500419,0 173.0474938731641,-40.97328007221222,0 173.0468707624823,-40.9724990464747,0 173.0462493281811,-40.97243911586702,0 173.046114211902,-40.97253190353513,0 173.0460430495441,-40.97288486547768,0 173.0457617528737,-40.97277204506099,0 173.0454848986119,-40.97282988019288,0 173.0452723335475,-40.97264162264764,0 173.0449475347996,-40.97267548553646,0 173.0448779650033,-40.97247457131743,0 173.0445751268417,-40.97246342338622,0 173.0443352367729,-40.97272175364196,0 173.0435737408698,-40.97251178696752,0 173.0432087928057,-40.97273969091475,0 173.042279323563,-40.97242562100291,0 173.0422750487924,-40.97277749329805,0 173.0423915572464,-40.97297136671841,0 173.0430051963776,-40.97308829426765,0 173.042977117002,-40.9730136115104,0 173.042876534164,-40.97311964258552,0 173.0428190343082,-40.97346028313041,0 173.0424534995109,-40.97368810325861,0 173.042279491201,-40.97402698360384,0 173.0424182955176,-40.97404584288597,0 173.0422702711076,-40.97404642961919,0 173.0425560940057,-40.97380980849266,0 173.0428825691342,-40.97327026538551,0 173.0427495483309,-40.97309776581824,0 173.0423472169787,-40.97292250022292,0 173.0423604603857,-40.97259317524731,0 173.0422414373606,-40.97290850244462,0 173.0425698403269,-40.97325425595045,0 173.0420398525894,-40.97358760423958,0 173.0413783527911,-40.97332692705095,0 173.0414303205907,-40.97380796447396,0 173.0415978748351,-40.97399421036243,0 173.0414133053273,-40.97443040460348,0 173.0413218587637,-40.97449737600982,0 173.0405839160085,-40.97427919507027,0 173.0404595285654,-40.97452218644321,0 173.0406960658729,-40.97505770623684,0 173.0403866060078,-40.97518888302147,0 173.0405375640839,-40.97544813528657,0 173.040891867131,-40.975570846349,0 173.0408880114555,-40.97582163289189,0 173.0407067108899,-40.97600343637168,0 173.0406237300485,-40.97630954347551,0 173.0404322873801,-40.97634214907885,0 173.0403943173587,-40.97653040662408,0 173.0397325661033,-40.97657508216798,0 173.0395882297307,-40.97681798972189,0 173.0397088453174,-40.97705829888582,0 173.0402908008546,-40.97731755115092,0 173.0404605343938,-40.97780185751617,0 173.0403073132038,-40.9779454395175,0 173.0398774053901,-40.97803755663335,0 173.0401101708412,-40.97845489159226,0 173.0402930639684,-40.97857098095119,0 173.0399689357728,-40.9788432251662,0 173.0399429518729,-40.97949768416584,0 173.0397385172546,-40.97966565750539,0 173.0400867015123,-40.98037535324693,0 173.0396751500666,-40.98055849783123,0 173.0393263790756,-40.98095387220383,0 173.0391077790409,-40.98098916001618,0 173.0388528853655,-40.98137657158077,0 173.038206640631,-40.98134798929095,0 173.0383101571351,-40.98144010640681,0 173.0381175410002,-40.98153599537909,0 173.0383432656527,-40.98164018243551,0 173.0383022781461,-40.98171109333634,0 173.0385337024927,-40.9816911444068,0 173.0380077380687,-40.98261466249824,0 173.0381887033582,-40.98227351903915,0 173.0381113383919,-40.98186087794602,0 173.0382531601936,-40.98164378665388,0 173.0380844324827,-40.98146173171699,0 173.0383199639618,-40.98147665150464,0 173.0380579456687,-40.98131882026792,0 173.0378807522357,-40.98133005201817,0 173.0378544330597,-40.98149827681482,0 173.0375971924514,-40.98170908167958,0 173.0369111336768,-40.98182701505721,0 173.036446524784,-40.98203203640878,0 173.0360219813883,-40.98200798034668,0 173.0354373436421,-40.98234032280743,0 173.0356588773429,-40.98248222842813,0 173.0355086736381,-40.98271558061242,0 173.0355780757964,-40.98290761001408,0 173.0362999252975,-40.98327071405947,0 173.0364653840661,-40.98354698158801,0 173.0365015100688,-40.98401720635593,0 173.0361631326377,-40.98426170647144,0 173.0361653957516,-40.98444141447544,0 173.0364045314491,-40.98453872837126,0 173.0363242328167,-40.98484843969345,0 173.0364576727152,-40.98511666059494,0 173.0358383338898,-40.98578972741961,0 173.0356566980481,-40.98582157865167,0 173.0352854635566,-40.98565855063498,0 173.0350920092314,-40.98599223420024,0 173.0347185954452,-40.98601226694882,0 173.0345398932695,-40.98609407432377,0 173.0345336906612,-40.98620345816016,0 173.0350060947239,-40.98637210205197,0 173.0351416300982,-40.98653990775347,0 173.035696009174,-40.98666018806398,0 173.0355049856007,-40.98694089800119,0 173.0355392675847,-40.9871460031718,0 173.0354013852775,-40.98714910447598,0 173.0352879781276,-40.98733954131603,0 173.0357266869396,-40.98771085962653,0 173.03601577878,-40.9882234968245,0 173.0359877832234,-40.98870503716171,0 173.0357975140214,-40.98894216120243,0 173.0354506708682,-40.98907794803381,0 173.0351345892996,-40.98901332356036,0 173.0345869157463,-40.98871031776071,0 173.0345430783927,-40.98846430890262,0 173.0336465500295,-40.98839775659144,0 173.0336409341544,-40.98826951347291,0 173.033135086298,-40.98843547515571,0 173.0325930286199,-40.98833003081381,0 173.0324728321284,-40.98819114267826,0 173.0321098957211,-40.98825509659946,0 173.0318658985198,-40.98804873414338,0 173.0320370569825,-40.98765109665692,0 173.0318555887789,-40.98757456988096,0 173.0312928277999,-40.9877245221287,0 173.0308767501265,-40.98761136643589,0 173.0307052563876,-40.98776358179748,0 173.030777676031,-40.98803582601249,0 173.0306300707161,-40.98829390481114,0 173.0304121412337,-40.9882752969861,0 173.0303344409913,-40.98840957507491,0 173.0295643955469,-40.98856966942549,0 173.0284347664565,-40.98861023783684,0 173.0280585028231,-40.98848928697407,0 173.0279786232859,-40.98827244713902,0 173.0277048703283,-40.9881302062422,0 173.0274888686836,-40.98841770552099,0 173.0275012739003,-40.98866580985487,0 173.0280511267483,-40.98928355611861,0 173.0279267393053,-40.98944574594498,0 173.0272474698722,-40.98916243761778,0 173.0267411191016,-40.98931884393096,0 173.0261427350342,-40.98881701938808,0 173.0256057903171,-40.98869757726789,0 173.0255305208266,-40.98844880238175,0 173.0253120884299,-40.98841125145555,0 173.0249700229615,-40.98863094113767,0 173.0248715355992,-40.98887787200511,0 173.0249600484967,-40.98949779756367,0 173.0245442222804,-40.98982226103544,0 173.0246295500547,-40.99008981138468,0 173.024559058249,-40.98987682722509,0 173.0237535573542,-40.9902407694608,0 173.0229399260134,-40.98979895934463,0 173.0225273687392,-40.99022434093058,0 173.0220400448889,-40.99044922739267,0 173.0208504851907,-40.99013901315629,0 173.0197309143841,-40.99017924629152,0 173.0187876988202,-40.99001144059002,0 173.0183339025825,-40.99008260294795,0 173.0181194096804,-40.98994279280305,0 173.0171013437212,-40.99005267955363,0 173.0156293138862,-40.99047898314893,0 173.0152157507837,-40.99029826931655,0 173.0151913594455,-40.9906604513526,0 173.0138913262635,-40.99060957320035,0 173.0132531281561,-40.99100695922971,0 173.0125757865608,-40.99190541543067,0 173.0122518260032,-40.99204413592815,0 173.0116024799645,-40.99208545871079,0 173.0113008990884,-40.99195796996355,0 173.010536134243,-40.99192821420729,0 173.0096966028214,-40.99151959642768,0 173.0092787649482,-40.991076445207,0 173.0091070197523,-40.99103529006243,0 173.0081456992775,-40.99113763310015,0 173.0062949750572,-40.9939743205905,0 173.0058991815895,-40.99489356391132,0 173.0052539426833,-40.9955386351794,0 173.0052122008055,-40.99596234038472,0 173.0049559660256,-40.99652669392526,0 173.0047392938286,-40.99658327177167,0 173.0036321282387,-40.9983294736594,0 173.0036079045385,-40.99863549694419,0 173.0038239900023,-40.99904646165669,0 173.005982581526,-41.00162171758711,0 173.005992975086,-41.00174065679312,0 173.00556499511,-41.00212555378675,0 173.0049420520663,-41.00193310528994,0 
			</coordinates>
		</LineString>
	</MultiGeometry>
	<atom:link rel="app" href="https://www.google.com/earth/about/versions/#earth-pro" title="Google Earth Pro 7.3.7.1155"></atom:link>
</Placemark>
</kml>
