<?xml version="1.0" encoding="UTF-8"?>
<kml
  xsi:schemaLocation="http://earth.google.com/kml/2.1 http://earth.google.com/kml2.1.xsd"
  xmlns:xsi="http://www.w3.org/2001/XMLSchema-instance" xmlns="http://earth.google.com/kml/2.1">
  <Folder>
    <name>Obertrubach Wandern</name>
    <Placemark>
      <name>Track</name>
      <Style>
        <LineStyle>
          <color>FF0000FF</color>
          <width>3.0</width>
        </LineStyle>
      </Style>
      <LineString>
        <extrude>false</extrude>
        <tessellate>true</tessellate>
        <altitudeMode>clampToGround</altitudeMode>
        <coordinates>11.342240329831839,49.71369559876621 11.342134214937687,49.713917300105095 11.341864066198468,49.714060463011265 11.341855432838202,49.7141744568944 11.342048803344369,49.714457765221596 11.34233026765287,49.71450042910874 11.342741316184402,49.714665384963155 11.342813484370708,49.71475020982325 11.343107018619776,49.71490669995546 11.343692494556308,49.715076349675655 11.343791652470827,49.71498289145529 11.343776984140277,49.714925810694695 11.343690231442451,49.71486831083894 11.343499710783362,49.71485389396548 11.343415221199393,49.71476060338318 11.343597695231438,49.71463085152209 11.34361102245748,49.71455667167902 11.343879159539938,49.71440521068871 11.343840099871159,49.71440160647035 11.344032045453787,49.71436061896384 11.343984017148614,49.714349806308746 11.34401511400938,49.71437377855182 11.343998266384006,49.714287193492055 11.344444267451763,49.71422642469406 11.344483830034733,49.714193316176534 11.344366567209363,49.71400799229741 11.344425743445754,49.71397136338055 11.344325160607696,49.714145958423615 11.344425911083817,49.71427411772311 11.344739813357592,49.71425232477486 11.344904936850071,49.714332120493054 11.345062851905823,49.71450193785131 11.345557048916817,49.71461542882025 11.345891570672393,49.71453311853111 11.346360957249999,49.714583829045296 11.346759600564837,49.71448911353946 11.347173415124416,49.71463680267334 11.347338706254959,49.714612076058984 11.34737097658217,49.71481516957283 11.347761573269963,49.71446237526834 11.347433254122734,49.71462213434279 11.347361337393522,49.714743085205555 11.347760567441583,49.715020610019565 11.348251244053245,49.71477770246565 11.349083567038178,49.71464451402426 11.349065713584423,49.7145888581872 11.349951094016433,49.714566227048635 11.350597506389022,49.71473956480622 11.35103470645845,49.71475406549871 11.351245008409023,49.714711820706725 11.351575925946236,49.714513421058655 11.351736020296812,49.71474132500589 11.351708862930536,49.71478784456849 11.352022178471088,49.71501071937382 11.352469772100449,49.715062184259295 11.352687533944845,49.71515187062323 11.352753667160869,49.71530567854643 11.352690467610955,49.71550793386996 11.352809993550181,49.715602062642574 11.352850645780563,49.71584161743522 11.352981487289071,49.71607974730432 11.353195561096072,49.716075640171766 11.353376442566514,49.71612676978111 11.353429080918431,49.71618628129363 11.353499991819263,49.71611947752535 11.353721776977181,49.716138672083616 11.353915818035603,49.71608268097043 11.354511519894004,49.71615007147193 11.35508593171835,49.71610648557544 11.35564198717475,49.71618535928428 11.356430808082223,49.716091146692634 11.357050985097885,49.7161050606519 11.357176043093204,49.716128781437874 11.357381232082844,49.71637764014304 11.357526071369648,49.71645844168961 11.357621038332582,49.71660705283284 11.358140716329217,49.71675306558609 11.358245154842734,49.71693294122815 11.35872082784772,49.71720359288156 11.35991063900292,49.71767499111593 11.359996050596237,49.717816561460495 11.360395196825266,49.71769770607352 11.360497707501054,49.71775864250958 11.361040435731411,49.71780180931091 11.361778965219855,49.71810213290155 11.361873596906662,49.71806416288018 11.362073002383113,49.71816265024245 11.3621461763978,49.7181202378124 11.362777752801776,49.718221658840775 11.363171869888902,49.71815586090088 11.36334185488522,49.71806441433728 11.363587947562337,49.71801043488085 11.363894306123257,49.71778588369489 11.364084323868155,49.71779971383512 11.364474752917886,49.71772980876267 11.364829307422042,49.71782787702978 11.364841964095831,49.71793650649488 11.364858727902174,49.717895267531276 11.364998957142234,49.71790834330022 11.365131894126534,49.71801403909922 11.365883583202958,49.718155693262815 11.366209806874394,49.71832836046815 11.366420192644,49.71852860413492 11.36686191894114,49.7186881955713 11.367222676053643,49.71806634217501 11.367619056254625,49.7176920901984 11.367683848366141,49.717694353312254 11.3678914681077,49.717462258413434 11.367972772568464,49.717107620090246 11.368659334257245,49.71691173501313 11.369168870151043,49.716560281813145 11.369712017476559,49.715834744274616 11.369937742128968,49.71568671986461 11.370027847588062,49.715589405968785 11.369990548118949,49.71556752920151 11.370258182287216,49.715353371575475 11.370386090129614,49.71511666662991 11.370639055967331,49.71481315791607 11.370795965194702,49.714405378326774 11.370752798393369,49.7142312861979 11.370775597169995,49.71409013494849 11.371063767001033,49.71371688880026 11.371005093678832,49.71317960880697 11.370665123686194,49.71283234655857 11.370815997943282,49.71265942789614 11.371198883280158,49.71243311651051 11.371313463896513,49.71225801855326 11.371296951547265,49.7122211381793 11.37138512916863,49.71217109821737 11.371372723951936,49.7120382450521 11.371711939573288,49.71177488565445 11.371733900159597,49.711676901206374 11.371808582916856,49.711635913699865 11.371933305636048,49.71133952960372 11.372027099132538,49.71125487238169 11.37201989069581,49.71096368506551 11.372149977833033,49.7105635330081 11.37218208052218,49.71053771674633 11.372201275080442,49.71062530763447 11.37231552042067,49.71062229014933 11.37233404442668,49.71066193655133 11.372306048870087,49.7106309235096 11.372352065518498,49.710559425875545 11.372267240658402,49.71038524992764 11.372267324477434,49.71023068763316 11.37260620482266,49.71000412479043 11.37263503856957,49.70984235405922 11.372749535366893,49.70976180396974 11.372800581157207,49.70964529551566 11.372900744900107,49.709580168128014 11.373012978583574,49.70962626859546 11.373121105134487,49.709561727941036 11.3731705583632,49.70945091918111 11.37309872545302,49.709202982485294 11.373139712959528,49.7090748231858 11.37326150201261,49.70905277878046 11.373386392369866,49.70887139439583 11.373265273869038,49.70882588066161 11.373183382675052,49.70851172693074 11.37326686643064,49.70843025483191 11.373087828978896,49.7081942204386 11.37283100746572,49.708100175485015 11.372308060526848,49.708010740578175 11.37212349101901,49.70812096260488 11.372162718325853,49.70815650187433 11.371962809935212,49.70821316353977 11.371705401688814,49.70841055735946 11.371738510206342,49.708565371111035 11.371792908757925,49.70853980630636 11.371732391417027,49.70861683599651 11.37172183021903,49.70852706581354 11.371630635112524,49.70851709134877 11.371497781947255,49.70859034918249 11.371056558564305,49.708569729700685 11.371071394532919,49.70890165306628 11.370316436514258,49.708933839574456 11.370200933888555,49.70902428030968 11.370312161743641,49.7090473305434 11.370288608595729,49.70911396667361 11.369618978351355,49.709400879219174 11.369717298075557,49.709415631368756 11.369651751592755,49.70954043790698 11.369738755747676,49.709457121789455 11.369719812646508,49.709385288879275 11.369783850386739,49.70941663719714 11.369714280590415,49.70937623642385 11.369655691087246,49.70950967632234 11.369697265326977,49.709481094032526 11.369650410488248,49.709507497027516 11.369696678593755,49.70949886366725 11.369790975004435,49.70933801494539 11.370240831747651,49.70916450954974 11.37037217617035,49.70895797945559 11.37073184363544,49.70895018428564 11.370829744264483,49.70890140160918 11.370850699022412,49.70884029753506 11.37102018110454,49.70884214155376 11.371100144460797,49.70877232030034 11.371121350675821,49.70865648239851 11.371223693713546,49.70859361812472 11.371477833017707,49.70861163921654 11.37183465063572,49.70839949324727 11.372262043878436,49.70805902034044 11.37232817709446,49.707943852990866 11.372292302548885,49.70787134952843 11.372320130467415,49.707769425585866 11.372295403853059,49.70787067897618 11.37233898974955,49.707891047000885 11.372581142932177,49.70777906477451 11.372548872604966,49.70781804062426 11.372550716623664,49.70776774920523 11.372351478785276,49.70787989906967 11.372249135747552,49.70788241364062 11.372267995029688,49.707691641524434 11.372221978381276,49.70767672173679 11.3721239939332,49.70712368376553 11.37249824590981,49.70673426054418 11.372511573135853,49.7065984737128 11.372571922838688,49.706599563360214 11.372471507638693,49.70668036490679 11.372177051380277,49.70658338628709 11.371663743630052,49.70660274848342 11.371352188289165,49.70649093389511 11.370298080146313,49.70649043098092 11.369182616472244,49.70618407242 11.368928896263242,49.705906715244055 11.368773328140378,49.70558635890484 11.368585992604494,49.705441100522876 11.368340570479631,49.70538670197129 11.367936730384827,49.705397598445415 11.367669263854623,49.705322496593 11.36679595336318,49.70472746528685 11.366690173745155,49.704673402011395 11.366604678332806,49.7047077678144 11.366595793515444,49.70464783720672 11.366664776578546,49.70464783720672 11.36650518514216,49.704551277682185 11.36569901369512,49.70419102348387 11.364275179803371,49.70338510349393 11.364236706867814,49.703426510095596 11.364269312471151,49.703379571437836 11.364400070160627,49.70337571576238 11.364347180351615,49.70331327058375 11.36358954012394,49.703075056895614 11.362574407830834,49.70250014215708 11.362381875514984,49.70233853906393 11.361567992717028,49.70197015441954 11.361315865069628,49.701750967651606 11.360941529273987,49.70165281556547 11.360855866223574,49.70151778310537 11.360599379986525,49.701527087017894 11.359963696449995,49.70130354166031 11.35991063900292,49.70131326466799 11.359911225736141,49.70135701820254 11.359822964295745,49.701300859451294 11.3599375449121,49.70139465294778 11.360011640936136,49.70138920471072 11.359832938760519,49.701390797272325 11.359577039256692,49.701502695679665 11.359387608245015,49.70149858854711 11.359142940491438,49.70160746946931 11.358974212780595,49.70157578587532 11.35881319642067,49.70175473950803 11.358766257762909,49.701891113072634 11.358580933883786,49.70202547498047 11.358321933075786,49.702120274305344 11.357969474047422,49.70238187350333 11.357728997245431,49.70243761315942 11.356955850496888,49.702800046652555 11.356354029849172,49.70289358869195 11.355851283296943,49.702865928411484 11.355825047940016,49.70294455066323 11.355783641338348,49.7028324007988 11.35554769076407,49.70277523621917 11.354392161592841,49.70295284874737 11.353814816102386,49.70292694866657 11.353675425052643,49.70275981351733 11.353556402027607,49.70247424207628 11.35337233543396,49.70232303254306 11.352808820083737,49.7021328471601 11.352404979988933,49.70190469175577 11.352180428802967,49.701842330396175 11.350726755335927,49.70188491046429 11.350240856409073,49.7019362077117 11.349361846223474,49.70211658626795 11.348917353898287,49.7020881716162 11.34876899421215,49.70235697925091 11.34825786575675,49.70293105579913 11.348181590437889,49.703119648620486 11.348257279023528,49.70329876989126 11.34826079942286,49.703473867848516 11.348470682278275,49.70382884144783 11.34859741665423,49.703784165903926 11.348560117185116,49.70381710678339 11.348634716123343,49.70399010926485 11.348730688914657,49.703965382650495 11.348760277032852,49.704025564715266 11.348781902343035,49.7043536324054 11.348729012534022,49.704465279355645 11.348308324813843,49.704696368426085 11.348199443891644,49.70470190048218 11.348163317888975,49.704754287377 11.348190810531378,49.70488806255162 11.34812249802053,49.70503323711455 11.347879339009523,49.70515938475728 11.34754884056747,49.70525225624442 11.347278943285346,49.70553606748581 11.346849957481027,49.705873019993305 11.346589364111423,49.706016601994634 11.346452068537474,49.70620603300631 11.346517782658339,49.706194968894124 11.34648710489273,49.706332767382264 11.34633170440793,49.706409042701125 11.34629113599658,49.70654030330479 11.345925265923142,49.706805841997266 11.345805823802948,49.707095604389906 11.34552938863635,49.70735921524465 11.345116328448057,49.70759256742895 11.344691701233387,49.707708740606904 11.344440327957273,49.70786573365331 11.344366231933236,49.70783354714513 11.344253662973642,49.70792113803327 11.344172777608037,49.70806681551039 11.343977563083172,49.70817041583359 11.344029698520899,49.708539387211204 11.343997679650784,49.70877575688064 11.344217704609036,49.709033416584134 11.34432633407414,49.70927942544222 11.344575947150588,49.70943256281316 11.344604613259435,49.70950020477176 11.344593297690153,49.709746381267905 11.344460863620043,49.7102836612612 11.34417931549251,49.71054509282112 11.344059454277158,49.71058809198439 11.343938335776329,49.710822785273194 11.343788299709558,49.71098237670958 11.343791903927922,49.71106703393161 11.344101196154952,49.71129468642175 11.344125755131245,49.71139032393694 11.344224326312542,49.711426282301545 11.344284676015377,49.711516136303544 11.344221727922559,49.71140591427684 11.34408988058567,49.711369117721915 11.344030369073153,49.711297703906894 11.343530053272843,49.71125956624746 11.343263844028115,49.711130149662495 11.342961173504591,49.7110780980438 11.342073613777757,49.71119049936533 11.342355078086257,49.71145595423877 11.342595554888248,49.71159844659269 11.342437136918306,49.71165242604911 11.34222767315805,49.71184512600303 11.341977138072252,49.71198585815728 11.341866832226515,49.712119633331895 11.34191737510264,49.71221568994224 11.34206741116941,49.71229146234691 11.342079732567072,49.71235793083906 11.341753927990794,49.71271650865674 11.34170732460916,49.71295380033553 11.341607077047229,49.71304206177592 11.341488473117352,49.713068129494786 11.341436505317688,49.71320944838226 11.341682262718678,49.71344732679427 11.341742780059576,49.713664669543505</coordinates>
      </LineString>
    </Placemark>
  </Folder>
</kml>
