<?xml version="1.0" encoding="UTF-8"?>
<kml xmlns="http://www.opengis.net/kml/2.2" xmlns:gx="http://www.google.com/kml/ext/2.2" xmlns:kml="http://www.opengis.net/kml/2.2" xmlns:atom="http://www.w3.org/2005/Atom">
<Placemark>
	<name>Track</name>
	<Style>
		<LineStyle>
			<color>ff0000ff</color>
			<width>3</width>
		</LineStyle>
	</Style>
	<LineString>
		<tessellate>1</tessellate>
		<coordinates>
			-112.1412670332938,36.05693863704801,0 -112.1412379480898,36.05692849494517,0 -112.1411675401032,36.05697979219258,0 -112.1411926019937,36.05702907778323,0 -112.1412906702608,36.05699840001762,0 -112.141468366608,36.05699663981795,0 -112.1414563804865,36.05700351297855,0 -112.141507845372,36.05701826512814,0 -112.1416501700878,36.05701667256653,0 -112.1419136133045,36.05697015300393,0 -112.142002042383,36.05694701895118,0 -112.1422601211816,36.05676203034818,0 -112.1422723587602,36.05676823295653,0 -112.1422654017806,36.0568252298981,0 -112.1423021983355,36.05682615190744,0 -112.1424096543342,36.05677007697523,0 -112.1423779707402,36.05672774836421,0 -112.1427012607455,36.05677108280361,0 -112.1429212857038,36.05675163678825,0 -112.1433095354587,36.05683444999158,0 -112.1436165645719,36.05687954463065,0 -112.1440619789064,36.05699588544667,0 -112.1441662497818,36.05700141750276,0 -112.1443561837077,36.05696529150009,0 -112.1445018611848,36.05689371004701,0 -112.1445469558239,36.05681684799492,0 -112.144549973309,36.05669648386538,0 -112.1445164456964,36.05637663044035,0 -112.1444721054286,36.05622977949679,0 -112.144483756274,36.05614604428411,0 -112.1444695070386,36.05612215586007,0 -112.1445099078119,36.05615031905472,0 -112.1444860193878,36.05600497685373,0 -112.1444992627949,36.05585502460599,0 -112.144489120692,36.05576039291918,0 -112.1444263402373,36.05568202212453,0 -112.1443560160697,36.05555470101535,0 -112.144306814298,36.05553190223873,0 -112.14425903745,36.05546484701335,0 -112.1442173793912,36.05535864830017,0 -112.1441631484777,36.05530483648181,0 -112.1441240888089,36.05516326613724,0 -112.144082179293,36.055075423792,0 -112.1442084107548,36.05491172522306,0 -112.1442383341491,36.05479697696865,0 -112.1442083269358,36.05464132502675,0 -112.1442261803895,36.05454929172993,0 -112.1442865300924,36.05438291095197,0 -112.1443081554025,36.05426548048854,0 -112.1443453710526,36.05420731008053,0 -112.144325254485,36.05415760539472,0 -112.1443269308656,36.05409507639706,0 -112.144430950284,36.05383456684649,0 -112.1444311179221,36.05378343723714,0 -112.1443131007254,36.05371193960309,0 -112.1443080715835,36.05364320799708,0 -112.1443262603134,36.05355452746153,0 -112.1442786511034,36.0534508433193,0 -112.1442321315408,36.05343114584684,0 -112.1442532539368,36.05342318303883,0 -112.1442835964262,36.05344288051128,0 -112.1443245839328,36.05349174700677,0 -112.1441017091274,36.05355452746153,0 -112.1440088376403,36.05363021604717,0 -112.1440067421645,36.0536752268672,0 -112.1440294571221,36.05370464734733,0 -112.1442493982613,36.05383096262813,0 -112.144573610276,36.05412759818137,0 -112.1445255819708,36.05435533449054,0 -112.144568413496,36.05457343161106,0 -112.1446516457945,36.0546266566962,0 -112.1445095725358,36.05464207939804,0 -112.1443742886186,36.0546266566962,0 -112.1441898867488,36.05464970692992,0 -112.1441927365959,36.05476588010788,0 -112.1440209075809,36.05501934885979,0 -112.1440246794373,36.05505857616663,0 -112.1440776530653,36.05515639297664,0 -112.1441083308309,36.05536728166044,0 -112.1442421898246,36.05554279871285,0 -112.1444101631641,36.05572099797428,0 -112.1444803196937,36.05577263049781,0 -112.1444726921618,36.05581227689981,0 -112.1444972511381,36.05583700351417,0 -112.1444843430072,36.05585561133921,0 -112.1444860193878,36.05600723996758,0 -112.1444611251354,36.05625727213919,0 -112.1445065550506,36.0565432626754,0 -112.1444828342646,36.05667913332582,0 -112.1444934792817,36.05673043057323,0 -112.1444674953818,36.05682405643165,0 -112.1443914715201,36.05694852769375,0 -112.144573526457,36.05721138417721,0 -112.1445615403354,36.05722337029874,0 -112.1447038650513,36.05726083740592,0 -112.1448383945972,36.05726938694715,0 -112.1450068708509,36.05736276134849,0 -112.145073255524,36.05737969279289,0 -112.1451792027801,36.05735622346401,0 -112.1452409774065,36.05731238611042,0 -112.1453819610178,36.05726477690041,0 -112.1455071866512,36.05725346133113,0 -112.1457789279521,36.05726058594882,0 -112.1459526009858,36.05731959454715,0 -112.1461333148181,36.05733065865934,0 -112.1463701874018,36.05739947408438,0 -112.1468059625477,36.05735924094915,0 -112.147010229528,36.05751145631075,0 -112.147095054388,36.05767574161291,0 -112.1470834873617,36.05778152123094,0 -112.1470536477864,36.05786483734846,0 -112.1470567490906,36.05788746848702,0 -112.147084241733,36.05791051872075,0 -112.1470357943326,36.05797598138452,0 -112.147116092965,36.05793231166899,0 -112.1471658814698,36.05793222784996,0 -112.1472263988107,36.058035409078,0 -112.147319605574,36.05807228945196,0 -112.1474522072822,36.0582597926259,0 -112.1474480163306,36.05831854976714,0 -112.1475243754685,36.05839809402823,0 -112.1475605014712,36.05853186920285,0 -112.1475440729409,36.05857755057514,0 -112.1475709788501,36.05863044038415,0 -112.1475657820702,36.05865650810301,0 -112.1475806180388,36.05865265242755,0 -112.1475662849844,36.05867897160351,0 -112.1476904209703,36.05870495550334,0 -112.1477115433663,36.05868064798415,0 -112.1476647723466,36.05869908817112,0 -112.1476767584682,36.05875113978982,0 -112.1476613357663,36.05875767767429,0 -112.147713303566,36.05877561494708,0 -112.1476138941944,36.05881526134908,0 -112.1475615072995,36.05887586250901,0 -112.147599728778,36.05895255692303,0 -112.1477135550231,36.05905439704657,0 -112.1477250382304,36.05907702818513,0 -112.1476870682091,36.05905992910266,0 -112.1477178297937,36.05907384306192,0 -112.1477343421429,36.0591028444469,0 -112.14769737795,36.05923167429864,0 -112.1475742477924,36.05939218774438,0 -112.1475549694151,36.059486316517,0 -112.1475674584508,36.05954163707793,0 -112.1476228628308,36.05964113026857,0 -112.1476097870618,36.05972017161548,0 -112.1475644409657,36.05980021879077,0 -112.1476019918919,36.05986685492098,0 -112.1476378664374,36.05989669449627,0 -112.1475697215647,36.05995520018041,0 -112.1475474257022,36.06004647910595,0 -112.1474915184081,36.06009501032531,0 -112.1475066058338,36.06014538556337,0 -112.1474433224648,36.06033624149859,0 -112.1474697254598,36.06039298698306,0 -112.147457068786,36.06042249128222,0 -112.1474688034505,36.06043011881411,0 -112.1474258881062,36.06049834750593,0 -112.1474155783653,36.06055500917137,0 -112.1474268101156,36.06060328893363,0 -112.1473753452301,36.06066606938839,0 -112.1473360341042,36.06076162308455,0 -112.1473371237516,36.06085298582911,0 -112.1473046019673,36.06091090478003,0 -112.1472339425236,36.06095289811492,0 -112.1471717488021,36.06105725280941,0 -112.1471507102251,36.0611471068114,0 -112.1470894385129,36.06120276264846,0 -112.1471278276294,36.06141306459904,0 -112.1471536438912,36.06144047342241,0 -112.1471786219627,36.06151297688484,0 -112.1470911987126,36.06167541816831,0 -112.1470071282238,36.06188362464309,0 -112.14694426395,36.06197020970285,0 -112.146851895377,36.06203625909984,0 -112.1468166913837,36.06213977560401,0 -112.1468684077263,36.06234890408814,0 -112.1467557549477,36.06282457709312,0 -112.1467794757336,36.06290789321065,0 -112.1468387357891,36.06297058984637,0 -112.1468658093363,36.06305013410747,0 -112.1469768695533,36.06323160231113,0 -112.1469784621149,36.0634009167552,0 -112.1469682361931,36.06344961561263,0 -112.1469189506024,36.06353787705302,0 -112.1469181962311,36.06357500888407,0 -112.1469819825143,36.06374558061361,0 -112.1470854151994,36.06394875794649,0 -112.1470906119794,36.06402352452278,0 -112.1470839064568,36.06412896886468,0 -112.1470539830625,36.06423608958721,0 -112.1469590999186,36.06437690556049,0 -112.1469124127179,36.06449726969004,0 -112.1467772964388,36.06468670070171,0 -112.146751396358,36.06478753499687,0 -112.1467723511159,36.0648341383785,0 -112.1468225587159,36.06484226882458,0 -112.146920543164,36.06491418555379,0 -112.1469666436315,36.06505793519318,0 -112.1470191981643,36.06515407562256,0 -112.1470145042986,36.06522884219885,0 -112.1469492930919,36.06538323685527,0 -112.146888775751,36.06543470174074,0 -112.1468925476074,36.06550804339349,0 -112.146941581741,36.06555255129933,0 -112.146841166541,36.06584139168262,0 -112.1465179603547,36.06602311134338,0 -112.1463661640882,36.06618111021817,0 -112.1459264494479,36.06635629199445,0 -112.1459228452295,36.06645251624286,0 -112.1458985377103,36.0664383508265,0 -112.1458683628589,36.06671067886055,0 -112.145887054503,36.06677228584886,0 -112.1458771638572,36.06677974574268,0 -112.1459438838065,36.06688091531396,0 -112.1459680236876,36.06697127223015,0 -112.145987553522,36.06726648285985,0 -112.1459472365677,36.06734393164515,0 -112.1458681114018,36.06740118004382,0 -112.1458547841758,36.06748667545617,0 -112.1458890661597,36.06770217418671,0 -112.1459341607988,36.06780988164246,0 -112.1458711288869,36.06800383888185,0 -112.1458809357136,36.06805144809186,0 -112.1459336578846,36.06811640784144,0 -112.1460307203233,36.06816108338535,0 -112.1463847719133,36.06827013194561,0 -112.1465331315994,36.06840977445245,0 -112.1465989295393,36.06853826902807,0 -112.1466578543186,36.06875829398632,0 -112.1466436889023,36.06893548741937,0 -112.1467505581677,36.06918887235224,0 -112.1467075590044,36.06925500556827,0 -112.1466895379126,36.06933203525841,0 -112.1467112470418,36.06942255981266,0 -112.1468783821911,36.06962917372584,0 -112.146928338334,36.06965507380664,0 -112.147073764354,36.06984383426607,0 -112.1471643727273,36.06992580927908,0 -112.1472821384668,36.07007316313684,0 -112.1474497765303,36.07015304267406,0 -112.1475623454899,36.07025354169309,0 -112.1477838791907,36.07039410620928,0 -112.1478961966932,36.07042143121362,0 -112.1479947678745,36.07042252086103,0 -112.1481225918978,36.07038002461195,0 -112.1485950797796,36.07040902599692,0 -112.1487267594784,36.07042570598423,0 -112.1488107461482,36.07046468183398,0 -112.1489046234637,36.07047406956553,0 -112.1490654721856,36.0704723931849,0 -112.149307038635,36.07042293995619,0 -112.1494942065328,36.07034825719893,0 -112.149621443823,36.0703344270587,0 -112.1497546322644,36.0701838042587,0 -112.1498962026089,36.0701306629926,0 -112.1499724779278,36.07014139182866,0 -112.150168698281,36.07009302824736,0 -112.1502995397896,36.07000124640763,0 -112.1504966821522,36.06989772990346,0 -112.1506159566343,36.06986923143268,0 -112.1508350595832,36.06987945735455,0 -112.1509679127485,36.06991650536656,0 -112.1510838344693,36.06987635605037,0 -112.1512361336499,36.06989496387541,0 -112.1514631994069,36.06986059807241,0 -112.1515300031751,36.06989932246506,0 -112.1517164167017,36.06994282454252,0 -112.1518025826663,36.0699181817472,0 -112.1520122978836,36.06992555782199,0 -112.1521398704499,36.06991097331047,0 -112.1523255296052,36.0700252186507,0 -112.1525055728853,36.07020459137857,0 -112.1526094246656,36.07024415396154,0 -112.152832550928,36.0702635999769,0 -112.1530143544078,36.07024440541863,0 -112.1531330421567,36.07027743011713,0 -112.1531617920846,36.07030576094985,0 -112.1531612053514,36.0704086907208,0 -112.153136562556,36.07048102654517,0 -112.1531501412392,36.07068277895451,0 -112.1532614529133,36.07093155384064,0 -112.1532376483083,36.07102987356484,0 -112.1531930565834,36.07108938507736,0 -112.1529596205801,36.07122173532844,0 -112.1528956666589,36.07129029929638,0 -112.1528287790716,36.07143832370639,0 -112.152599953115,36.07155458070338,0 -112.1525438781828,36.07159841805696,0 -112.1524619031698,36.07169782742858,0 -112.1524023916572,36.07180561870337,0 -112.1522366814315,36.0719714127481,0 -112.1521837916225,36.07221373356879,0 -112.1521837078035,36.07239570468664,0 -112.152230059728,36.07243459671736,0 -112.1523651760072,36.07246711850166,0 -112.152306502685,36.07254146598279,0 -112.1522909123451,36.07252302579582,0 -112.1523887291551,36.0724516119808,0 -112.1524769067764,36.07243400998414,0 -112.1525302156806,36.07245697639883,0 -112.1526750549674,36.07247809879482,0 -112.1527987718582,36.07245873659849,0 -112.1529453713447,36.07248019427061,0 -112.1531714312732,36.07258806936443,0 -112.1536135766655,36.07288671657443,0 -112.1536355372518,36.07290800660849,0 -112.1536376327276,36.07294094748795,0 -112.1536019258201,36.07293885201216,0 -112.1537524648011,36.07307556085289,0 -112.1538729965687,36.07330556027591,0 -112.1538981422782,36.07339256443083,0 -112.1538940351456,36.07349591329694,0 -112.1539523731917,36.07383152469993,0 -112.1539279818535,36.07386932708323,0 -112.1539998147637,36.07384921051562,0 -112.1542219351977,36.07384669594467,0 -112.1543325763196,36.07392523437738,0 -112.1543193329126,36.0739659704268,0 -112.1542599052191,36.07398868538439,0 -112.1543887350708,36.07394359074533,0 -112.1545739751309,36.07401156798005,0 -112.1546696126461,36.07407703064382,0 -112.1547545213252,36.07407853938639,0 -112.154772542417,36.07423930428922,0 -112.1547915693372,36.07427987270057,0 -112.1547313872725,36.07435522601008,0 -112.1547897253186,36.07432764954865,0 -112.1548240073025,36.07433670200408,0 -112.1548908110708,36.07445161789656,0 
		</coordinates>
	</LineString>
	<atom:link rel="app" href="https://www.google.com/earth/about/versions/#earth-pro" title="Google Earth Pro 7.3.6.10441"></atom:link>
</Placemark>
</kml>
