<?xml version="1.0" encoding="UTF-8"?>
<kml xmlns="http://www.opengis.net/kml/2.2" xmlns:gx="http://www.google.com/kml/ext/2.2" xmlns:kml="http://www.opengis.net/kml/2.2" xmlns:atom="http://www.w3.org/2005/Atom">
<Placemark>
	<name>Track</name>
	<Style>
		<LineStyle>
			<color>ff0000ff</color>
			<width>3</width>
		</LineStyle>
	</Style>
	<LineString>
		<tessellate>1</tessellate>
		<coordinates>
			9.780244091525674,47.50649280846119,0 9.780403850600123,47.50658291392028,0 9.780452633276582,47.50675641931593,0 9.780599735677242,47.50692330300808,0 9.780528908595443,47.50706520862877,0 9.780534021556377,47.50728062354028,0 9.780412651598454,47.50742403790355,0 9.780449196696281,47.50746309757233,0 9.78039437904954,47.50761464238167,0 9.780402593314648,47.50757625326514,0 9.780361773446202,47.50756845809519,0 9.780198577791452,47.50772327184677,0 9.780031945556402,47.50775151886046,0 9.780061030760407,47.50773542560637,0 9.779908899217844,47.5077962782234,0 9.779994562268257,47.50779191963375,0 9.779984755441546,47.50781589187682,0 9.779968829825521,47.50779451802373,0 9.780010487884283,47.50773274339736,0 9.779894566163421,47.50768044032156,0 9.780321288853884,47.50786165706813,0 9.78035137988627,47.50790758989751,0 9.780333107337356,47.50797531567514,0 9.780367389321327,47.50816675834358,0 9.78055271320045,47.50850664451718,0 9.780528824776411,47.50858962535858,0 9.780607279390097,47.50861980021,0 9.780712388455868,47.50883714295924,0 9.780827639624476,47.5087891984731,0 9.780772402882576,47.50887419097126,0 9.780789921060205,47.50894526951015,0 9.780746921896935,47.50903914682567,0 9.780763937160373,47.50911165028811,0 9.780976418405771,47.50919429585338,0 9.781030397862196,47.50947399996221,0 9.781149504706264,47.50968455336988,0 9.781240615993738,47.50970190390944,0 9.781491402536631,47.50965898856521,0 9.781478578224778,47.5097385328263,0 9.781383778899908,47.50965588726103,0 9.781221924349666,47.50973492860794,0 9.7813237644732,47.50995671376586,0 9.781545884907246,47.51017254777253,0 9.781526355072856,47.51019777730107,0 9.781601456925273,47.5103463884443,0 9.781587878242135,47.51041620969772,0 9.781689466908574,47.51040908508003,0 9.781803041696548,47.51032250002027,0 9.781916197389364,47.51028779894114,0 9.782652128487825,47.51027162186801,0 9.782610051333904,47.51028327271342,0 9.782647518441081,47.51028746366501,0 9.782725470140576,47.5104053132236,0 9.78277157060802,47.51061159186065,0 9.783008778467774,47.51101182773709,0 9.783072229474783,47.51123830676079,0 9.783042222261429,47.51141105778515,0 9.782926384359598,47.51162244938314,0 9.782845918089151,47.51168900169432,0 9.782820018008351,47.51184683293104,0 9.783048341050744,47.51199100166559,0 9.78346492163837,47.51215679571033,0 9.783764742314816,47.51233021728694,0 9.784265141934156,47.51243918202817,0 9.784355331212282,47.51252886839211,0 9.7843630425632,47.51258938573301,0 9.784321971237659,47.51262509264052,0 9.784375950694084,47.51261251978576,0 9.784364299848676,47.51263741403818,0 9.784385422244668,47.51259215176105,0 9.78437821380794,47.51268535852432,0 9.784449459984899,47.51280907541513,0 9.784687338396907,47.51297478564084,0 9.784731511026621,47.51303697936237,0 9.784834943711758,47.51336747780442,0 9.784874254837632,47.51372479833663,0 9.785050023347139,47.5140283908695,0 9.785180278122425,47.51418840140104,0 9.785547740757465,47.51449593342841,0 9.785794839262962,47.51475116237998,0 9.785851752385497,47.51487404108047,0 9.785886369645596,47.51488158479333,0 9.786039255559444,47.51534879207611,0 9.786091055721045,47.51578741706908,0 9.786058617755771,47.51586218364537,0 9.78601511567831,47.51585480757058,0 9.786082673817873,47.51582354307175,0 9.786081500351429,47.5160797778517,0 9.78619591332972,47.51619888469577,0 9.786448292434216,47.51627423800528,0 9.786560693755746,47.51636006869376,0 9.786888174712658,47.51676315441728,0 9.786998480558395,47.5170190539211,0 9.787107026204467,47.5175423361361,0 9.787154970690608,47.51761383377016,0 9.787192856892943,47.51760302111506,0 9.787251614034176,47.51775129698217,0 9.787226719781756,47.51792010851204,0 9.787262175232172,47.51795405521989,0 9.787358986213803,47.51796470023692,0 9.787403577938676,47.51788473688066,0 9.787340797483921,47.51786512322724,0 9.787341468036175,47.51789236441255,0 9.787254212424159,47.5179035961628,0 9.78721858933568,47.51797450706363,0 9.787206770852208,47.51826058141887,0 9.786971658468246,47.51848957501352,0 9.786734199151397,47.51857875846326,0 9.786650631576777,47.51866492442787,0 9.78667720220983,47.5186528544873,0 9.786612745374441,47.51874580979347,0 9.786618780344725,47.51884907484055,0 9.786565052345395,47.51904747448862,0 9.786469582468271,47.51909256912768,0 9.786563040688634,47.5193402543664,0 9.78649590164423,47.51942901872098,0 9.786650212481618,47.51945491880178,0 9.786643674597144,47.51928929239511,0 9.786617942154408,47.51925618387759,0 9.786702515557408,47.51908569596708,0 9.786634286865592,47.51900782808661,0 9.786256682127714,47.51919214613736,0 9.78592618368566,47.51948718912899,0 9.785626949742436,47.51953991129994,0 9.785338696092367,47.51950831152499,0 9.785001911222935,47.51951493322849,0 9.784192135557532,47.51935182139277,0 9.784254748374224,47.51932743005455,0 9.784238822758198,47.51934955827892,0 9.783667763695121,47.51921385526657,0 9.783305497840047,47.51916892826557,0 9.78316543623805,47.5190551020205,0 9.783168621361256,47.51894747838378,0 9.783139787614346,47.51892325468361,0 9.782912554219365,47.51880959607661,0 9.782834937795997,47.51887262798846,0 9.782612817361951,47.51885058358312,0 9.782525980845094,47.51880020834506,0 9.782492201775312,47.51866559498012,0 9.782452806830406,47.51865478232503,0 9.782197074964643,47.51869970932603,0 9.781951820477843,47.51880750060081,0 9.781904211267829,47.51889861188829,0 9.781909910961986,47.51897195354104,0 9.781826762482524,47.51905158162117,0 9.781260062009096,47.51894043758512,0 9.781224941834807,47.51899064518511,0 9.781382353976369,47.51915308646858,0 9.781141541898251,47.51912911422551,0 9.780797883868217,47.51900162547827,0 9.780141999945045,47.51865729689598,0 9.779147068038583,47.51828975044191,0 9.779036594554782,47.51823795028031,0 9.778959229588509,47.51814474351704,0 9.778938526287675,47.51808866858482,0 9.778974065557122,47.51808347180486,0 9.779015555977821,47.5180119741708,0 9.779143882915378,47.51756010577083,0 9.779194174334407,47.51747402362525,0 9.779392741620541,47.51732088625431,0 9.779424760490656,47.51723639667034,0 9.77966146543622,47.51708677969873,0 9.779693651944399,47.51714427955449,0 9.77978945709765,47.51706792041659,0 9.780027335509658,47.51699248328805,0 9.780105790123343,47.5169331394136,0 9.780671149492264,47.51675695180893,0 9.780741222202778,47.51669350080192,0 9.780739629641175,47.51655603758991,0 9.780885223299265,47.51638940535486,0 9.781038947403431,47.51630516722798,0 9.781121676787734,47.5162198394537,0 9.781119246035814,47.51625345088542,0 9.781175404787064,47.51630089245737,0 9.781270707026124,47.51627658493817,0 9.781303396448493,47.51609310507774,0 9.781427616253495,47.51592085696757,0 9.781649736687541,47.51570770516992,0 9.781658370047808,47.51564073376358,0 9.781609755009413,47.51555926166475,0 9.781403811648488,47.51531719230115,0 9.781424179673195,47.51536807045341,0 9.781527863815427,47.51531576737761,0 9.781568180769682,47.51519339159131,0 9.781689969822764,47.51512859947979,0 9.781796000897884,47.51518878154457,0 9.781834641471505,47.51517000608146,0 9.781808154657483,47.51509951427579,0 9.781862972304225,47.51509096473455,0 9.781806813552976,47.51510144211352,0 9.781789127737284,47.51517361029983,0 9.781853333115578,47.51512558199465,0 9.781826930120587,47.51511451788247,0 9.781827852129936,47.51506481319666,0 9.781868336722255,47.51507503911853,0 9.781886776909232,47.51528584398329,0 9.781854255124927,47.51532515510917,0 9.78186515159905,47.51525315456092,0 9.781741267070174,47.5151301920414,0 9.78174302726984,47.51505626365542,0 9.781782506033778,47.51502248458564,0 9.781540185213089,47.51498870551586,0 9.781921142712235,47.51515114679933,0 9.782001860439777,47.51513413153589,0 9.782104957848787,47.51521090976894,0 9.782117865979671,47.51512105576694,0 9.782168744131923,47.51508023589849,0 9.782147454097867,47.51506296917796,0 9.782102862372994,47.51513035967946,0 9.782182909548283,47.51503740437329,0 9.782269997522235,47.51500815153122,0 9.782386757433414,47.51513044349849,0 9.78179088793695,47.51512474380434,0 9.781972020864487,47.51513002440333,0 9.78200051933527,47.51516941934824,0 9.782156758010387,47.5151954870671,0 9.781995909288526,47.51524175517261,0 9.78182215243578,47.51546965911984,0 9.78217201307416,47.51572296023369,0 9.782201768830419,47.5152734387666,0 9.782252898439765,47.51505265943706,0 9.782279804348946,47.51514846459031,0 9.782437635585666,47.51515173353255,0 9.782353481277823,47.51518601551652,0 9.782267482951283,47.51533504575491,0 9.782043434679508,47.51511158421636,0 9.782186010852456,47.5151301920414,0 9.782157428562641,47.51518182456493,0 9.781972523778677,47.51519096083939,0 9.782133623957634,47.51512340269983,0 9.782116524875164,47.51510965637863,0 9.782053409144282,47.5151817407459,0 9.78205575607717,47.51522205770016,0 9.781956430524588,47.5151301920414,0 9.781817877665162,47.51515533775091,0 9.781847633421421,47.51513170078397,0 9.781829696148634,47.51506833359599,0 9.781887698918581,47.51513463445008,0 9.781848639249802,47.51523236744106,0 9.781918795779347,47.51517930999398,0 9.781784601509571,47.51520998775959,0 9.781889207661152,47.5152232311666,0 9.781916784122586,47.51512583345175,0 9.781835144385695,47.51507638022304,0 9.781785691156983,47.51509389840066,0 9.781806897372007,47.51506766304374,0 9.781750487163663,47.51517059281468,0 9.781812680885196,47.51517402939498,0 9.781885771080852,47.51509951427579,0 9.78197269141674,47.51512658782303,0 9.781955340877175,47.5150643941015,0 9.781902534887195,47.51508568413556,0 9.781820476055145,47.51503958366811,0 9.781560972332954,47.51518609933555,0 9.781481847167015,47.51530361361802,0 9.781413953751326,47.51532381400466,0 9.781271126121283,47.51513740047812,0 9.781242124736309,47.51514125615358,0 9.781265594065189,47.51513195224106,0 9.781159227713943,47.51511049456894,0 9.781200969591737,47.51509984955192,0 9.781196611002088,47.51492919400334,0 9.781065098941326,47.51478645019233,0 9.78106576949358,47.5146862026304,0 9.780974993482232,47.51437121070921,0 9.781165430322289,47.51407700590789,0 9.781254194676876,47.51401774585247,0 9.781296690925956,47.51394641585648,0 9.781533814966679,47.51386418938637,0 9.781632302328944,47.51377492211759,0 9.781839502975345,47.51366822049022,0 9.782122392207384,47.51356277614832,0 9.78225901722908,47.51344040036201,0 9.782556826248765,47.51326119527221,0 9.782852875068784,47.51321769319475,0 9.783105757087469,47.51321794465184,0 9.783369619399309,47.51315390691161,0 9.783504484221339,47.5131821539253,0 9.783641444519162,47.51311006955802,0 9.783688634634018,47.5130217242986,0 9.783998345956206,47.51294695772231,0 9.784228345379233,47.51280915923417,0 9.784301100298762,47.51256390474737,0 9.784265644848347,47.51249492168427,0 9.783929195255041,47.51242283731699,0 9.783479757606983,47.51216073520482,0 9.783241795375943,47.51212167553604,0 9.783115815371275,47.51200625672936,0 9.782877014949918,47.51187742687762,0 9.782772408798337,47.5117711443454,0 9.782993355765939,47.51147098839283,0 9.78301883675158,47.51136772334576,0 9.782834937795997,47.51091937534511,0 9.782641902565956,47.51023499295115,0 9.782684147357941,47.5101600587368,0 9.782658666372299,47.51001848839223,0 9.782683392986655,47.50995361246169,0 9.782647099345922,47.50983341597021,0 9.782708371058106,47.50966150313616,0 9.782735276967287,47.50923494808376,0 9.78264064528048,47.50906529836357,0 9.78263083845377,47.50897997058928,0 9.78253411129117,47.50885742716491,0 9.782512653619051,47.50874628312886,0 9.782554395496845,47.5083002820611,0 9.78248817846179,47.50810900703073,0 9.782286090776324,47.5079012196511,0 9.782256502658129,47.50780206173658,0 9.782198499888182,47.50774363987148,0 9.782104790210724,47.50772821716964,0 9.781974367797375,47.50753551721573,0 9.781811758875847,47.50742521136999,0 9.781792396679521,47.50729772262275,0 9.781676391139627,47.50725966878235,0 9.781521242111921,47.50711474567652,0 9.781216811388731,47.50709161162376,0 9.78115419857204,47.5070621073246,0 9.781064176931977,47.50700234435499,0 9.780945489183068,47.50680989585817,0 9.780786819756031,47.5067875161767,0 9.780683219432831,47.50672590918839,0 9.78068514727056,47.50668098218739,0 9.780337382107973,47.50649180263281,0 9.780196901410818,47.50642776489258,0 9.780220538377762,47.50649029389024,0 9.779749475419521,47.50641192309558,0 9.779533809050918,47.50623196363449,0 9.779159892350435,47.50627052038908,0 
		</coordinates>
	</LineString>
	<atom:link rel="app" href="https://www.google.com/earth/about/versions/#earth-pro" title="Google Earth Pro 7.3.7.1155"></atom:link>
</Placemark>
</kml>
