<?xml version="1.0" encoding="UTF-8"?>
<kml xmlns="http://www.opengis.net/kml/2.2" xmlns:gx="http://www.google.com/kml/ext/2.2" xmlns:kml="http://www.opengis.net/kml/2.2" xmlns:atom="http://www.w3.org/2005/Atom">
<Placemark>
	<name>Track</name>
	<Style>
		<LineStyle>
			<color>ff0000ff</color>
			<width>3</width>
		</LineStyle>
	</Style>
	<LineString>
		<tessellate>1</tessellate>
		<coordinates>
			176.3670504000038,-38.35453547537327,0 176.366971693933,-38.35464108735323,0 176.3670953270048,-38.35463723167777,0 176.367185683921,-38.35491165518761,0 176.3671998493373,-38.35509153082967,0 176.3672357238829,-38.35508557967842,0 176.3671120069921,-38.3551936224103,0 176.3669994380325,-38.35517182946205,0 176.3669934868813,-38.35526193492115,0 176.3672009389848,-38.3554523717612,0 176.3676127418876,-38.35559754632413,0 176.3677422422916,-38.35577499121428,0 176.3676830660552,-38.35577658377588,0 176.367706367746,-38.35576434619725,0 176.3676331937313,-38.35570299066603,0 176.3675739336759,-38.35571254603565,0 176.3676207046956,-38.35581237450242,0 176.3675725925714,-38.35580089129508,0 176.3675098121166,-38.35586090572178,0 176.3675611931831,-38.35594044998288,0 176.3676652126014,-38.3559637516737,0 176.3676576688886,-38.35612091235816,0 176.3675623666495,-38.3561915718019,0 176.367611149326,-38.35629785433412,0 176.36768524535,-38.35631176829338,0 176.3677031826228,-38.35637195035815,0 176.3677978143096,-38.35635812021792,0 176.3680358603597,-38.35642961785197,0 176.3680143188685,-38.35641352459788,0 176.3680532108992,-38.35641008801758,0 176.368070980534,-38.35644168779254,0 176.3680693041533,-38.35641972720623,0 176.3680090382695,-38.35643162950873,0 176.3681825436652,-38.35658401250839,0 176.3682346791029,-38.35676682181656,0 176.3681932725012,-38.35679171606898,0 176.3683338370174,-38.35671845823526,0 176.3685488328338,-38.35674352012575,0 176.3687940035015,-38.35689338855445,0 176.3688054028898,-38.35704367607832,0 176.3689059857279,-38.35705767385662,0 176.3689314667135,-38.35702506825328,0 176.3689028006047,-38.35707259364426,0 176.3689307961613,-38.35705775767565,0 176.3692416809499,-38.35736998356879,0 176.3692779745907,-38.35757265798748,0 176.3691768888384,-38.35768229328096,0 176.3692450337112,-38.35763451643288,0 176.3692889548838,-38.35765077732503,0 176.3693576026708,-38.35773015394807,0 176.3693398330361,-38.35777424275875,0 176.3693891186267,-38.35773132741451,0 176.3693667389452,-38.3578081894666,0 176.3694086484611,-38.35786493495107,0 176.369585422799,-38.35789687000215,0 176.369796898216,-38.35786568932235,0 176.3699136581272,-38.35788463242352,0 176.370002925396,-38.35782604292035,0 176.3699651230127,-38.35784641094506,0 176.3702255487442,-38.35786149837077,0 176.3701739162207,-38.35786543786526,0 176.3701569009572,-38.35791950114071,0 176.3701689708978,-38.35786527022719,0 176.3702055998147,-38.35786275565624,0 176.3703207671642,-38.35787977091968,0 176.3703890796751,-38.35794229991734,0 176.3703421410173,-38.3580600656569,0 176.370180202648,-38.3581964392215,0 176.3695137575269,-38.35823759436607,0 176.3694376498461,-38.35828956216574,0 176.3694710098207,-38.35835443809628,0 176.3694444391876,-38.35837287828326,0 176.3694595266134,-38.35835334844887,0 176.3693879451603,-38.3583417814225,0 176.3694414217025,-38.35827958770096,0 176.3694938085973,-38.35830984637141,0 176.3696196209639,-38.35829232819378,0 176.3698753528297,-38.35842618718743,0 176.3700089603662,-38.35877571254969,0 176.3699797913432,-38.35884151048958,0 176.3703475054353,-38.35880404338241,0 176.3702075276524,-38.35878962650895,0 176.3700089603662,-38.35884511470795,0 176.3698464352638,-38.3590926323086,0 176.3696062937379,-38.35927024483681,0 176.3694914616644,-38.35940418764949,0 176.3693780545145,-38.35935867391527,0 176.369371348992,-38.3592842426151,0 176.3693990092725,-38.35925725288689,0 176.3692638091743,-38.35931718349457,0 176.3693082332611,-38.35929287597537,0 176.3693407550454,-38.35933428257704,0 176.3694584369659,-38.35934392176569,0 176.3695116620511,-38.35936395451427,0 176.3695064652711,-38.3594034332782,0 176.3692281860858,-38.35952237248421,0 176.3691576942801,-38.35951843298972,0 176.3691941555589,-38.35952656343579,0 176.3691851869226,-38.35956688039005,0 176.3689494039863,-38.35963829420507,0 176.3687407784164,-38.36008261889219,0 176.3687936682254,-38.36018999107182,0 176.3688885513693,-38.36025369353592,0 176.3691139407456,-38.36017850786448,0 176.3692063093185,-38.36018378846347,0 176.3690209016204,-38.36020340211689,0 176.3688582088798,-38.36027364246547,0 176.3687443826348,-38.36026350036263,0 176.3686375133693,-38.36039677262306,0 176.368657797575,-38.36092416197062,0 176.3686878886074,-38.36104854941368,0 176.3688831031322,-38.36093128658831,0 176.3689965941012,-38.36091225966811,0 176.3690385874361,-38.36093539372087,0 176.3690280262381,-38.36090899072587,0 176.3691549282521,-38.36079373955727,0 176.3692587800324,-38.36073456332088,0 176.3693332113326,-38.36072928272188,0 176.3693559262902,-38.3607610501349,0 176.3693221472204,-38.36091603152454,0 176.369392471388,-38.36100094020367,0 176.3695422559977,-38.36098023690283,0 176.3695052079856,-38.3609920553863,0 176.3695787172765,-38.36102868430316,0 176.3695443514735,-38.3610768802464,0 176.3695712573826,-38.3610959071666,0 176.3696615304798,-38.3610734436661,0 176.3697079662234,-38.36109875701368,0 176.369857667014,-38.36101653054357,0 176.3699308410287,-38.36109624244273,0 176.3701248820871,-38.36117302067578,0 176.370169389993,-38.36123689077795,0 176.3703297358006,-38.36126036010683,0 176.3701633550227,-38.36137644946575,0 176.37002161704,-38.36136370897293,0 176.369902677834,-38.36140042170882,0 176.3700704835355,-38.36151022464037,0 176.3700639456511,-38.36157107725739,0 176.3705089408904,-38.36160896345973,0 176.3706985395402,-38.36168616078794,0 176.3707102742046,-38.36172714829445,0 176.3705917540938,-38.36185849271715,0 176.370399557054,-38.36199637502432,0 176.3703765068203,-38.36195547133684,0 176.3704729825258,-38.36178607307374,0 176.3703934382647,-38.36186519823968,0 176.3700958807021,-38.36199117824435,0 176.3700931146741,-38.36205513216555,0 176.3701354432851,-38.36200727149844,0 176.3700351119041,-38.36207516491413,0 176.3701162487268,-38.36203954182565,0 176.3701051007956,-38.36200668476522,0 176.3700667954981,-38.36202654987574,0 176.3701238762587,-38.36203786544502,0 176.3700470142066,-38.36211623623967,0 176.3700885046273,-38.36211833171546,0 176.3701152428985,-38.36220684461296,0 176.3700921926647,-38.36225403472781,0 176.3699140772223,-38.36231723427773,0 176.3697403203696,-38.36230516433716,0 176.369654154405,-38.36234011687338,0 176.3694181200117,-38.36250758729875,0 176.3693573512137,-38.36257866583765,0 176.3693569321185,-38.36263708770275,0 176.3691883720458,-38.36277656257153,0 176.3689688500017,-38.3628711104393,0 176.3689241744578,-38.36301293224096,0 176.3688836898655,-38.36305165663362,0 176.3689468055964,-38.36308610625565,0 176.369096590206,-38.36328165605664,0 176.369181163609,-38.36330604739487,0 176.3692036271095,-38.36334913037717,0 176.369178397581,-38.36340964771807,0 176.3691504020244,-38.36340788751841,0 176.3692542538047,-38.36344066075981,0 176.369252409786,-38.36348013952374,0 176.3691329676658,-38.36346765048802,0 176.3691130187362,-38.36338886059821,0 176.3690670859069,-38.36336933076382,0 176.3690584525466,-38.36318367160857,0 176.369019979611,-38.3631129283458,0 176.3690413534641,-38.36301083676517,0 176.3689175527543,-38.36302718147635,0 176.3688469771296,-38.36308526806533,0 176.3687591347843,-38.36310337297618,0 176.3687330670655,-38.36315508931875,0 176.3687752280384,-38.36312759667635,0 176.3687282055616,-38.3631285186857,0 176.3687189016491,-38.36314888671041,0 176.368779251352,-38.36312793195248,0 176.3688080012798,-38.36307688616216,0 176.3689700234681,-38.36296842433512,0 176.3689826801419,-38.36282886564732,0 176.3692793156952,-38.36269810795784,0 176.3696010131389,-38.36229410022497,0 176.3698979001492,-38.36231564171612,0 176.3700128160417,-38.36227842606604,0 176.3700961321592,-38.36221178993583,0 176.3701367005706,-38.36213777773082,0 176.3701066095382,-38.36208069697022,0 176.3701609242707,-38.36192571558058,0 176.3702279794961,-38.36184130981565,0 176.3701109681278,-38.36181976832449,0 176.3700310885906,-38.36171180941164,0 176.3698875065893,-38.36167392320931,0 176.369783738628,-38.36171038448811,0 176.3697351235896,-38.36176503449678,0 176.3695031125098,-38.36175447329879,0 176.3695133384317,-38.36171365343034,0 176.3695732690394,-38.36170242168009,0 176.3694860972464,-38.36169898509979,0 176.3691172096878,-38.36187383159995,0 176.3689535111189,-38.36172689683735,0 176.3687657564878,-38.3617278188467,0 176.3686930015683,-38.36161843501031,0 176.3685717992485,-38.36167761124671,0 176.3685553707182,-38.36177324876189,0 176.368491332978,-38.36182437837124,0 176.3685765769333,-38.36175086908042,0 176.3686018902808,-38.36163997650146,0 176.3686492480338,-38.36159823462367,0 176.3687753956765,-38.36168775334954,0 176.3688960950822,-38.36168758571148,0 176.3691141083837,-38.36180501617491,0 176.369210248813,-38.36182404309511,0 176.3694758713245,-38.36170267313719,0 176.3697461877018,-38.36171792820096,0 176.3699064496905,-38.36167166009545,0 176.3700450025499,-38.36180157959461,0 176.3701926916838,-38.36184030398726,0 176.3704430591315,-38.3617986459285,0 176.3703646045178,-38.36192387156188,0 176.3703962881118,-38.3619368635118,0 176.3705810252577,-38.36187098175287,0 176.3706909120083,-38.36176151409745,0 176.3706972822547,-38.36170736700296,0 176.3705466594547,-38.36164073087275,0 176.370381033048,-38.36164249107242,0 176.3702242914587,-38.36159739643335,0 176.3700674660504,-38.36147049441934,0 176.3699329365045,-38.36140804924071,0 176.3700140733272,-38.36135935038328,0 176.3701760955155,-38.36136932484806,0 176.3702255487442,-38.36127930320799,0 176.3700058590621,-38.36117997765541,0 176.3698847405612,-38.36105877533555,0 176.3695611152798,-38.36115659214556,0 176.3695653062314,-38.36106263101101,0 176.3694911263883,-38.36099180392921,0 176.3695443514735,-38.36092391051352,0 176.3695411663502,-38.36081058718264,0 176.3694607000798,-38.36045209318399,0 176.3694705907255,-38.36037841625512,0 176.3695992529392,-38.36020172573626,0 176.3697248976678,-38.35992344655097,0 176.3697590120137,-38.35972697474062,0 176.3696825690567,-38.35941550321877,0 176.3696227222681,-38.35936169140041,0 176.3694720994681,-38.35938021540642,0 176.3694171141833,-38.35933654569089,0 176.3692612946033,-38.35934149101377,0 176.368895759806,-38.35946068167686,0 176.3688986934721,-38.35950963199139,0 176.3688580412418,-38.35948591120541,0 176.3688158802688,-38.35941441357136,0 176.3687244337052,-38.35936026647687,0 176.3686095178127,-38.35915910080075,0 176.3685456477106,-38.35885232314467,0 176.3684602361172,-38.3587662409991,0 176.3684205058962,-38.35864436812699,0 176.3685396127403,-38.35807506926358,0 176.3684870582074,-38.35814413614571,0 176.3684099446982,-38.35812913253903,0 176.368197966367,-38.35779410786927,0 176.3681330066174,-38.35776770487428,0 176.3682366907597,-38.35785957053304,0 176.3684347551316,-38.35815067403018,0 176.3684670254588,-38.35816081613302,0 176.368554616347,-38.35811387747526,0 176.3685486651957,-38.35809015668929,0 176.3684974517673,-38.35815469734371,0 176.3684150576591,-38.35814095102251,0 176.3681651093066,-38.35778631269932,0 176.3680430687964,-38.35766184143722,0 176.3679245486856,-38.35763434879482,0 176.368034183979,-38.35752764716744,0 176.3679286558181,-38.35762152448297,0 176.3677979819477,-38.35762219503522,0 176.3677656278014,-38.35759746842086,0 176.3677812181413,-38.35755530744791,0 176.3677036017179,-38.35753720253706,0 176.3675922062248,-38.35739144124091,0 176.3675497099757,-38.35738196969032,0 176.367545099929,-38.35741893388331,0 176.3675515539944,-38.35737761110067,0 176.3676660507917,-38.35731432773173,0 176.3677025958896,-38.35725012235343,0 176.3676956389099,-38.35728893056512,0 176.3676468562335,-38.35729622282088,0 176.367695890367,-38.35716848261654,0 176.3677349500358,-38.35718080401421,0 176.3676927890629,-38.3571398165077,0 176.3677484448999,-38.35711190477014,0 176.3678158354014,-38.35698374547064,0 176.3678116444498,-38.3568565081805,0 176.3676504604518,-38.35670764558017,0 176.3674845825881,-38.35647135972977,0 176.3675836566836,-38.35642182268202,0 176.3674907851964,-38.3562002889812,0 176.3675407413393,-38.35612158291042,0 176.3675355445594,-38.35597389377654,0 176.3674541562796,-38.35590792819858,0 176.3670987635851,-38.35596266202629,0 176.367243854329,-38.35595469921827,0 176.3673772942275,-38.35588814690709,0 176.3675225526094,-38.35592150688171,0 176.3675321079791,-38.35586719214916,0 176.3675932120532,-38.35580885410309,0 176.3675561640412,-38.35566795431077,0 176.367529258132,-38.35562981665134,0 176.3674192037433,-38.35562612861395,0 176.3673657272011,-38.355583967641,0 176.3671764638275,-38.35554113611579,0 176.3669825065881,-38.35540258325636,0 176.3669747114182,-38.35531314834952,0 176.3670153636485,-38.35521340370178,0 176.3669644854963,-38.35506680421531,0 176.366879073903,-38.35495406761765,0 176.3667843583971,-38.35466589778662,0 176.3668461330235,-38.35458425804973,0 176.3668472226709,-38.35429441183805,0 176.3668175507337,-38.35422995500267,0 176.3667009584606,-38.3541748020798,0 176.3666267786175,-38.35405175574124,0 176.3666233420372,-38.35373860783875,0 176.3665590528399,-38.35371782071888,0 
		</coordinates>
	</LineString>
	<atom:link rel="app" href="https://www.google.com/earth/about/versions/#earth-pro" title="Google Earth Pro 7.3.7.1155"></atom:link>
</Placemark>
</kml>
