<?xml version="1.0" encoding="UTF-8"?>
<kml xmlns="http://www.opengis.net/kml/2.2" xmlns:gx="http://www.google.com/kml/ext/2.2" xmlns:kml="http://www.opengis.net/kml/2.2" xmlns:atom="http://www.w3.org/2005/Atom">
<Placemark>
	<name>Track</name>
	<Style>
		<LineStyle>
			<color>ff0000ff</color>
			<width>3</width>
		</LineStyle>
	</Style>
	<LineString>
		<tessellate>1</tessellate>
		<coordinates>
			175.6673765648156,-37.06640182994306,0 175.6676263455302,-37.06599036231637,0 175.6679627113044,-37.06589221023023,0 175.6677020341158,-37.0659922901541,0 175.6672927457839,-37.06664775498211,0 175.667681498453,-37.06598005257547,0 175.6679835822433,-37.06591341644526,0 175.6681051198393,-37.0657071378082,0 175.6692958530039,-37.06470365636051,0 175.6697114277631,-37.06439562141895,0 175.6700631324202,-37.06426570191979,0 175.6704963929951,-37.06368173472583,0 175.6706389691681,-37.06308921799064,0 175.6705535575747,-37.06241388805211,0 175.6705899350345,-37.06218707375228,0 175.6706987321377,-37.06215505488217,0 175.6705597601831,-37.06219755113125,0 175.6708128936589,-37.06209998577833,0 175.6706932000816,-37.06215765327215,0 175.6707582436502,-37.06201356835663,0 175.6709519494325,-37.06200594082475,0 175.6710739061236,-37.06168826669455,0 175.6712735630572,-37.0618184376508,0 175.6715702824295,-37.06170444376767,0 175.6713064201176,-37.06182623282075,0 175.6712243612856,-37.0617753546685,0 175.6711583118886,-37.06160386092961,0 175.6712564639747,-37.06126338802278,0 175.6718348152936,-37.06056500785053,0 175.6722363922745,-37.0598479360342,0 175.6726614385843,-37.05951634794474,0 175.6728302501142,-37.05892575904727,0 175.6734537798911,-37.05816200003028,0 175.6733508501202,-37.05750443972647,0 175.6731185037643,-37.0570541638881,0 175.6732389517128,-37.05669030547142,0 175.6734695378691,-37.05652249976993,0 175.6737911514938,-37.05603048205376,0 175.673844460398,-37.0553305093199,0 175.6742369849235,-37.05510092899203,0 175.6747368816286,-37.05515038222075,0 175.6752402987331,-37.05532439053059,0 175.6753381993622,-37.05526387318969,0 175.6756690330803,-37.05532757565379,0 175.675757965073,-37.05518189817667,0 175.6760867871344,-37.05535741522908,0 175.6769274920225,-37.05513110384345,0 175.6778664328158,-37.05515909940004,0 175.6782191433012,-37.05532564781606,0 175.6788302678615,-37.05530075356364,0 175.6789886020124,-37.05540695227683,0 175.679177865386,-37.05531726591289,0 175.6794122233987,-37.05533294007182,0 175.6795327551663,-37.05544869415462,0 175.6799087673426,-37.05542807467282,0 175.6799445580691,-37.05529128201306,0 175.6798348389566,-37.05527921207249,0 175.6799423787743,-37.05534668639302,0 175.6800530198961,-37.05509564839303,0 175.6804934050888,-37.05496748909354,0 175.6802527606487,-37.05478182993829,0 175.6813470181078,-37.05466498620808,0 175.6814818829298,-37.05454219132662,0 175.6815543863922,-37.05456767231226,0 175.681540556252,-37.05472357571125,0 175.6818827893585,-37.05451318994164,0 175.6820460688323,-37.05460421741009,0 175.6822649203241,-37.05451981164515,0 175.6824767310172,-37.05431152135134,0 175.682563232258,-37.05435778945684,0 175.682967575267,-37.05415545031428,0 175.6829670723528,-37.05402427352965,0 175.6831638794392,-37.05392905510962,0 175.6830063834786,-37.05389862880111,0 175.6831039488316,-37.0539128780365,0 175.6830982491374,-37.05378438346088,0 175.6829658150673,-37.05383249558508,0 175.6832067947835,-37.05382503569126,0 175.6829977501184,-37.05387557856739,0 175.6832119915634,-37.05382755026221,0 175.6831030268222,-37.05384481698275,0 175.6831833254546,-37.05388060770929,0 175.6830900348723,-37.05388370901346,0 175.6831296812743,-37.05370391719043,0 175.6831007637084,-37.05382159911096,0 175.6832675635815,-37.0538246165961,0 175.6830617040396,-37.05377273261547,0 175.6831929646432,-37.05370157025754,0 175.6831900309771,-37.05353376455605,0 175.6832229718566,-37.0536538772285,0 175.6833481136709,-37.05362822860479,0 175.6832855846733,-37.05342345871031,0 175.6834668852389,-37.05327979288995,0 175.6834226287901,-37.05337945371866,0 175.6837408058345,-37.05401086248457,0 175.6839837972075,-37.05393886193633,0 175.6839159876108,-37.05397792160511,0 175.6838937755674,-37.05385370180011,0 175.6841317377985,-37.05396953970194,0 175.6842436362058,-37.05393224023283,0 175.6841665226966,-37.0537749119103,0 175.6844631582499,-37.05366552807391,0 175.6846779026091,-37.05339848063886,0 175.685311825946,-37.05341398715973,0 175.6856787018478,-37.05303353257477,0 175.6859674584121,-37.05305339768529,0 175.6860963720828,-37.05294921062887,0 175.6858717370778,-37.05282649956644,0 175.6857911031693,-37.05266690813005,0 175.6861611641943,-37.05241025425494,0 175.6860290654004,-37.05228913575411,0 175.686276499182,-37.0522256847471,0 175.6862194184214,-37.05177557654679,0 175.686445645988,-37.05146796070039,0 175.6866111047566,-37.05141574144363,0 175.6867003720254,-37.0515247900039,0 175.6869006995112,-37.05149319022894,0 175.6868071574718,-37.05104308202863,0 175.6871979217976,-37.05096194520593,0 175.6874390691519,-37.05103461630642,0 175.6876789592206,-37.05087468959391,0 175.6878535542637,-37.05060303211212,0 175.6882567238063,-37.05048459582031,0 175.6883613299578,-37.05036230385303,0 175.6885558739305,-37.0503796543926,0 175.6886374298483,-37.05051359720528,0 175.6888171378523,-37.05042852088809,0 175.6890293676406,-37.05046875402331,0 175.6888815108687,-37.05040153115988,0 175.6890946626663,-37.05001621507108,0 175.6890628114343,-37.0496454834938,0 175.6900166720152,-37.048374786973,0 175.6903257127851,-37.04834989272058,0 175.6907461490482,-37.04855281859636,0 175.6911357399076,-37.04852633178234,0 175.6916637998074,-37.04875038005412,0 175.6917497143149,-37.04869321547449,0 175.6915458664298,-37.04893033951521,0 175.6916061323136,-37.04902078025043,0 175.6921935360879,-37.04922890290618,0 175.6926894094795,-37.04920878633857,0 175.6930795032531,-37.04943560063839,0 175.6940348725766,-37.04898532480001,0 175.6944503635168,-37.04894844442606,0 175.6951811816543,-37.04810447059572,0 175.6962887663394,-37.04803473316133,0 175.6964765209705,-37.04793909564614,0 175.6969284731895,-37.04802073538303,0 175.6974720396101,-37.04757817089558,0 175.6984397303313,-37.04765612259507,0 175.6994016375393,-37.04807303845882,0 175.7001159433275,-37.04753240570426,0 175.7004508003592,-37.04746920615435,0 175.7009516190737,-37.04720199108124,0 175.7019731216133,-37.0474852155894,0 175.7025024387985,-37.04721179790795,0 175.7027394790202,-37.04674894921482,0 175.7035695388913,-37.04656236805022,0 175.7039555255324,-37.04658365808427,0 175.704829255119,-37.04619943164289,0 175.704953642562,-37.04622290097177,0 175.7050853222609,-37.04595719464123,0 175.707255480811,-37.04470871016383,0 175.7078821957111,-37.04398367553949,0 175.7084537576884,-37.04363574273884,0 175.7090119924396,-37.04286955296993,0 175.7098784297705,-37.04242078587413,0 175.7106632273644,-37.04235431738198,0 175.7108954060823,-37.04246965236962,0 175.7117019966245,-37.04259454272687,0 175.7117644418031,-37.04270635731518,0 175.7117361109704,-37.04260133206844,0 175.712427617982,-37.04233780503273,0 175.7127997744828,-37.0424479432404,0 175.7128850184381,-37.04280291683972,0 175.7133095618337,-37.04330038279295,0 175.7132990844548,-37.04339417628944,0 175.7130394969136,-37.04349936917424,0 175.7133051194251,-37.04376968555152,0 175.7133006770164,-37.04391796141863,0 175.7139247935265,-37.04401787370443,0 175.7140019908547,-37.04415827058256,0 175.7139009051025,-37.04442473128438,0 175.7142778392881,-37.04470024444163,0 175.7141416333616,-37.0449657831341,0 175.7142334990203,-37.04519670456648,0 175.7141497638077,-37.04561588354409,0 175.7146012131125,-37.04591394402087,0 175.714607834816,-37.04612391069531,0 175.715104714036,-37.04661718569696,0 175.7152604497969,-37.04692002385855,0 175.7154126651585,-37.04689085483551,0 175.715485420078,-37.04701649956405,0 175.7158487755805,-37.04711448401213,0 175.7158026751131,-37.04759325832129,0 175.715926643461,-37.04780607484281,0 175.7164466567338,-37.04806281253695,0 175.7166115287691,-37.04795485362411,0 175.7171174604446,-37.04803389497101,0 175.7172589469701,-37.04794705845416,0 175.7171229925007,-37.04805267043412,0 175.7170373294502,-37.04796130768955,0 175.7167227566242,-37.04799902625382,0 175.7166364230216,-37.04791554249823,0 175.7164437230676,-37.04802098684013,0 175.7160251308233,-37.04781194217503,0 175.7160816248506,-37.04775745980442,0 175.7159400545061,-37.04775217920542,0 175.7157537247986,-37.0472386199981,0 175.7159441616386,-37.04712563194335,0 175.7153013534844,-37.04691164195538,0 175.7144516799599,-37.0456912368536,0 175.7141536194831,-37.04553659074008,0 175.7142847962677,-37.0452181622386,0 175.7141596544534,-37.04493745230138,0 175.7143184915185,-37.04473041929305,0 175.7139082811773,-37.04436027444899,0 175.7140744943172,-37.044119797647,0 175.7139080297202,-37.04397881403565,0 175.7133492920548,-37.0439524948597,0 175.7133331988007,-37.04375241883099,0 175.7130588591099,-37.04349886626005,0 175.7133091427386,-37.04344354569912,0 175.7133283372968,-37.04325964674354,0 175.7129125948995,-37.04280652105808,0 175.7128612138331,-37.04245054163039,0 175.7127224933356,-37.04234358854592,0 175.7124359160662,-37.04232146032155,0 175.7119315769523,-37.04254609532654,0 175.7116566505283,-37.04256721772254,0 175.7111867610365,-37.04241449944675,0 175.7109670713544,-37.04244333319366,0 175.7107653189451,-37.04232129268348,0 175.7099130470306,-37.04235557466745,0 175.709824366495,-37.04247686080635,0 175.7089948095381,-37.04287198372185,0 175.7083405181766,-37.04373640939593,0 175.7079725526273,-37.04394092783332,0 175.7069286704063,-37.04494139179587,0 175.7050643675029,-37.04595669172704,0 175.7048623636365,-37.04625022597611,0 175.7041716948152,-37.0465321931988,0 175.703626954928,-37.04651769250631,0 175.703367786482,-37.04664409160614,0 175.7027586735785,-37.04671969637275,0 175.7025541551411,-37.04716209322214,0 175.701983096078,-37.04743467271328,0 175.7009959593415,-37.04715714789927,0 175.7007526326925,-37.04734490253031,0 175.7001617923379,-37.04747188836336,0 175.6995970197022,-37.04801143147051,0 175.6992267910391,-37.04798880033195,0 175.6987050175667,-37.04761119559407,0 175.6979968305677,-37.04756727442145,0 175.6977498997003,-37.04766609705985,0 175.6974737159908,-37.04764547757804,0 175.6969893258065,-37.04794429242611,0 175.6965615972877,-37.04791151918471,0 175.6963575817645,-37.04802484251559,0 175.6953659188002,-37.04806264489889,0 175.6951082590967,-37.0481517445296,0 175.6945496052504,-37.04892019741237,0 175.6939932145178,-37.04899605363607,0 175.6930919084698,-37.04941154457629,0 175.6926159001887,-37.04918741248548,0 175.6922224536538,-37.0492159947753,0 175.6914820801467,-37.04898993484676,0 175.6914357282221,-37.04906889237463,0 175.6915904581547,-37.04872791655362,0 175.6915474589914,-37.04864786937833,0 175.6910530943424,-37.04851903952658,0 175.6907709594816,-37.04854108393192,0 175.6902886647731,-37.04832181334496,0 175.6900245510042,-37.04833455383778,0 175.6897576712072,-37.04854636453092,0 175.6890210695565,-37.04961497336626,0 175.6891314592212,-37.04979803413153,0 175.689017213881,-37.05016734078526,0 175.6888624839485,-37.05031997524202,0 175.6889494881034,-37.05031637102365,0 175.6889731250703,-37.050417708233,0 175.6886091828346,-37.05047529190779,0 175.6883281376213,-37.05034327693284,0 175.6882742419839,-37.05045660026371,0 175.6877309270203,-37.05066019669175,0 175.687711732462,-37.05080922693014,0 175.6874689925462,-37.05101718194783,0 175.6871440261602,-37.05095205456018,0 175.6867791619152,-37.05104283057153,0 175.6868559401482,-37.05148288048804,0 175.6865769065917,-37.0514138136059,0 175.6864046584815,-37.05147030763328,0 175.6863778363913,-37.05160181969404,0 175.6861882377416,-37.05173911526799,0 175.6861591525376,-37.05198118463159,0 175.686287228018,-37.05204874277115,0 175.686265937984,-37.05219433642924,0 175.6859952025115,-37.05223850905895,0 175.6861828733236,-37.0523879583925,0 175.6860735733062,-37.05236465670168,0 175.6861552968621,-37.05236767418683,0 175.686020096764,-37.05253698863089,0 175.6857631914318,-37.05261033028364,0 175.6860762555152,-37.05293663777411,0 175.6859368644655,-37.05305046401918,0 175.6856771931052,-37.0530613604933,0 175.6855170987546,-37.05333234742284,0 175.6853254884481,-37.05343670211732,0 175.6849438603967,-37.05335020087659,0 175.6846713647246,-37.0534033421427,0 175.6842873059213,-37.05375630408525,0 175.6841583084315,-37.0537574775517,0 175.684106759727,-37.05386778339744,0 175.6841945182532,-37.05395981669426,0 175.683776512742,-37.05386686138809,0 175.6839337572455,-37.05393198877573,0 175.6836588308215,-37.05401253886521,0 175.6834808830172,-37.05381204374135,0 175.6834580004215,-37.05346654169261,0 175.6833751872182,-37.05373417586088,0 175.6830466166139,-37.05369067378342,0 175.6831333693117,-37.05362051725388,0 175.6832016818225,-37.05368589609861,0 175.6830842513591,-37.05356854945421,0 175.6831042002887,-37.05365253612399,0 175.6833544000983,-37.05369771458209,0 175.6832606904209,-37.05386971123517,0 175.6829744484276,-37.05396928824484,0 175.6830843351781,-37.05413633957505,0 175.682510510087,-37.05424094572663,0 175.682333316654,-37.05446608364582,0 175.6818265467882,-37.05466180108488,0 175.6815885007381,-37.05454604700208,0 175.6813072040677,-37.05466993153095,0 175.68085600622,-37.05467395484447,0 175.6807358097285,-37.05478283576667,0 175.6802533473819,-37.05477110110223,0 175.6804434489459,-37.05493940971792,0 175.6804164592177,-37.05500646494329,0 175.6800654251128,-37.05511618405581,0 175.6799358408898,-37.05541223287582,0 175.6796233635396,-37.05547618679702,0 175.6794007401913,-37.05549295060337,0 175.6792500335723,-37.05534601584077,0 175.6784097477794,-37.05537417903543,0 175.6776676978916,-37.05516069196165,0 175.6770427431911,-37.05511819571257,0 175.676085781306,-37.05539873801172,0 175.6758197396994,-37.05524425953627,0 175.6756256986409,-37.05532162450254,0 175.6749277375638,-37.05531919375062,0 175.6745347101241,-37.0551460236311,0 175.6739082466811,-37.05528885126114,0 175.6739293690771,-37.05558464862406,0 175.6737913191319,-37.05602930858731,0 175.6731765903533,-37.05686406232417,0 175.673411032185,-37.05786955542862,0 175.6733536999673,-37.05821338109672,0 175.6728928629309,-37.05881268717349,0 175.6725597660989,-37.05958818085492,0 175.6719345599413,-37.06017516553402,0 175.671674888581,-37.0607755612582,0 175.6712315697223,-37.06129607744515,0 175.6709926016629,-37.06192840822041,0 175.6706046033651,-37.06222990527749,0 175.6706338562071,-37.06294395960867,0 175.6704646255821,-37.06369020044804,0 175.6699667405337,-37.06434851512313,0 175.6693933345377,-37.06462738104165,0 175.6679451093078,-37.06588014028966,0 175.6675802450627,-37.06602296791971,0 175.6672634929419,-37.06660442054272,0 
		</coordinates>
	</LineString>
	<atom:link rel="app" href="https://www.google.com/earth/about/versions/#earth-pro" title="Google Earth Pro 7.3.7.1155"></atom:link>
</Placemark>
</kml>
