<?xml version="1.0" encoding="UTF-8"?>
<kml xmlns="http://www.opengis.net/kml/2.2" xmlns:gx="http://www.google.com/kml/ext/2.2" xmlns:kml="http://www.opengis.net/kml/2.2" xmlns:atom="http://www.w3.org/2005/Atom">
<Placemark>
	<name>Track</name>
	<Style>
		<LineStyle>
			<color>ff0000ff</color>
			<width>3</width>
		</LineStyle>
	</Style>
	<LineString>
		<tessellate>1</tessellate>
		<coordinates>
			175.682455021888,-37.8574260044843,0 175.6824848614633,-37.8574135992676,0 175.6824064906687,-37.85751787014306,0 175.6823322270066,-37.85755558870733,0 175.6823079194874,-37.85760847851634,0 175.6820715498179,-37.85767771303654,0 175.6819117069244,-37.85767058841884,0 175.681765191257,-37.85772691480815,0 175.6817593239248,-37.85770872607827,0 175.6818064302206,-37.85771233029664,0 175.6817540433258,-37.85771802999079,0 175.6817570608109,-37.85768240690231,0 175.6817416381091,-37.85768358036876,0 175.6817389559001,-37.8576606977731,0 175.681728059426,-37.85766840912402,0 175.6817391235381,-37.8576588537544,0 175.6817381177098,-37.85767544992268,0 175.6817389559001,-37.85764846019447,0 175.6816975492984,-37.85768341273069,0 175.6817578151822,-37.85769212990999,0 175.681765275076,-37.85772632807493,0 175.6817786861211,-37.85768919624388,0 175.6817686278373,-37.8576797246933,0 175.6817777641118,-37.85771694034338,0 175.6817559711635,-37.85766220651567,0 175.681738704443,-37.85765642300248,0 175.681715067476,-37.85769891925156,0 175.6817302387208,-37.85771501250565,0 175.6818034965545,-37.85770470276475,0 175.6817319151014,-37.85773973912001,0 175.6816997285932,-37.85774007439613,0 175.6816946994513,-37.85775423981249,0 175.6817537918687,-37.85765692591667,0 175.6817273888737,-37.85765273496509,0 175.6817239522934,-37.85760504193604,0 175.6816767621785,-37.85755005665123,0 175.6816491857171,-37.8575380705297,0 175.6816004868597,-37.85757034085691,0 175.6816252972931,-37.85753455013037,0 175.6815496087074,-37.85746766254306,0 175.681516835466,-37.85746263340116,0 175.6815508659929,-37.85744964145124,0 175.6815163325518,-37.8574310336262,0 175.6814862415195,-37.85744871944189,0 175.6814487744123,-37.85742139443755,0 175.6813516281545,-37.85742659121752,0 175.6813781987876,-37.85741309635341,0 175.6813569925725,-37.85741083323956,0 175.6812153384089,-37.85743455402553,0 175.6812168471515,-37.85744888707995,0 175.681170495227,-37.85744561813772,0 175.6810998357832,-37.85749054513872,0 175.6810623686761,-37.85748987458646,0 175.681038396433,-37.85746615380049,0 175.6809007655829,-37.85749054513872,0 175.6807545851916,-37.85747855901718,0 175.680713262409,-37.8574915509671,0 175.6807175371796,-37.85746288485825,0 175.6807561777532,-37.85741678439081,0 175.6807479634881,-37.85743053071201,0 175.6807115860283,-37.85740714520216,0 175.6807166151702,-37.85738920792937,0 175.6806822493672,-37.85735266283154,0 175.6806645635515,-37.8573374915868,0 175.6806602049619,-37.85735274665058,0 175.6806802377105,-37.85732190124691,0 175.6805649027228,-37.85722928121686,0 175.6806745380163,-37.85722643136978,0 175.6806967500597,-37.85723355598748,0 175.6807012762874,-37.8572566062212,0 175.6807249970734,-37.85722341388464,0 175.6807765457779,-37.85725149326026,0 175.6807585246861,-37.85727052018046,0 175.6809144280851,-37.85726381465793,0 175.6809077225626,-37.85727647133172,0 175.6809711735696,-37.85727202892303,0 175.6809857580811,-37.8572428599,0 175.6809592712671,-37.85719131119549,0 175.6809103209525,-37.857197932899,0 175.6808826606721,-37.85722106695175,0 175.6808499712497,-37.85721042193472,0 175.6808388233185,-37.85715845413506,0 175.6807813234627,-37.85705711692572,0 175.6807153578848,-37.8570629004389,0 175.680700102821,-37.85703440196812,0 175.6805201433599,-37.85691345110536,0 175.6805550958961,-37.85691688768566,0 175.6805641483516,-37.85694387741387,0 175.6805501505733,-37.85697815939784,0 175.6804514117539,-37.85701671615243,0 175.6804412696511,-37.85704898647964,0 175.6804048083723,-37.85706348717213,0 175.68040413782,-37.85704789683223,0 175.6804255116731,-37.85707170143723,0 175.6803198996931,-37.85707597620785,0 175.680266590789,-37.85709642805159,0 175.6802558619529,-37.85708226263523,0 175.6802225019783,-37.85708603449166,0 175.6802173051983,-37.85711478441954,0 175.6801810953766,-37.85711847245693,0 175.6801827717572,-37.85714378580451,0 175.6801777426153,-37.85712618380785,0 175.6801547762007,-37.85714378580451,0 175.6801738031209,-37.85714864730835,0 175.6801950931549,-37.85712936893106,0 175.6801391858608,-37.85716080106795,0 175.6800986174494,-37.85716247744858,0 175.6801178958267,-37.85717261955142,0 175.680076489225,-37.85714923404157,0 175.6801019702107,-37.85716080106795,0 175.6800877209753,-37.8571683447808,0 175.6801288761199,-37.8571770619601,0 175.6801434606314,-37.85715208388865,0 175.6802374217659,-37.85711855627596,0 175.6800877209753,-37.85717152990401,0 175.6800616532564,-37.85731083713472,0 175.6800801772624,-37.85734562203288,0 175.6800171453506,-37.8573861066252,0 175.6800127029419,-37.85740446299314,0 175.6800300534815,-37.8574188798666,0 175.6799656804651,-37.85742013715208,0 175.6799797620624,-37.85741167142987,0 175.6799705419689,-37.8573945723474,0 175.6799802649766,-37.85742499865592,0 175.6799655966461,-37.85744469612837,0 175.6799828633666,-37.85743061453104,0 175.6799749005586,-37.85741963423789,0 175.6799697875977,-37.85746774636209,0 175.6799505092204,-37.85747386515141,0 175.6799593940377,-37.85749389789999,0 175.6799214240164,-37.85749993287027,0 175.6799089349806,-37.8575378190726,0 175.6798920035362,-37.85751359537244,0 175.6799183227122,-37.85756137222052,0 175.679904576391,-37.85756631754339,0 175.6799162272364,-37.85756514407694,0 175.6798964459449,-37.85754846408963,0 175.6799048278481,-37.85756690427661,0 175.6799194123596,-37.85754108801484,0 175.6799376849085,-37.85756933502853,0 175.6799381040037,-37.85755500197411,0 175.6799513474107,-37.85761199891567,0 175.6799831148237,-37.85762465558946,0 175.6799764093012,-37.85764301195741,0 175.6799582205713,-37.85767855122685,0 175.6798789277673,-37.85770897753537,0 175.6799242738634,-37.85766522400081,0 175.6799273751676,-37.85760160535574,0 175.679904744029,-37.85758526064456,0 175.6799305602908,-37.8576173633337,0 175.6799354217947,-37.8576778806746,0 175.6797732319683,-37.85776228643954,0 175.6797635089606,-37.85783763974905,0 175.6797842960805,-37.85786169581115,0 175.6801505852491,-37.85785867832601,0 175.6801784969866,-37.85779899917543,0 175.680168857798,-37.85776161588728,0 175.6800987850875,-37.85764611326158,0 175.6801058258861,-37.85761618986726,0 175.6800934206694,-37.85762524232268,0 175.6800771597773,-37.85760277882218,0 175.6801304686815,-37.85762272775173,0 175.6800987012684,-37.85762012936175,0 175.6801126990467,-37.85755156539381,0 175.6802325602621,-37.85752080380917,0 175.6803245097399,-37.85753312520683,0 175.6803561095148,-37.85756330005825,0 175.680374968797,-37.85766354762018,0 175.6803626473993,-37.85767226479948,0 175.6803672574461,-37.85774216987193,0 175.6803917326033,-37.85775868222117,0 175.6803136132658,-37.85780754871666,0 175.6803213246167,-37.85783939994872,0 175.6803468894213,-37.8577970713377,0 175.6803732085973,-37.85780134610832,0 175.6803472246975,-37.85780377686024,0 175.6803416088223,-37.85783076658845,0 175.6802794989198,-37.85786588676274,0 175.6802240945399,-37.85786068998277,0 175.6801904831082,-37.85787711851299,0 175.680200625211,-37.85789899528027,0 175.6801866274327,-37.85790645517409,0 175.680208588019,-37.85791684873402,0 175.6802308838814,-37.85789740271866,0 175.6802650820464,-37.85790586844087,0 175.680285114795,-37.85789388231933,0 175.6802591308951,-37.85792187787592,0 175.6803017947823,-37.85790704190731,0 175.6802767328918,-37.85790000110865,0 175.6802856177092,-37.85789237357676,0 175.6802822649479,-37.85790729336441,0 175.6802612263709,-37.85789463669062,0 175.6802969332784,-37.85792833194137,0 175.6803253479302,-37.85792548209429,0 175.6802962627262,-37.85792632028461,0 175.6802828516811,-37.8579540643841,0 175.6803473085165,-37.85812539048493,0 175.6802660878748,-37.8580354526639,0 175.6803624797612,-37.8581667970866,0 175.680340686813,-37.85813754424453,0 175.680340602994,-37.85815925337374,0 175.6803633179516,-37.85815497860312,0 175.6803446263075,-37.8581715747714,0 175.680369772017,-37.85816411487758,0 175.6803465541452,-37.85813930444419,0 175.6803321372718,-37.85815204493701,0 175.6803679279983,-37.85817450843751,0 175.6803587079048,-37.85815606825054,0 175.6803649105132,-37.85816830582917,0 175.6802659202367,-37.85819160751998,0 175.6802199035883,-37.85818196833134,0 175.6801514234394,-37.85814005881548,0 175.6800811830908,-37.85813511349261,0 175.6799979507923,-37.85820141434669,0 175.6799123715609,-37.85830828361213,0 175.6797885708511,-37.85852948203683,0 175.6797643471509,-37.85854096524417,0 175.6796962860972,-37.85865638405085,0 175.6797085236758,-37.85867826081812,0 175.6796791870147,-37.85872913897038,0 175.6796795222908,-37.8587622474879,0 175.6797032430768,-37.85882980562747,0 175.6796433962882,-37.85884388722479,0 175.679619172588,-37.85893055610359,0 175.679658902809,-37.85894572734833,0 175.6798244453967,-37.85914395935833,0 175.6798845436424,-37.85929223522544,0 175.6800066679716,-37.85937605425715,0 175.6804033834487,-37.85952877253294,0 175.6805483065546,-37.85952709615231,0 175.6806654017419,-37.85955886356533,0 175.680782077834,-37.85961292684078,0 175.6808369792998,-37.85960471257567,0 175.6809184513986,-37.8596621286124,0 175.6809446867555,-37.8596481308341,0 175.6809727661312,-37.85959884524345,0 175.6809753645211,-37.85957453772426,0 175.6809387356043,-37.85955090075731,0 175.6809756997973,-37.85959507338703,0 175.6810183636844,-37.85959691740572,0 175.6810342893004,-37.85953145474195,0 175.6810535676777,-37.85952407866716,0 175.6810287572443,-37.85952726379037,0 175.6810974050313,-37.85951552912593,0 175.6810976564884,-37.85955601371825,0 175.6810777075589,-37.85953329876065,0 175.6811197008938,-37.85963136702776,0 175.6811715848744,-37.85970303229988,0 175.681157335639,-37.8598571754992,0 175.6811435054988,-37.85982674919069,0 175.6815012451261,-37.85973731428385,0 175.6811713334173,-37.8596861846745,0 175.6811067089438,-37.85964821465313,0 175.6810976564884,-37.85962181165814,0 175.6811168510467,-37.8596153575927,0 175.6811551563442,-37.85965349525213,0 175.6810944713652,-37.85957034677267,0 175.6810857541859,-37.85967545583844,0 175.6809215527028,-37.85966623574495,0 175.6809175293893,-37.85968693904579,0 175.6809913739562,-37.85960328765213,0 175.6811236403883,-37.85957445390522,0 175.6811373867095,-37.85954008810222,0 175.6810927111655,-37.85952743142843,0 175.6812139134854,-37.85948837175965,0 175.6811450980604,-37.85952215082943,0 175.6811087206006,-37.8595585282892,0 175.6810657214373,-37.85956481471658,0 175.6811979040504,-37.85950387828052,0 175.6812637858093,-37.85949683748186,0 175.681252386421,-37.85949474200606,0 175.6812606845051,-37.85948024131358,0 175.6813186872751,-37.8594464622438,0 175.6813207827508,-37.85942483693361,0 175.6813525501639,-37.85941544920206,0 175.6813614349812,-37.85939139313996,0 175.6813440844417,-37.8593859449029,0 175.681331763044,-37.85949147306383,0 175.6813833955675,-37.85953673534095,0 175.6813906878233,-37.85958644002676,0 175.6814978085458,-37.85958208143711,0 175.6816585734487,-37.85962156020105,0 175.6815546378493,-37.85960521548986,0 175.6813373789191,-37.85960362292826,0 175.6813199445605,-37.85958811640739,0 175.681337127462,-37.85955618135631,0 175.6813060306013,-37.85950404591858,0 175.6813117302954,-37.85948149859905,0 175.6813559867442,-37.85941670648754,0 175.6814007461071,-37.85940698347986,0 175.6814636941999,-37.85935468040407,0 175.6815260555595,-37.8592577856034,0 175.681540640071,-37.85927044227719,0 175.6814403086901,-37.85933707840741,0 175.6813744269311,-37.8594221547246,0 175.6812756042928,-37.85948158241808,0 175.6811826489866,-37.85949205979705,0 175.6810843292624,-37.85957470536232,0 175.6809582654387,-37.85964704118669,0 175.6808907911181,-37.85964402370155,0 175.6809181161225,-37.85965592600405,0 175.6805448699743,-37.85952592268586,0 175.6809233129025,-37.85964578390121,0 175.6810104008764,-37.85962441004813,0 175.6809229776263,-37.85963664762676,0 175.6808064691722,-37.85959557630122,0 175.6808203831315,-37.85962130874395,0 175.6808394100517,-37.85960798151791,0 175.6808563414961,-37.85964234732091,0 175.6808952335268,-37.85966045223176,0 175.6809585168958,-37.85964947193861,0 175.6810220517218,-37.85957487300038,0 175.6811022665352,-37.85954562015831,0 175.6811319384724,-37.85950563848019,0 175.6812424957752,-37.85944185219705,0 175.6811787094921,-37.85946297459304,0 175.6812269054353,-37.85947076976299,0 175.6812172662467,-37.8594633936882,0 175.6812455970794,-37.85942617803812,0 175.6811725907028,-37.85940455272794,0 175.681181224063,-37.85942391492426,0 175.6812288332731,-37.85942936316133,0 175.6812396459281,-37.8594618011266,0 175.6812594272196,-37.85946833901107,0 175.6812756881118,-37.85945392213762,0 175.6812073756009,-37.859420562163,0 175.6812613550574,-37.8594340570271,0 175.6812695693225,-37.85945023410022,0 175.6812402326614,-37.85945283249021,0 175.6812532246113,-37.85946138203144,0 175.6812362093478,-37.85945082083344,0 175.681292200461,-37.85950002260506,0 175.6813521310687,-37.85947127267718,0 175.6813277397305,-37.85942466929555,0 175.6813732534647,-37.85939633846283,0 175.681424299255,-37.85940790548921,0 175.6814046017826,-37.85940052941442,0 175.6814289093018,-37.85943506285548,0 175.6813823059201,-37.85947663709521,0 175.6813733372837,-37.85942098125815,0 175.6813942920417,-37.85942433401942,0 175.6814026739448,-37.859410000965,0 175.6813975609839,-37.8594274353236,0 175.6814077869058,-37.85942659713328,0 175.6814072001725,-37.85937236621976,0 175.6814650353044,-37.85930187441409,0 175.6815819628537,-37.85921520553529,0 175.6816603336483,-37.8591908980161,0 175.6819197535515,-37.85905678756535,0 175.6819409597665,-37.85902845673263,0 175.6819412112236,-37.85900339484215,0 175.6819060072303,-37.85895880311728,0 175.6818870641291,-37.85894983448088,0 175.6818397063762,-37.85896517336369,0 175.6818305701017,-37.85893625579774,0 175.681781033054,-37.85889937542379,0 175.681648850441,-37.8588695358485,0 175.6816167477518,-37.8588727209717,0 175.6815989781171,-37.85889535211027,0 175.6815677136183,-37.85883902572095,0 175.681434776634,-37.85874112509191,0 175.681450786069,-37.8587262891233,0 175.6813592556864,-37.85861187614501,0 175.6813375465572,-37.85853518173099,0 175.6813040189445,-37.85850718617439,0 175.6812586728483,-37.85850458778441,0 175.6812885124236,-37.85849964246154,0 175.681284153834,-37.85848639905453,0 175.681276191026,-37.85849511623383,0 175.6812998279929,-37.85849385894835,0 175.6813232973218,-37.85833602771163,0 175.6812906078994,-37.85820862278342,0 175.6812581699342,-37.85814508795738,0 175.681276274845,-37.85814559087157,0 175.6812825612724,-37.85812932997942,0 175.68124987185,-37.85801122896373,0 175.6812557391822,-37.85795180127025,0 175.6813315115869,-37.85787225700915,0 175.6813232973218,-37.85781785845757,0 175.6813560705632,-37.8577830735594,0 175.6814077030867,-37.85777779296041,0 175.6813675537705,-37.85765483044088,0 175.6814566534013,-37.85761384293437,0 175.6815004907548,-37.85754578188062,0 175.6817030813545,-37.85736288875341,0 175.6816527061164,-37.85720581188798,0 175.6816791091114,-37.85716750659049,0 
		</coordinates>
	</LineString>
	<atom:link rel="app" href="https://www.google.com/earth/about/versions/#earth-pro" title="Google Earth Pro 7.3.7.1155"></atom:link>
</Placemark>
</kml>
