<?xml version="1.0" encoding="UTF-8"?>
<kml xmlns="http://www.opengis.net/kml/2.2" xmlns:gx="http://www.google.com/kml/ext/2.2" xmlns:kml="http://www.opengis.net/kml/2.2" xmlns:atom="http://www.w3.org/2005/Atom">
<Placemark>
	<name>Track</name>
	<Style>
		<LineStyle>
			<color>ff0000ff</color>
			<width>3</width>
		</LineStyle>
	</Style>
	<LineString>
		<tessellate>1</tessellate>
		<coordinates>
			175.5809987057,-39.14435123093426,0 175.5815273523331,-39.14475850760937,0 175.581714855507,-39.14541606791317,0 175.5820839107037,-39.14597212336957,0 175.5836536735296,-39.14639633148909,0 175.5840947292745,-39.14667804725468,0 175.5844740942121,-39.14661199785769,0 175.5848140642047,-39.14607413113117,0 175.5854313075542,-39.14600623771548,0 175.5872263759375,-39.14643405005336,0 175.5899651627988,-39.14669824764132,0 175.5921174678952,-39.14739109575748,0 175.5941909831017,-39.14677184075117,0 175.5947099905461,-39.14666312746704,0 175.5953129008412,-39.14670017547905,0 175.5958413798362,-39.14634302258492,0 175.5969329550862,-39.14586139842868,0 175.5978315789253,-39.14566836319864,0 175.5981381889433,-39.14535814896226,0 175.5989194661379,-39.14489446207881,0 175.5996890086681,-39.14411930367351,0 175.6000982131809,-39.14405794814229,0 175.600481601432,-39.14362837560475,0 175.6010456196964,-39.14342704229057,0 175.6017738394439,-39.14336434565485,0 175.6022981274873,-39.14312805980444,0 175.6028572842479,-39.14316636510193,0 175.6031820829958,-39.14306511171162,0 175.6035830732435,-39.14259136654437,0 175.6034996733069,-39.14245331659913,0 175.6037009228021,-39.14226564578712,0 175.6064849719405,-39.14209649898112,0 175.6081412360072,-39.14175636135042,0 175.6083457544446,-39.14153323508799,0 175.6093659996986,-39.14128571748734,0 175.6099606119096,-39.14137565530837,0 175.6111634988338,-39.14127733558416,0 175.6118039600551,-39.14113333448768,0 175.612274184823,-39.14088087156415,0 175.613540103659,-39.14064508862793,0 175.6153062544763,-39.14061323739588,0 175.6157146207988,-39.14051298983395,0 175.6173387821764,-39.13962358608842,0 175.6188517995179,-39.13932762108743,0 175.6196700409055,-39.13940741680562,0 175.620194748044,-39.13929719477892,0 175.6210652925074,-39.13946223445237,0 175.6214920990169,-39.13940615952015,0 175.6216780934483,-39.13953406736255,0 175.6221442949027,-39.1395883820951,0 175.6224215682596,-39.13950053974986,0 175.6230059545487,-39.13970304653049,0 175.6249962374568,-39.14002893492579,0 175.6254512071609,-39.14054878056049,0 175.6259449850768,-39.14090358652174,0 175.625969292596,-39.14209348149598,0 175.6262657605112,-39.14222281426191,0 175.6261302251369,-39.14274676702917,0 175.6258222740144,-39.14310668595135,0 175.62535087578,-39.14309796877205,0 175.6249539088458,-39.14327440783381,0 175.6245835125446,-39.14328882470727,0 175.6245931517333,-39.14342092350125,0 175.6243887171149,-39.14351664483547,0 175.6244057323784,-39.14367598481476,0 175.6241200771183,-39.14377790875733,0 175.6237778440118,-39.14433287456632,0 175.6238877307624,-39.14484207518399,0 175.6243114359677,-39.14512035436928,0 175.6243541836739,-39.14569795131683,0 175.624568592757,-39.14580381475389,0 175.6247815769166,-39.14565486833453,0 175.6249991711229,-39.14572502486408,0 175.6250526476651,-39.14562553167343,0 175.6253935396671,-39.14557993412018,0 175.6256782729179,-39.14564849808812,0 175.6262455601245,-39.14551874622703,0 175.6265570316464,-39.14527567103505,0 175.6267019547522,-39.14531255140901,0 175.6269255839288,-39.14518313482404,0 175.6283522676677,-39.14553257636726,0 175.6288400106132,-39.14522839710116,0 175.6293300166726,-39.14560960605741,0 175.6300723180175,-39.14581269957125,0 175.630300976336,-39.14569417946041,0 175.6312425993383,-39.1456843726337,0 175.6315334513783,-39.14549150504172,0 175.6315269134939,-39.14534448646009,0 175.6317601818591,-39.14532252587378,0 175.6317983195186,-39.14504122920334,0 175.6323608290404,-39.14484056644142,0 175.6323056761175,-39.14471592754126,0 175.6324763316661,-39.1444961540401,0 175.6328605581075,-39.14442608132958,0 175.6329955067486,-39.14429163560271,0 175.6330262683332,-39.1443597804755,0 175.6332463771105,-39.1441729478538,0 175.6334097404033,-39.14364773780107,0 175.6335746124387,-39.14367858320475,0 175.6335797253996,-39.14380892179906,0 175.6338945496827,-39.14367338642478,0 175.634048525244,-39.14358562789857,0 175.6340913567692,-39.1433750744909,0 175.6346210930496,-39.14299939759076,0 175.6354125961661,-39.14292044006288,0 175.6367940176278,-39.14249028079212,0 175.6379844993353,-39.14224309846759,0 175.6407951191068,-39.14208317175508,0 175.6414122786373,-39.14214025251567,0 175.6422342918813,-39.14207051508129,0 175.6423263251781,-39.14198040962219,0 175.6427809596062,-39.14203874766827,0 175.6437247619033,-39.14254543371499,0 175.6440219841897,-39.14257016032934,0 175.6440840940922,-39.14269647561014,0 175.6453743204474,-39.14171822369099,0 175.6458168011159,-39.1416931618005,0 175.6461628060788,-39.14142091758549,0 175.6463028676808,-39.14144648239017,0 175.6465079728514,-39.14078305475414,0 175.6468831468374,-39.14078238420188,0 175.6467795465142,-39.14084843359888,0 175.6467036064714,-39.14059362374246,0 175.6467857491225,-39.14020168595016,0 175.6467049475759,-39.14009372703731,0 175.6469082925469,-39.13999507203698,0 175.6468671374023,-39.13958829827607,0 175.647133179009,-39.13920499384403,0 175.6471813749522,-39.13850829005241,0 175.6472649425268,-39.13858959451318,0 175.6472853943706,-39.13821944966912,0 175.6474341731519,-39.13821123540401,0 175.6475136335939,-39.13777973502874,0 175.6477023102343,-39.13764847442508,0 175.6478419527411,-39.13704346865416,0 175.6490296684206,-39.13651322945952,0 175.6490935385227,-39.13659629411995,0 175.6490226276219,-39.13647014647722,0 175.6491465959698,-39.1365229524672,0 175.6501108501107,-39.1357028670609,0 175.6503593735397,-39.13561661727726,0 175.6503702700138,-39.13568769581616,0 175.6506531592458,-39.13534990511835,0 175.650965468958,-39.13528142496943,0 175.6513152457774,-39.13503860123456,0 175.6515533756465,-39.13512258790433,0 175.6520841177553,-39.13498344831169,0 175.6525155343115,-39.13450987078249,0 175.6533978134394,-39.13422916084528,0 175.6536333449185,-39.1340241394937,0 175.6546808313578,-39.1341937892139,0 175.6548581924289,-39.13441205397248,0 175.6550824083388,-39.13446133956313,0 175.655067069456,-39.13471120409667,0 175.6553238909692,-39.1345249582082,0 175.6555938720703,-39.13469913415611,0 175.6557982228696,-39.13453719578683,0 175.6558221112937,-39.13436989299953,0 175.6559724826366,-39.1344232019037,0 175.6570740323514,-39.13385197520256,0 175.6572894472629,-39.13386857137084,0 175.657926639542,-39.13358928635716,0 175.6578740011901,-39.13340262137353,0 175.6572293490171,-39.13306692615151,0 175.6569219846278,-39.13220384158194,0 175.6573485396802,-39.13160126656294,0 175.6579601671547,-39.13115912117064,0 175.6586524285376,-39.13041698746383,0 175.659906109795,-39.12937989458442,0 175.6602137256414,-39.1292807366699,0 175.6603374425322,-39.1288245934993,0 175.6605898216367,-39.12845788523555,0 175.6605811882764,-39.12800123915076,0 175.6605049129575,-39.12782739847898,0 175.6601104605943,-39.12759186699986,0 175.6601510290056,-39.12708501331508,0 175.6597100570798,-39.12737972103059,0 175.65977669321,-39.12716262973845,0 175.6596852466464,-39.1270303633064,0 175.6585417035967,-39.12649769335985,0 175.6576419901103,-39.12581062875688,0 175.6573640462011,-39.12532120943069,0 175.657078390941,-39.12512658163905,0 175.6571459490806,-39.12486657500267,0 175.6569888722152,-39.12483103573322,0 175.6568183843046,-39.12439911626279,0 175.6565564498305,-39.12434102967381,0 175.6563056632876,-39.12409141659737,0 175.6558935251087,-39.12391271442175,0 175.6550736911595,-39.12257538177073,0 175.6552185304463,-39.1217565536499,0 175.6551347952336,-39.12155245430768,0 175.6554816383868,-39.12068383768201,0 175.6550771277398,-39.12048527039587,0 175.6551688257605,-39.11997254937887,0 175.655048713088,-39.11934734322131,0 175.6552571710199,-39.11821561865509,0 175.6552032753825,-39.11797614768147,0 175.6549182068557,-39.1178297996521,0 175.6551475357264,-39.11730190739036,0 175.6547788158059,-39.11711499094963,0 175.6547170411795,-39.11668072454631,0 175.6544365826994,-39.11626774817705,0 175.6545266043395,-39.11557632498443,0 175.654229465872,-39.11482455208898,0 175.6539578922093,-39.11469320766628,0 175.6540796812624,-39.1142553370446,0 175.6543303001672,-39.11391788162291,0 175.6541965249926,-39.11273125559092,0 175.6524179689586,-39.11194092594087,0 175.6530502997339,-39.112009992823,0 175.653362609446,-39.11187906749547,0 175.6538128014654,-39.11199708469212,0 175.6541663501412,-39.11173422820866,0 175.6549700070173,-39.11162693984807,0 175.6542870495468,-39.11141043528914,0 175.6537765916437,-39.11155879497528,0 175.6534200254828,-39.1112158074975,0 175.6530388165265,-39.11130859516561,0 175.6527887005359,-39.11100156605244,0 175.6519583892077,-39.11079193465412,0 175.6528010219336,-39.11062270402908,0 175.6533298362046,-39.11077123135328,0 175.6535122264177,-39.11048515699804,0 175.6538815330714,-39.11069604568183,0 175.6549122557044,-39.10981829278171,0 175.6552637927234,-39.10973866470158,0 175.6554746814072,-39.10983111709356,0 175.6557505298406,-39.10966037772596,0 175.655997376889,-39.10967060364783,0 175.655825547874,-39.10954001359642,0 175.6555742584169,-39.10955350846052,0 175.6553489528596,-39.10923558287323,0 175.654792394489,-39.10931076854467,0 175.6540048308671,-39.10967940464616,0 175.6537317484617,-39.1093869600445,0 175.6536445766687,-39.10881732590497,0 175.6533288303763,-39.10903802141547,0 175.6532190274447,-39.1089849639684,0 175.6530499644578,-39.10812246613204,0 175.6528221443295,-39.10805641673505,0 175.6532599311322,-39.10794820636511,0 175.6534347776324,-39.10720909014344,0 175.6530208792537,-39.10625497810543,0 175.6530979927629,-39.10597393289208,0 175.6529363058507,-39.10511168651283,0 175.6532150879502,-39.10481940954924,0 175.6529782153666,-39.10454942844808,0 175.6535555608571,-39.10431582480669,0 175.6540498416871,-39.10431473515928,0 175.6540712155402,-39.10419546067715,0 175.6536599155515,-39.10388767719269,0 175.6539246160537,-39.10390368662775,0 175.6541267875582,-39.10368768498302,0 175.6539392843843,-39.10366924479604,0 175.6534118112177,-39.10311436280608,0 175.6528623774648,-39.10282074473798,0 175.651848251,-39.10309156402946,0 175.6507986690849,-39.10394459031522,0 175.6503974273801,-39.10381224006414,0 175.6503656599671,-39.10321938805282,0 175.6505749560893,-39.10259753465652,0 175.6505279336125,-39.10235253162682,0 175.6509692408144,-39.10147125832736,0 175.6507330387831,-39.10133144818246,0 175.6501236744225,-39.10126632079482,0 175.6498003844172,-39.10134150646627,0 175.6491123139858,-39.10122374072671,0 175.6488164328039,-39.10101788118482,0 175.6486276723444,-39.10069626756012,0 175.6485565099865,-39.09986319020391,0 175.6482566893101,-39.09974726848304,0 175.6479612272233,-39.09904863685369,0 175.6479518394917,-39.09886825829744,0 175.6483982596546,-39.09892131574452,0 175.6484684161842,-39.09875191748142,0 175.6479880493134,-39.09824749454856,0 175.6484656501561,-39.09825805574656,0 175.6489617750049,-39.09845410846174,0 175.6492115557194,-39.0981453191489,0 175.6495111249387,-39.09799763001502,0 175.6494303233922,-39.09775011241436,0 175.649699382484,-39.09742464311421,0 175.6497374363244,-39.0962128713727,0 175.6494789384305,-39.09545229747891,0 175.6494758371264,-39.0950301848352,0 175.648882901296,-39.09443859010935,0 175.6490343622863,-39.09410825930536,0 175.6489435024559,-39.09375110641122,0 175.6490750983357,-39.0928955655545,0 175.6498222611845,-39.09184455871582,0 175.6506633013487,-39.09103712998331,0 175.6510670576245,-39.09043145366013,0 175.6513465102762,-39.08967121504247,0 175.6513073667884,-39.08935052342713,0 175.6507463660091,-39.08821988850832,0 175.6513149943203,-39.08722738735378,0 175.6520237680525,-39.08679630607367,0 175.6522031407803,-39.08680175431073,0 175.651919580996,-39.08642943017185,0 175.6509486213326,-39.08603422343731,0 175.6500813458115,-39.08582802861929,0 175.6501056533307,-39.08573348075151,0 175.6517510209233,-39.08558344468474,0 175.6524705234915,-39.08572065643966,0 175.6539935152978,-39.08547749742866,0 175.6536838039756,-39.08506896346807,0 175.6532565783709,-39.08498900011182,0 175.6521311402321,-39.08442112617195,0 175.6517454050481,-39.08398870378733,0 175.6517566367984,-39.08361369743943,0 175.6519800983369,-39.08339283429086,0 175.6524306256324,-39.08344882540405,0 175.6525137741119,-39.08358503133059,0 175.6530259922147,-39.08289293758571,0 175.6534618511796,-39.08289955928922,0 175.6538713071495,-39.08268942497671,0 175.6541561242193,-39.0823738463223,0 175.6542820204049,-39.08185726962984,0 175.654533309862,-39.08187562599778,0 175.6547697633505,-39.08215885050595,0 175.6560640968382,-39.08204820938408,0 175.6561772525311,-39.08195902593434,0 175.6561884842813,-39.08175165764987,0 175.6559755001217,-39.08143104985356,0 175.6565510854125,-39.08085705712438,0 175.6561660207808,-39.08006723038852,0 175.656182365492,-39.07934898510575,0 175.6563017237931,-39.07921629957855,0 175.6560606602579,-39.07866267487407,0 175.655979020521,-39.07814207486808,0 175.6560367718339,-39.07791475765407,0 175.6565360818058,-39.07767964527011,0 175.6565462239087,-39.07746565528214,0 175.6562953535467,-39.07731561921537,0 175.6566155422479,-39.07742357812822,0 175.6565135344863,-39.07696592621505,0 175.6567687634379,-39.07641112804413,0 175.6573427561671,-39.07613519579172,0 175.6579909287393,-39.07617023214698,0 175.6587023846805,-39.07602195627987,0 175.659311581403,-39.07568332739174,0 175.6600184272975,-39.07547906041145,0 175.6601887475699,-39.07523925416172,0 175.6609864532948,-39.07507371157408,0 175.661454917863,-39.07485092058778,0 175.6631074938923,-39.07480121590197,0 175.6636998429894,-39.07404994592071,0 175.6638258229941,-39.07409847714007,0 175.663725156337,-39.07405405305326,0 175.6637670658529,-39.07386370003223,0 
		</coordinates>
	</LineString>
	<atom:link rel="app" href="https://www.google.com/earth/about/versions/#earth-pro" title="Google Earth Pro 7.3.7.1155"></atom:link>
</Placemark>
</kml>
