<?xml version="1.0" encoding="UTF-8"?>
<kml
  xsi:schemaLocation="http://earth.google.com/kml/2.1 http://earth.google.com/kml2.1.xsd"
  xmlns:xsi="http://www.w3.org/2001/XMLSchema-instance" xmlns="http://earth.google.com/kml/2.1">
  <Folder>
    <name>Waischenfeld Rudern</name>
    <Placemark>
      <name>Track</name>
      <Style>
        <LineStyle>
          <color>FF0000FF</color>
          <width>3.0</width>
        </LineStyle>
      </Style>
      <LineString>
        <extrude>false</extrude>
        <tessellate>true</tessellate>
        <altitudeMode>clampToGround</altitudeMode>
        <coordinates>11.343997763469815,49.83557777479291 11.343552265316248,49.83560459688306 11.343162590637803,49.83556176535785 11.342772161588073,49.835460344329476 11.342695215716958,49.83541851863265 11.342530427500606,49.83539077453315 11.342324316501617,49.8353245574981 11.341844368726015,49.83520939014852 11.341707156971097,49.83515465632081 11.341245397925377,49.83504552394152 11.340763522312045,49.83487411402166 11.340554393827915,49.83484419062734 11.340021137148142,49.83482918702066 11.339900773018599,49.83479800634086 11.33976305834949,49.83471502549946 11.33969851769507,49.83465199358761 11.339645544067025,49.83451494947076 11.339567173272371,49.834436075761914 11.339427027851343,49.83436684124172 11.339313453063369,49.83433683402836 11.339193591848016,49.83433130197227 11.338968956843019,49.83418721705675 11.338915983214974,49.8341241851449 11.338739544153214,49.83400784432888 11.338665951043367,49.833873733878136 11.338571235537529,49.83376367948949 11.33841005153954,49.83365127816796 11.337622571736574,49.83343401923776 11.337487120181322,49.83341264538467 11.337175061926246,49.83339076861739 11.336763594299555,49.83345514163375 11.336692348122597,49.833457907661796 11.336607355624437,49.83343670144677 11.336367381736636,49.833347434177995 11.336190020665526,49.833307871595025 11.335965553298593,49.833156410604715 11.335856588557363,49.8330226354301 11.335703954100609,49.832905204966664 11.335406312718987,49.83278475701809 11.33530623279512,49.832776291295886 11.335078496485949,49.83271585777402 11.33475168608129,49.832711247727275 11.334081636741757,49.832606641575694 11.333844093605876,49.832624327391386 11.333723897114396,49.83262239955366 11.333601772785187,49.832599516958 11.333448132500052,49.832526091486216 11.333149736747146,49.83228402212262 11.332956114783883,49.83216281980276 11.33278688415885,49.83208939433098 11.332632740959525,49.83207640238106 11.332593513652682,49.83203365467489 11.332535175606608,49.831895185634494 11.332413051277399,49.83174464665353 11.332372399047017,49.831667030230165 11.332251951098442,49.83130996115506 11.33222009986639,49.831175934523344 11.332196211442351,49.83094073832035 11.332135610282421,49.83082481659949 11.332125719636679,49.83074200339615 11.332047265022993,49.830567156895995 11.332028489559889,49.8304582759738 11.331810476258397,49.82998461462557 11.331728417426348,49.82991127297282 11.331527838483453,49.82967456802726 11.331351567059755,49.8295240290463 11.33105174638331,49.82922605238855 11.330910846590996,49.82912949286401 11.330687468871474,49.82903125695884 11.32996796630323,49.828817350789905 11.329757496714592,49.82874090783298 11.329491790384054,49.82869832776487 11.32921946235001,49.82855457812548 11.328790141269565,49.828074714168906 11.32877522148192,49.82801268808544 11.328775053843856,49.827829794958234 11.328754015266895,49.827724769711494 11.328513622283936,49.8270408064127 11.328376410529017,49.82679806649685 11.328277755528688,49.82669463381171 11.328197959810495,49.82654954306781 11.327912053093314,49.82624335214496 11.327408887445927,49.82594269327819 11.327150892466307,49.82571043074131 11.327065397053957,49.825600208714604 11.32692625746131,49.82548110187054 11.326734060421586,49.8248699773103 11.32666583172977,49.82424317859113 11.326664322987199,49.82402273453772 11.326634315773845,49.82381762936711 11.326550748199224,49.82356374152005 11.326483776792884,49.82347061857581 11.326428037136793,49.82343206182122 11.32645427249372,49.8233934212476 11.326428037136793,49.8233606480062 11.32637606933713,49.823348158970475 11.326213544234633,49.82321019284427 11.326131401583552,49.82318387366831 11.326136849820614,49.82317264191806 11.326106591150165,49.82316727750003 11.32609368301928,49.823195692151785 11.326109943911433,49.82318228110671 11.326107010245323,49.82321245595813 11.326089324429631,49.82322662137449 11.325637623667717,49.82294297777116 11.325562689453363,49.822910372167826 11.325292373076081,49.82286075130105 11.325197909027338,49.82280107215047 11.324894735589623,49.82265782542527 11.32477487437427,49.822551626712084 11.324723409488797,49.82247015461326 11.324697341769934,49.822368985041976 11.324738748371601,49.82209749519825 11.32480219937861,49.821869004517794 11.324921725317836,49.821686865761876 11.325045442208648,49.82155661098659 11.325039574876428,49.8214680980891 11.325071593746543,49.821460051462054 11.325099086388946,49.82143012806773 11.325178882107139,49.821291072294116 11.32511056959629,49.82114799320698 11.325036054477096,49.82106828130782 11.324963718652725,49.82106249779463 11.324689630419016,49.82094473205507 11.324607152491808,49.82092981226742 11.324346056208014,49.82082956470549 11.324110943824053,49.82077877037227 11.323984041810036,49.82071322388947 11.323883961886168,49.82071666046977 11.323811626061797,49.82068011537194 11.323740798979998,49.82067517004907 11.323678605258465,49.82059923000634 11.323511302471161,49.82055430300534 11.323465621098876,49.82051683589816 11.323454473167658,49.82046654447913 11.323436368256807,49.82047098688781 11.323300413787365,49.82040200382471 11.322962371632457,49.820326901972294 11.322886850684881,49.820295134559274 11.322817783802748,49.82023981399834 11.322731198742986,49.820130597800016 11.322530452162027,49.82006320729852 11.32250564172864,49.82003596611321 11.322332136332989,49.820036720484495 11.322200875729322,49.81999430805445 11.321920836344361,49.81986355036497 11.321551278233528,49.81976472772658 11.321260510012507,49.81972365640104 11.320853317156434,49.81962558813393 11.320743011310697,49.81964050792158 11.320430198684335,49.81977461837232 11.320332130417228,49.8197893705219 11.320070028305054,49.819787442684174 11.31990666501224,49.81974477879703 11.319806249812245,49.819754334166646 11.319651771336794,49.81973840855062 11.319216247648,49.81957579962909 11.319077024236321,49.81954101473093 11.318941069766879,49.819543194025755 11.318657007068396,49.81960597448051 11.318287113681436,49.81964511796832 11.317526372149587,49.819845110177994 11.317342640832067,49.81984351761639 11.317170476540923,49.81993965804577 11.317073665559292,49.81996446847916 11.31698071025312,49.82003680430353 11.31653412245214,49.820129089057446 11.316476790234447,49.82012623921037 11.316180154681206,49.82019983232021 11.315965745598078,49.82031885534525 11.315802047029138,49.82038599438965 11.315593421459198,49.820520523935556 11.315472386777401,49.82056712731719 11.315302150323987,49.82060325331986 11.315117832273245,49.820610377937555 11.314564710482955,49.82056947425008 11.314188279211521,49.82060710899532 11.313949478790164,49.82056218199432 11.313680922612548,49.82047962024808 11.313511775806546,49.820408038794994 11.313197119161487,49.82021383009851 11.312767378985882,49.82008550316095 11.31234317086637,49.81998844072223 11.312195733189583,49.819882325828075 11.312165977433324,49.81982004828751 11.312162624672055,49.81956490315497 11.31212867796421,49.819498769938946 11.311892475932837,49.8192888032645 11.311682760715485,49.81899183243513 11.31155845709145,49.8188516870141 11.311356453225017,49.818665105849504 11.311186384409666,49.818430580198765 11.311162495985627,49.81832220219076 11.311179343611002,49.81815037317574 11.311299037188292,49.81771116144955 11.311300797387958,49.81756581924856 11.31127598695457,49.81747311539948 11.311233658343554,49.81742852367461 11.311163669452071,49.81738703325391 11.311137601733208,49.817416202276945 11.311199124902487,49.81731687672436 11.311213625594974,49.81733246706426 11.311246482655406,49.8173320479691 11.311249500140548,49.817363480105996 11.31120566278696,49.817415196448565 11.311131902039051,49.81742332689464 11.31112553179264,49.81740949675441 11.311139445751905,49.817416705191135 11.311121676117182,49.81742634437978 11.308508031070232,49.81657264754176 11.308417674154043,49.816565522924066 11.308015761896968,49.816461838781834 11.307667912915349,49.81640207581222 11.307422239333391,49.81640056706965 11.30719349719584,49.81635086238384 11.307087047025561,49.81634583324194 11.307015968486667,49.816318759694695 11.306697875261307,49.81630140915513 11.305981809273362,49.81618599034846 11.305270604789257,49.81594123877585 11.304862070828676,49.81577368453145 11.304613379761577,49.81571107171476 11.304095294326544,49.81554108671844 11.30337679758668,49.8151426948607 11.302849156782031,49.814766347408295 11.302692415192723,49.81467900797725 11.302309948951006,49.814419001340866 11.302202828228474,49.81428254395723 11.302174916490912,49.81420702300966 11.302164942026138,49.81409663334489 11.302099479362369,49.813936622813344 11.302034268155694,49.81383134610951 11.302003087475896,49.813653230667114 11.301946174353361,49.813532028347254 11.301938379183412,49.81341359205544 11.301837880164385,49.813064904883504 11.301779542118311,49.81274320743978 11.301701255142689,49.81254204176366 11.301563121378422,49.8123296443373 11.301072612404823,49.811982633545995 11.300921570509672,49.811840476468205 11.300740102306008,49.8117320984602 11.300509180873632,49.811734361574054 11.30012797191739,49.811550714075565 11.30003560334444,49.811553647741675 11.299886824563146,49.81150880455971 11.299802586436272,49.81150176376104 11.299733854830265,49.81147175654769 11.299592955037951,49.81147167272866 11.299488684162498,49.81140838935971 11.299414252862334,49.81138709932566 11.299368990585208,49.811409981921315 11.299278298392892,49.811373269185424 11.29917562007904,49.811371928080916 11.298877224326134,49.811297077685595 11.298817628994584,49.81129875406623 11.298681674525142,49.81122658587992 11.29860246554017,49.81130965054035 11.298512946814299,49.811289785429835 11.298518646508455,49.81129925698042 11.298509426414967,49.811272183433175 11.298478161916137,49.81125667691231 11.298526441678405,49.81128760613501 11.298558628186584,49.81128073297441 11.298564914613962,49.81128936633468 11.298501882702112,49.81130084954202 11.298651499673724,49.81140444986522 11.298716375604272,49.81152271851897 11.29863079637289,49.81151928193867 11.298641692847013,49.811383076012135 11.298551838845015,49.811384584754705 11.298532728105783,49.81141936965287 11.298534236848354,49.8114659730345 11.298491070047021,49.81149287894368 11.298560472205281,49.81135952286422 11.298650996759534,49.81134116649628 11.298524932935834,49.81133923865855 11.298509845510125,49.8113917093724 11.298452010378242,49.81132633052766 11.298399372026324,49.81129892170429 11.298555443063378,49.8112865164876 11.298599615693092,49.81130604632199 11.29851395264268,49.81132700107992 11.298549827188253,49.81133781373501 11.298483526334167,49.811330353841186 11.298479503020644,49.81136782094836 11.29850816912949,49.811390368267894 11.298504061996937,49.811428505927324 11.298492411151528,49.81135692447424 11.298470702022314,49.811358936131 11.29844019189477,49.81147192418575 11.298404149711132,49.8115058708936 11.298391912132502,49.81160486117005 11.298330388963223,49.81166906654835 11.298294179141521,49.811673425138</coordinates>
      </LineString>
    </Placemark>
  </Folder>
</kml>
