<?xml version="1.0" encoding="UTF-8"?>
<kml xmlns="http://www.opengis.net/kml/2.2" xmlns:gx="http://www.google.com/kml/ext/2.2" xmlns:kml="http://www.opengis.net/kml/2.2" xmlns:atom="http://www.w3.org/2005/Atom">
<Placemark>
	<name>Track</name>
	<Style>
		<LineStyle>
			<color>ff0000ff</color>
			<width>3</width>
		</LineStyle>
	</Style>
	<LineString>
		<tessellate>1</tessellate>
		<coordinates>
			-123.1215168535709,49.28670728579164,0 -123.1214379798621,49.28651123307645,0 -123.1215849146247,49.28658038377762,0 -123.1213808152825,49.28657359443605,0 -123.1213456112891,49.28675489500165,0 -123.1215024366975,49.28719838149846,0 -123.1213143467903,49.2873274628073,0 -123.1210394203663,49.28735545836389,0 -123.1212295219302,49.28752016276121,0 -123.1211695913225,49.28757506422698,0 -123.1211994308978,49.28773725405335,0 -123.1207598838955,49.28789877332747,0 -123.1204939261079,49.28788234479725,0 -123.1204350851476,49.28797848522663,0 -123.1201308220625,49.28808795288205,0 -123.1199812050909,49.28802785463631,0 -123.1201972067356,49.28824435919523,0 -123.1201942730695,49.28835164755583,0 -123.1197626050562,49.2884033638984,0 -123.1194797158241,49.28831887431443,0 -123.1194678135216,49.28848282434046,0 -123.1193839106709,49.28850461728871,0 -123.1196117307991,49.28871827200055,0 -123.1192020233721,49.28875062614679,0 -123.1188065651804,49.28864484652877,0 -123.1183902360499,49.28876738995314,0 -123.1178017426282,49.28850461728871,0 -123.1178759224713,49.28855675272644,0 -123.1178338453174,49.28874920122325,0 -123.117777435109,49.28866513073444,0 -123.1178713962436,49.28876294754446,0 -123.1177869904786,49.28888121619821,0 -123.1178452447057,49.28897542878985,0 -123.1173331942409,49.28914952091873,0 -123.1170587707311,49.28949452005327,0 -123.1166530866176,49.28978227078915,0 -123.1166115123779,49.2899209074676,0 -123.1170988362283,49.28945110179484,0 -123.116915691644,49.28967154584825,0 -123.1169006880373,49.28988385945559,0 -123.116754675284,49.28998628631234,0 -123.1167822517455,49.29006909951568,0 -123.1166856084019,49.29003112949431,0 -123.1165426969528,49.29022374562919,0 -123.1168531626463,49.29013322107494,0 -123.1176959630102,49.29047671146691,0 -123.1177630182356,49.29038987495005,0 -123.1176948733628,49.29036162793636,0 -123.1182105280459,49.29021008312702,0 -123.1179050914943,49.29036171175539,0 -123.1179889943451,49.29026347585022,0 -123.117774669081,49.29029725492001,0 -123.1176178436726,49.29047277197242,0 -123.1168475467712,49.29015903733671,0 -123.1165893003345,49.290223242715,0 -123.1165984366089,49.29016155190766,0 -123.1165675073862,49.29027311503887,0 -123.1166825909168,49.29019608534873,0 -123.1165628135204,49.2902042157948,0 -123.1165278609842,49.29028484970331,0 -123.11672299169,49.28993180394173,0 -123.1172235589474,49.28949007764459,0 -123.117383569479,49.28917072713375,0 -123.1171912886202,49.28907416760921,0 -123.117090286687,49.28912387229502,0 -123.1175521295518,49.28905539214611,0 -123.1186413578689,49.28950323723257,0 -123.1188188865781,49.28941464051604,0 -123.1196461804211,49.28987698629498,0 -123.1202476657927,49.28998268209398,0 -123.1205346621573,49.29019273258746,0 -123.1208275258541,49.29016322828829,0 -123.1214346271008,49.29037101566792,0 -123.1231592874974,49.29126360453665,0 -123.1235816515982,49.29117911495268,0 -123.1242161616683,49.29065817967057,0 -123.1249093450606,49.29045785218477,0 -123.1256441026926,49.29043614305556,0 -123.1260797102004,49.29065281525254,0 -123.1265574786812,49.29065281525254,0 -123.1273861136287,49.2912370339036,0 -123.1279689911753,49.29144423455,0 -123.1285092886537,49.29187389090657,0 -123.128100419417,49.29212660528719,0 -123.1277905404568,49.29220824502409,0 -123.1274182163179,49.29251208901405,0 -123.1274595391005,49.29262868128717,0 -123.1276712659746,49.29277930408716,0 -123.1285514496267,49.29304878227413,0 -123.129500951618,49.29355018772185,0 -123.1305504497141,49.29285901598632,0 -123.1307237036526,49.29283143952489,0 -123.1311136297882,49.29308574646711,0 -123.1316328048706,49.29318456910551,0 -123.1317903008312,49.29338305257261,0 -123.1320891994983,49.2935146484524,0 -123.1323230545968,49.29347324185073,0 -123.1331215146929,49.29409828037024,0 -123.1337073259056,49.2943558562547,0 -123.1339914724231,49.29467218928039,0 -123.1346517987549,49.29485038854182,0 -123.1355449743569,49.29491920396686,0 -123.1358788255602,49.29524207487702,0 -123.1356950104237,49.29546042345464,0 -123.1354111991823,49.29626961238682,0 -123.1346833147109,49.29676582105458,0 -123.1340946536511,49.29697914049029,0 -123.1333612371236,49.29704586043954,0 -123.1322453543544,49.29690185934305,0 -123.1318331323564,49.29713445715606,0 -123.1317742075771,49.29723537527025,0 -123.1318601220846,49.29723889566958,0 -123.1307640206069,49.29768338799477,0 -123.1303005851805,49.29773543961346,0 -123.1303399801254,49.29763862863183,0 -123.1298823282123,49.29755598306656,0 -123.1292432080954,49.29669457487762,0 -123.128782119602,49.29629878140986,0 -123.1282195262611,49.2960721347481,0 -123.1278119143099,49.29602921940386,0 -123.1273984350264,49.2962346598506,0 -123.1267665233463,49.29710763506591,0 -123.1258368026465,49.29764784872532,0 -123.125174799934,49.29781196638942,0 -123.1243496853858,49.29787818342447,0 -123.1225437205285,49.29765790700912,0 -123.1218647863716,49.29816802963614,0 -123.1214387342334,49.2983859591186,0 -123.1175451725721,49.29813181981444,0 -123.1175988167524,49.29805646650493,0 -123.1173487845808,49.29829526692629,0 -123.1168915517628,49.29897386580706,0 -123.1168748717755,49.29935733787715,0 -123.1165659148246,49.30012185126543,0 -123.1166630610824,49.30062090978026,0 -123.1170290987939,49.30090824142098,0 -123.1174247246236,49.30081151425838,0 -123.1176791153848,49.30065234191716,0 -123.1183622404933,49.29995731450617,0 -123.1189739517868,49.29973318241537,0 -123.1195756886154,49.29969144053757,0 -123.1209430284798,49.29981809109449,0 -123.1208699382842,49.29974986240268,0 -123.1209547631443,49.299570992589,0 -123.1211956590414,49.29953193292022,0 -123.1211589463055,49.2996056098491,0 -123.1212153565139,49.2994792945683,0 -123.1212798133492,49.2996280733496,0 -123.1211512349546,49.29955665953457,0 -123.1210706010461,49.29920939728618,0 -123.121001534164,49.29917980916798,0 -123.1209720298648,49.29922984912992,0 -123.1210497301072,49.29921417497098,0 -123.1211714353412,49.29945222102106,0 -123.1210229918361,49.29967015050352,0 -123.1210964173079,49.2999264691025,0 -123.1216084677726,49.29998287931085,0 -123.1238018441945,49.30094478651881,0 -123.1236940529197,49.30101075209677,0 -123.1240921933204,49.3010332994163,0 -123.1242944486439,49.30120831355453,0 -123.1250457186252,49.30147661827505,0 -123.1259447615594,49.30222302675247,0 -123.1260593421757,49.30234246887267,0 -123.126015253365,49.3024149723351,0 -123.1263599172235,49.30254958570004,0 -123.126514730975,49.30272711440921,0 -123.127344539389,49.30257246829569,0 -123.1283413153142,49.30256593041122,0 -123.1282518804073,49.30254086852074,0 -123.1293932441622,49.3027484882623,0 -123.13043134287,49.30305995978415,0 -123.1307727377862,49.30303112603724,0 -123.1309041660279,49.30268252268434,0 -123.1318358145654,49.30167216807604,0 -123.1319124251604,49.30133370682597,0 -123.1318477168679,49.30132054723799,0 -123.1320886965841,49.3012563418597,0 -123.1320331245661,49.30142506957054,0 -123.1320761237293,49.30126463994384,0 -123.1321958173066,49.30137888528407,0 -123.1322670634836,49.30135382339358,0 -123.1322143413126,49.30128618143499,0 -123.1320367287844,49.30141258053482,0 -123.1321098189801,49.30135700851679,0 -123.1320568453521,49.30124846287072,0 -123.1321306061,49.3011075630784,0 -123.1320996768773,49.30057162418962,0 -123.1322243157774,49.30008463561535,0 -123.1321270018816,49.29997550323606,0 -123.1321090646088,49.29972253739834,0 -123.1320284307003,49.29971390403807,0 -123.1320718489587,49.29979420267045,0 -123.131982833147,49.29899448528886,0 -123.1318160332739,49.29883757606149,0 -123.1318752095103,49.29886071011424,0 -123.1318880338222,49.29874948225915,0 -123.1314240116626,49.29800525307655,0 -123.131036516279,49.29767894558609,0 -123.1310486700386,49.29757668636739,0 -123.131089406088,49.29761398583651,0 -123.1315646599978,49.29735012352467,0 -123.1322788819671,49.2968803178519,0 -123.1334349978715,49.29699992761016,0 -123.1343313585967,49.29690730758011,0 -123.1348279863596,49.29670991376042,0 -123.1352765019983,49.29637304507196,0 -123.1356044858694,49.29598605260253,0 -123.1358608882874,49.29523067548871,0 -123.1357369199395,49.29503537714481,0 -123.1355386879295,49.29493554867804,0 -123.134887078777,49.29492054507136,0 -123.1340497266501,49.2946991790086,0 -123.1337135285139,49.29432534612715,0 -123.1329731550068,49.29399384185672,0 -123.132434533909,49.29356519132853,0 -123.1321869324893,49.2934958729893,0 -123.1320063024759,49.29357122629881,0 -123.1314765661955,49.29319940507412,0 -123.1312518473715,49.29317149333656,0 -123.1307656131685,49.29288357496262,0 -123.1304915249348,49.29291609674692,0 -123.1294733751565,49.29360198788345,0 -123.1286637671292,49.29309429600835,0 -123.127759359777,49.29281794466078,0 -123.1274013686925,49.29258786141872,0 -123.1275412626565,49.29254653863609,0 -123.1275075674057,49.29248333908617,0 -123.1283882539719,49.2918515112251,0 -123.1279480364174,49.29170466028154,0 -123.1275893747807,49.29133300669491,0 -123.1272962596267,49.29122094064951,0 -123.1264795269817,49.29068332538009,0 -123.1261319294572,49.29065952077508,0 -123.1257472001016,49.29051099345088,0 -123.1246867217124,49.29060009308159,0 -123.1243720650673,49.29069967009127,0 -123.1234326213598,49.29131112992764,0 -123.1232417654246,49.29134851321578,0 -123.1216891855001,49.29049062542617,0 -123.1207239255309,49.29011846892536,0 -123.1195871718228,49.28989953361452,0 -123.119453061372,49.28976165130734,0 -123.1183865480125,49.28921012207866,0 -123.1182957720011,49.28902789950371,0 -123.1178471725434,49.28905178792775,0 -123.1179283093661,49.28898096084595,0 -123.1177891697735,49.2888782825321,0 -123.1169382389635,49.28861022926867,0 -123.1166882906109,49.28826766088605,0 -123.1166360713542,49.28804998286068,0 -123.1162225082517,49.28805484436452,0 -123.1161161419004,49.28790690377355,0 -123.1158605776727,49.28789533674717,0 -123.1156141497195,49.28794730454683,0 -123.1155558954924,49.2881668265909,0 -123.1153940409422,49.28822063840926,0 -123.1132698152214,49.28773700259626,0 -123.1133386306465,49.2876139562577,0 -123.1132860761136,49.28755637258291,0 -123.1128492113203,49.28742360323668,0 -123.1128290109336,49.28735068067908,0 -123.1132346950471,49.28690333850682,0 -123.1131711602211,49.28667685948312,0 -123.1138202548027,49.28661835379899,0 -123.1138624157757,49.28643579594791,0 -123.113770717755,49.28635214455426,0 -123.1135257147253,49.28637309931219,0 -123.113334774971,49.28624913096428,0 -123.1133297458291,49.28617235273123,0 -123.1128424219787,49.28597772493958,0 -123.1128989998251,49.28596607409418,0 -123.1127227284014,49.28596121259034,0 -123.1127520650625,49.28565653041005,0 -123.1126638874412,49.28563549183309,0 -123.1126425135881,49.28538378328085,0 -123.1123204808682,49.28532930091023,0 -123.1122571974993,49.28526727482677,0 -123.1122851930559,49.28504817187786,0 -123.1121540162712,49.28498698398471,0 -123.1116244476289,49.28512629121542,0 -123.1111364532262,49.28488405421376,0 -123.111098986119,49.2846576590091,0 -123.1109507102519,49.28469504229724,0 -123.1094014830887,49.28438725881279,0 -123.10910099186,49.28447971120477,0 -123.1086830701679,49.28436085581779,0 -123.1087959744036,49.28429790772498,0 -123.108730847016,49.28438189439476,0 -123.1089220382273,49.28434065543115,0 -123.108802260831,49.28437393158674,0 -123.1088870018721,49.28448172286153,0 -123.1089130695909,49.2844073753804,0 -123.1087479460984,49.28443687967956,0 -123.1088510435075,49.28441173397005,0 -123.1088496185839,49.28429245948792,0 -123.1085890252143,49.28413228131831,0 -123.1087180227041,49.28417209535837,0 -123.109040223062,49.28360271267593,0 -123.10930701904,49.28355594165623,0 -123.1092958711088,49.28338352590799,0 -123.1095304805785,49.28289167582989,0 -123.1094066798687,49.28271381184459,0 -123.1095392815769,49.2826372012496,0 -123.1093164905906,49.28251046687365,0 -123.1093432288617,49.28257685154676,0 -123.1098531000316,49.2824490275234,0 -123.1097868829966,49.28250233642757,0 -123.1099421996623,49.28268137387931,0 -123.1100007891655,49.28298194892704,0 -123.1105389073491,49.28298731334507,0 -123.1105988379568,49.28292193450034,0 -123.1104681640863,49.28303693421185,0 -123.1106321979314,49.28314154036343,0 -123.11064443551,49.28303458727896,0 -123.1106750294566,49.28315763361752,0 -123.1106075551361,49.28294305689633,0 -123.1106979958713,49.28283736109734,0 -123.1102035474032,49.28294842131436,0 -123.1108148396015,49.28316844627261,0 -123.1108119059354,49.28334387950599,0 -123.1109129078686,49.2833349108696,0 -123.1110015884042,49.28346005268395,0 -123.1112320907414,49.28345544263721,0 -123.1115703005344,49.28358452394605,0 -123.111838940531,49.28380848839879,0 -123.111949916929,49.28406103514135,0 -123.1122991908342,49.28403513506055,0 -123.112124344334,49.2842120770365,0 -123.1121305469424,49.28427427075803,0 -123.1122144497931,49.28422749973834,0 -123.1123061478138,49.28428332321346,0 -123.112341016531,49.28466436453164,0 -123.112713759765,49.28468096069992,0 -123.1131251435727,49.28481473587453,0 -123.1136819534004,49.28509938530624,0 -123.1136720627546,49.28520441055298,0 -123.1137700472027,49.28527942858636,0 -123.1140412017703,49.28519343025982,0 -123.1141921598464,49.28522679023445,0 -123.1142814271152,49.28532402031124,0 -123.1140525173396,49.28557430393994,0 -123.114449987188,49.28579550236464,0 -123.1144695170224,49.28598451428115,0 -123.1146520748734,49.28618710488081,0 -123.1149393226951,49.28628869354725,0 -123.1152207031846,49.28594780154526,0 -123.1158626731485,49.28577220067382,0 -123.1159423850477,49.28567958064377,0 -123.1158034969121,49.28559928201139,0 -123.1160702928901,49.28560012020171,0 -123.1157203484327,49.28542116656899,0 -123.1161657627672,49.28507113829255,0 -123.1162727996707,49.28484700620174,0 -123.116902615875,49.28456026129425,0 -123.1172640435398,49.28418952971697,0 -123.1172110699117,49.28413479588926,0 -123.1172980740666,49.28396648727357,0 -123.117520948872,49.28384461440146,0 -123.1178206857294,49.28381217643619,0 -123.1176999863237,49.28368074819446,0 -123.1177480146289,49.28353917784989,0 -123.118208181113,49.28342149592936,0 -123.1182590592653,49.28324153646827,0 -123.1188124325126,49.28333868272603,0 -123.1193913705647,49.2832191567868,0 -123.119479380548,49.28337321616709,0 -123.1198450829834,49.28335326723754,0 -123.120364677161,49.28319468162954,0 -123.1203210912645,49.28324296139181,0 -123.12046777457,49.28328964859247,0 -123.1202790141106,49.28360665217042,0 -123.1203229352832,49.28380748257041,0 -123.1208632327616,49.28345368243754,0 -123.1209905538708,49.28356105461717,0 -123.1209829263389,49.28368275985122,0 -123.1208474747837,49.28383187390864,0 -123.1202051695436,49.2840910423547,0 -123.1203124579042,49.28423143923283,0 -123.1204023957253,49.28416145034134,0 -123.1205783318728,49.28427645005286,0 -123.1210023723543,49.28414024412632,0 -123.1212274264544,49.2844139970839,0 -123.1214146781713,49.28412809036672,0 -123.1218546442688,49.2840170301497,0 -123.1217611022294,49.28405785001814,0 -123.1218524649739,49.28412649780512,0 -123.1220045965165,49.28404066711664,0 -123.1220448296517,49.28411937318742,0 -123.1224126275629,49.28401996381581,0 -123.1223034951836,49.2841238155961,0 -123.1226395256817,49.28439815528691,0 -123.1227867957205,49.28439505398273,0 -123.122986452654,49.28455213084817,0 -123.1230827607214,49.28480241447687,0 -123.1229638215154,49.28505948744714,0 
		</coordinates>
	</LineString>
	<atom:link rel="app" href="https://www.google.com/earth/about/versions/#earth-pro" title="Google Earth Pro 7.3.7.1155"></atom:link>
</Placemark>
</kml>
