<?xml version="1.0" encoding="UTF-8"?>
<kml xmlns="http://www.opengis.net/kml/2.2" xmlns:gx="http://www.google.com/kml/ext/2.2" xmlns:kml="http://www.opengis.net/kml/2.2" xmlns:atom="http://www.w3.org/2005/Atom">
<Placemark>
	<name>Track</name>
	<Style>
		<LineStyle>
			<color>ff0000ff</color>
			<width>3</width>
		</LineStyle>
	</Style>
	<LineString>
		<tessellate>1</tessellate>
		<coordinates>
			-111.7752942815423,34.82411130331457,0 -111.7751833889633,34.82400183565915,0 -111.7750679701567,34.82381307519972,0 -111.7748461849988,34.82374132610857,0 -111.7746495455503,34.82374778017402,0 -111.7745973262936,34.82372171245515,0 -111.7746214661747,34.82370251789689,0 -111.774582574144,34.82372330501676,0 -111.7746077198535,34.82372774742544,0 -111.774579891935,34.82371056452394,0 -111.7745824065059,34.82373797334731,0 -111.7745895311236,34.8236917052418,0 -111.7745014373213,34.8236983269453,0 -111.7742451187223,34.82355248183012,0 -111.7741237487644,34.82352884486318,0 -111.7740400973707,34.82312642969191,0 -111.7739168833941,34.82292903587222,0 -111.7737797554582,34.82283901423216,0 -111.7737777438015,34.8227920755744,0 -111.7735696211457,34.82267213054001,0 -111.7733284737915,34.82247062958777,0 -111.773211043328,34.8224329110235,0 -111.7732666153461,34.82241715304554,0 -111.7732859775424,34.82244632206857,0 -111.7731227818877,34.8223964497447,0 -111.7729718238115,34.82242369093001,0 -111.7725606076419,34.8226226773113,0 -111.7723263334483,34.8226070869714,0 -111.771934479475,34.82211967930198,0 -111.771852504462,34.8219854850322,0 -111.771812774241,34.82179094105959,0 -111.7716904822737,34.82163176871836,0 -111.7717146221548,34.82161383144557,0 -111.7714400310069,34.82161399908364,0 -111.7710988037288,34.82170226052403,0 -111.7708804551512,34.82167460024357,0 -111.770631512627,34.82157770544291,0 -111.7706372123212,34.82154820114374,0 -111.7705222964287,34.82152389362454,0 -111.7704206239432,34.82152263633907,0 -111.7702003475279,34.82160477899015,0 -111.7701877746731,34.82158080674708,0 -111.7700233217329,34.8216041084379,0 -111.7698047216982,34.82166697271168,0 -111.7696111835539,34.82160687446594,0 -111.7695665918291,34.82165523804724,0 -111.7695749737322,34.8217159230262,0 -111.7696347367018,34.82178297825158,0 -111.7695080861449,34.82193661853671,0 -111.769362827763,34.8220475949347,0 -111.768876761198,34.82223518192768,0 -111.7685948777944,34.82241145335138,0 -111.7679627984762,34.82269476167858,0 -111.7678685020655,34.82270867563784,0 -111.7677773907781,34.82265092432499,0 -111.7676388379186,34.82270616106689,0 -111.7673613131046,34.82268252409995,0 -111.7672636639327,34.8227746412158,0 -111.7670532781631,34.82288318686187,0 -111.767066270113,34.82292434200644,0 -111.7670119553804,34.82296767644584,0 -111.7668342590332,34.82303288765252,0 -111.7668323311955,34.82317177578807,0 -111.7668662779033,34.8232305329293,0 -111.7669699620456,34.82325551100075,0 -111.7670148890465,34.82331418432295,0 -111.7670383583754,34.82353270053864,0 -111.7669402062893,34.82361601665616,0 -111.7669412121177,34.82374082319438,0 -111.766799474135,34.82390661723912,0 -111.7668242845684,34.82395992614329,0 -111.7667356040329,34.82403251342475,0 -111.766717331484,34.82414508238435,0 -111.7664177622646,34.82434239238501,0 -111.7663812171668,34.82443970628083,0 -111.7663858272135,34.82439561747015,0 -111.7662784550339,34.82429411262274,0 -111.7662986554205,34.82416922226548,0 -111.766212740913,34.82395087368786,0 -111.7661109007895,34.82391349039972,0 -111.7660613637418,34.82385976240039,0 -111.7659423407167,34.82384643517435,0 -111.7656808253378,34.82389722950757,0 -111.7656307853758,34.82386596500874,0 -111.7656501475722,34.82388800941408,0 -111.765615446493,34.82391659170389,0 -111.7654471378773,34.82395431026816,0 -111.7653679288924,34.82406947761774,0 -111.7653974331915,34.82421196997166,0 -111.7653270252049,34.82442780397832,0 -111.7651458084583,34.82458781450987,0 -111.7649551201612,34.82492661103606,0 -111.7648795153946,34.8249436262995,0 -111.7647000588477,34.82509701512754,0 -111.764603080228,34.82513934373856,0 -111.7644751723856,34.82529013417661,0 -111.7642812989652,34.82539641670883,0 -111.7642488609999,34.82544880360365,0 -111.764270234853,34.82548786327243,0 -111.7640616092831,34.8255876917392,0 -111.763923978433,34.82561116106808,0 -111.763916015625,34.82566430233419,0 -111.7636099085212,34.82588642276824,0 -111.7636849265546,34.82594115659595,0 -111.7636694200337,34.82601676136255,0 -111.763561796397,34.82610208913684,0 -111.7635123431683,34.82616914436221,0 -111.7635160312057,34.82622094452381,0 -111.7633923981339,34.82631549239159,0 -111.7633140273392,34.8264339286834,0 -111.7630093451589,34.82651305384934,0 -111.7629569582641,34.82656669802964,0 -111.7626070976257,34.82653819955885,0 -111.76265261136,34.82651355676353,0 -111.7626508511603,34.82646401971579,0 -111.7624127212912,34.82634105719626,0 -111.7623572330922,34.82638657093048,0 -111.7622894234955,34.82636016793549,0 -111.7622363660485,34.82642294839025,0 -111.762224631384,34.82639688067138,0 -111.7621674668044,34.82641791924834,0 -111.761918021366,34.82636947184801,0 -111.7618539836258,34.82645655982196,0 -111.7618505470455,34.82638078741729,0 -111.761769913137,34.82634541578591,0 -111.7616306059062,34.82635245658457,0 -111.7616001795977,34.82643057592213,0 -111.7613771371543,34.8265013191849,0 -111.7613336350769,34.82666577212512,0 -111.760567529127,34.82696081511676,0 -111.7605888191611,34.82697858475149,0 -111.7599203623831,34.82700766995549,0 -111.7597124911845,34.8268760740757,0 -111.7593977507204,34.82682871632278,0 -111.7592881992459,34.82693885453045,0 -111.7592497263104,34.82707338407636,0 -111.7590457946062,34.82717203907669,0 -111.7590670008212,34.82717706821859,0 -111.7591327149421,34.82716063968837,0 -111.7592544201761,34.82698721811175,0 -111.759203709662,34.82686324976385,0 -111.7591076530516,34.82679879292846,0 -111.7594093177468,34.82682486064732,0 -111.7592745367438,34.82695989310741,0 -111.7592850141227,34.82698487117887,0 -111.759219635278,34.82707506045699,0 -111.7592323757708,34.82719500549138,0 -111.7591062281281,34.82722803018987,0 -111.7590701859444,34.82725594192743,0 -111.7590727843344,34.82731444761157,0 -111.7589133605361,34.82740857638419,0 -111.7587014660239,34.8274442832917,0 -111.7586534377187,34.82755685225129,0 -111.7586127854884,34.82758518308401,0 -111.7585605662316,34.82756473124027,0 -111.7585750669241,34.82761820778251,0 -111.75811749883,34.82763388194144,0 -111.7580761760473,34.82778299599886,0 -111.7579576559365,34.82794099487364,0 -111.7578782793134,34.82797795906663,0 -111.7577574122697,34.82792515307665,0 -111.7575829010457,34.82796630822122,0 -111.757319541648,34.82792481780052,0 -111.757057690993,34.82799740508199,0 -111.7569549288601,34.82796337455511,0 -111.7566855344921,34.82795985415578,0 -111.7565577942878,34.82792112976313,0 -111.7565713729709,34.82789112254977,0 -111.7564892303199,34.8279104847461,0 -111.7563798464835,34.82796588912606,0 -111.7564153019339,34.82798164710402,0 -111.7563829477876,34.8279430065304,0 -111.7563154734671,34.82796446420252,0 -111.7560926824808,34.82816940173507,0 -111.7558174207807,34.82828012667596,0 -111.7557241301984,34.82828096486628,0 -111.7553359642625,34.82846762984991,0 -111.7552296817303,34.82845849357545,0 -111.7551236506552,34.82849118299782,0 -111.7550845071673,34.82854130677879,0 -111.7549034580588,34.82862185686827,0 -111.7547520808876,34.828618504107,0 -111.7546836007386,34.8285717330873,0 -111.7545548547059,34.82858179137111,0 -111.7544100992382,34.82865664176643,0 -111.7544751428068,34.82868212275207,0 -111.7543924972415,34.82873618602753,0 -111.7541345022619,34.82874909415841,0 -111.7538655269891,34.82873182743788,0 -111.7538591567427,34.82870542444289,0 -111.7538128048182,34.82881992124021,0 -111.7537372838706,34.82877792790532,0 -111.753785898909,34.82878312468529,0 -111.7536654509604,34.82885529287159,0 -111.753648435697,34.82888580299914,0 -111.7537010740489,34.82896124012768,0 -111.7536216974258,34.82911211438477,0 -111.7534861620516,34.82922233641148,0 -111.7533464357257,34.82927430421114,0 -111.7533464357257,34.8293386772275,0 -111.7534083779901,34.82936834916472,0 -111.7538185883313,34.82926349155605,0 -111.7540278006345,34.82925343327224,0 -111.7541360948235,34.82937639579177,0 -111.7542163096368,34.8294214066118,0 -111.7543511744589,34.82942610047758,0 -111.7543738894165,34.82946876436472,0 -111.7544706165791,34.82942660339177,0 -111.7545090056956,34.82936390675604,0 -111.7548581957817,34.82912736944854,0 -111.754856267944,34.8290622420609,0 -111.7548105865717,34.82899451628327,0 -111.7548199743032,34.82903399504721,0 -111.7549350578338,34.82902745716274,0 -111.754880156368,34.82903055846691,0 -111.754851071164,34.82899627648294,0 -111.7548716068268,34.82901463285089,0 -111.7548120953143,34.82907800003886,0 -111.7548184655607,34.82904790900648,0 -111.7547714430839,34.8290400300175,0 -111.7548094131052,34.82901287265122,0 -111.7547855246812,34.82901429757476,0 -111.7547514941543,34.82913617044687,0 -111.7545582912862,34.82919928617775,0 -111.7543952632695,34.82917715795338,0 -111.7544479016215,34.82926650904119,0 -111.7544563673437,34.8293368332088,0 -111.754428204149,34.82938352040946,0 -111.7541829496622,34.82945803552866,0 -111.7539465799928,34.82926391065121,0 -111.7537525389344,34.82927623204887,0 -111.7533475253731,34.82937874272466,0 -111.7532394826412,34.82934596948326,0 -111.7531873472035,34.82926852069795,0 -111.7534118983895,34.82903156429529,0 -111.753624714911,34.82893818989396,0 -111.7536927759647,34.82884246855974,0 -111.7539139743894,34.82891581021249,0 -111.7539451550692,34.82883911579847,0 -111.7538627609611,34.82874481938779,0 -111.7538751661777,34.82872336171567,0 -111.7543323989958,34.82874691486359,0 -111.754615707323,34.82854801230133,0 -111.7547608818859,34.82855304144323,0 -111.7547776456922,34.82852303422987,0 -111.755046537146,34.82854482717812,0 -111.7552508879453,34.82843636535108,0 -111.7553327791393,34.82845011167228,0 -111.7555503733456,34.82834869064391,0 -111.7556608468294,34.82834542170167,0 -111.756175160408,34.82807896099985,0 -111.7562588956207,34.82794225215912,0 -111.7563074268401,34.82792490161955,0 -111.7566432897002,34.82787704095244,0 -111.7569302860647,34.82792071066797,0 -111.7570202238858,34.82794443145394,0 -111.757031455636,34.82797779142857,0 -111.7571285180748,34.82798047363758,0 -111.7573027778417,34.82790051028132,0 -111.757467482239,34.8279363848269,0 -111.7577083781362,34.82789581641555,0 -111.7579165846109,34.82794912531972,0 -111.7580454982817,34.82779229991138,0 -111.7580690514296,34.8276702594012,0 -111.7581517808139,34.82762550003827,0 -111.758738765493,34.8275460395962,0 -111.7588478978723,34.82750404626131,0 -111.7590661626309,34.82728561386466,0 -111.7591937351972,34.82723188586533,0 -111.7592203058302,34.82719131745398,0 -111.7591873649508,34.82709945179522,0 -111.7592310346663,34.82701035216451,0 -111.7593876086175,34.82685025781393,0 -111.7596639599651,34.8268567956984,0 -111.7598787043244,34.82698713429272,0 -111.7600191850215,34.82700641267002,0 -111.7604013159871,34.8269500862807,0 -111.7605580575764,34.82697992585599,0 -111.7609774041921,34.82677658088505,0 -111.7612794879824,34.82672218233347,0 -111.7613364011049,34.82667457312346,0 -111.7617817316204,34.82681605964899,0 -111.7622144054621,34.82673467136919,0 -111.7625664453954,34.82677113264799,0 -111.7629340756685,34.82665554620326,0 -111.763067683205,34.826575582847,0 -111.7631219141185,34.82648790813982,0 -111.7632774822414,34.82645463198423,0 -111.7634334694594,34.82629210688174,0 -111.7636149376631,34.8260419908911,0 -111.7635942343622,34.82590804807842,0 -111.7638899479061,34.82563186436892,0 -111.7638568393886,34.82560529373586,0 -111.76399522461,34.82560110278428,0 -111.7642187699676,34.82548744417727,0 -111.7643856536597,34.82529717497528,0 -111.7644391302019,34.82528116554022,0 -111.7646422237158,34.82509877532721,0 -111.7649611551315,34.82492401264608,0 -111.7651635780931,34.82458597049117,0 -111.7653235048056,34.82438698410988,0 -111.7653507459909,34.82409261167049,0 -111.7654146999121,34.82397199608386,0 -111.765842679888,34.82383880764246,0 -111.76598274149,34.82384559698403,0 -111.7661885172129,34.8239887598902,0 -111.7662583384663,34.82411222532392,0 -111.7662298399955,34.82427785173059,0 -111.7662695702165,34.82434473931789,0 -111.7663204483688,34.82434842735529,0 -111.7665781918913,34.82421942986548,0 -111.7666844744235,34.82412622310221,0 -111.7669055890292,34.82375347986817,0 -111.766926208511,34.82361199334264,0 -111.7669988796115,34.82354359701276,0 -111.7670023161918,34.82334913685918,0 -111.7667848896235,34.8231996037066,0 -111.7668666131794,34.8229836858809,0 -111.7669610772282,34.82295652851462,0 -111.76707431674,34.8228454682976,0 -111.7672702856362,34.82272334396839,0 -111.7673427052796,34.82263390906155,0 -111.7674949206412,34.82269643805921,0 -111.7677301168442,34.82268118299544,0 -111.7678430210799,34.82271035201848,0 -111.7685189377517,34.82241564430296,0 -111.7687554750592,34.82222931459546,0 -111.7690637614578,34.82214557938278,0 -111.7694695293903,34.82195841148496,0 -111.7695734649897,34.8218004964292,0 -111.7695679329336,34.82158365659416,0 -111.7696339823306,34.82164735905826,0 -111.7697577830404,34.8216593451798,0 -111.770457085222,34.82150360941887,0 -111.770615754649,34.82153110206127,0 -111.7709101270884,34.82166035100818,0 -111.770980367437,34.82164802961051,0 -111.7710942775011,34.82168801128864,0 -111.7713137157261,34.82162036933005,0 -111.7715702857822,34.82159664854407,0 -111.7717235069722,34.82165180146694,0 -111.771804895252,34.82175682671368,0 -111.7718817573041,34.82199939899147,0 -111.7720664106309,34.82230818830431,0 -111.77230973728,34.82255604118109,0 -111.7723772954196,34.82259443029761,0 -111.7725298460573,34.82258680276573,0 -111.7727519664913,34.82248554937541,0 -111.7727231327444,34.8225158918649,0 -111.7730351071805,34.82233718968928,0 -111.773332497105,34.82242092490196,0 -111.7735296394676,34.8226660117507,0 -111.7736975289881,34.82270901091397,0 -111.7739432863891,34.82301411218941,0 -111.7740337271243,34.8232115060091,0 -111.7740665003657,34.8234482947737,0 -111.7741210665554,34.82353990897536,0 -111.7744432669133,34.82371307909489,0 -111.7747102305293,34.82373252511024,0 -111.7750518769026,34.82383193448186,0 -111.7751167528331,34.82394123449922,0 -111.7754792701453,34.8243201803416,0 -111.7756247799844,34.82430081814528,0 -111.7757145501673,34.82424792833626,0 -111.7757515143603,34.82420476153493,0 -111.7757919989526,34.82402446679771,0 -111.7758718784899,34.82404357753694,0 -111.7758676037192,34.82408146373928,0 -111.7759328149259,34.82407450675964,0 -111.7758966051042,34.82406377792358,0 
		</coordinates>
	</LineString>
	<atom:link rel="app" href="https://www.google.com/earth/about/versions/#earth-pro" title="Google Earth Pro 7.3.6.10441"></atom:link>
</Placemark>
</kml>
