<?xml version="1.0" encoding="UTF-8"?>
<kml xmlns="http://www.opengis.net/kml/2.2" xmlns:gx="http://www.google.com/kml/ext/2.2" xmlns:kml="http://www.opengis.net/kml/2.2" xmlns:atom="http://www.w3.org/2005/Atom">
<Placemark>
	<name>Track</name>
	<Style>
		<LineStyle>
			<color>ff0000ff</color>
			<width>3</width>
		</LineStyle>
	</Style>
	<LineString>
		<tessellate>1</tessellate>
		<coordinates>
			120.8118715323508,21.95869920775294,0 120.8118326403201,21.95903414860368,0 120.8117891382426,21.95914621464908,0 120.811792910099,21.95941234007478,0 120.8117523416877,21.95958643220365,0 120.8117706142366,21.95984962396324,0 120.8116644993424,21.96022689342499,0 120.8116644993424,21.96044373326004,0 120.8116039820015,21.96049285121262,0 120.8116569556296,21.96060743182898,0 120.8117023855448,21.96060625836253,0 120.8117468934506,21.96065210737288,0 120.8117791637778,21.96073668077588,0 120.8119088318199,21.96127748116851,0 120.8119032159448,21.96135710924864,0 120.8120299503207,21.9615784753114,0 120.8120592031628,21.96169598959386,0 120.8120402600616,21.96176698431373,0 120.8120560180396,21.96171057410538,0 120.8121011126786,21.9617114122957,0 120.8120934851468,21.96173404343426,0 120.8121804054826,21.96166531182826,0 120.812263386324,21.96166858077049,0 120.8123071398586,21.96170864626765,0 120.8123930543661,21.96193479001522,0 120.812363633886,21.9619809743017,0 120.8124263305217,21.96200980804861,0 120.8125102333724,21.96212472394109,0 120.8125034440309,21.96229018270969,0 120.8127104770392,21.96256921626627,0 120.8126963116229,21.96268849074841,0 120.8129909355193,21.96305595338345,0 120.8131262194365,21.96317221038043,0 120.8131770137697,21.96342685259879,0 120.8131361100823,21.9634572789073,0 120.8131185080856,21.96355484426022,0 120.8131329249591,21.96378677152097,0 120.8131964597851,21.96382046677172,0 120.8132028300315,21.96385558694601,0 120.8132266346365,21.9638492166996,0 120.8131841383874,21.96381392888725,0 120.8132267184556,21.96383605711162,0 120.8132664486766,21.96380781009793,0 120.8132806140929,21.96383555419743,0 120.8133136387914,21.96377847343683,0 120.8133528660983,21.9637802336365,0 120.8134117070585,21.96382105350494,0 120.8134030736983,21.96390562690794,0 120.8134079352021,21.96388073265553,0 120.8134568016976,21.9638788048178,0 120.8136277925223,21.9639927148819,0 120.8136360906065,21.96443896740675,0 120.8136749826372,21.96451826021075,0 120.8136443886906,21.96461507119238,0 120.8137608133256,21.96472059935331,0 120.8137687761337,21.96484062820673,0 120.8137947600335,21.96482235565782,0 120.8138603065163,21.96488312445581,0 120.8137897308916,21.96495059877634,0 120.8138881344348,21.96502167731524,0 120.8139050658792,21.96513114497066,0 120.8138968516141,21.96509920991957,0 120.8138655032963,21.9652132038027,0 120.8139367494732,21.96529752574861,0 120.8142129331827,21.96537279523909,0 120.8143988437951,21.9655414391309,0 120.8143278490752,21.96575098671019,0 120.8143520727754,21.96586724370718,0 120.8142883703113,21.96601568721235,0 120.8143022004515,21.96611727587879,0 120.8143980894238,21.96625540964305,0 120.8144311979413,21.96641022339463,0 120.8145273383707,21.96651935577393,0 120.8145463652909,21.96658750064671,0 120.8147091418505,21.96663888171315,0 120.8147303480655,21.96667819283903,0 120.8148272428662,21.96663226000965,0 120.8148511312902,21.96667559444904,0 120.8148939628154,21.96667802520096,0 120.8148695714772,21.96668179705739,0 120.8149043563753,21.96672471240163,0 120.8149073738605,21.96670182980597,0 120.8148272428662,21.96671733632684,0 120.8148735109717,21.96672286838293,0 120.8149709925056,21.96664357557893,0 120.8151300810277,21.96640418842435,0 120.8153640199453,21.96640318259597,0 120.8154755830765,21.96646403521299,0 120.8155119605362,21.96657878346741,0 120.8156019821763,21.96657358668745,0 120.8156034909189,21.9665499497205,0 120.8155559655279,21.96659781038761,0 120.8155055902898,21.96656973101199,0 120.8155069313943,21.9668594095856,0 120.8155810274184,21.9664915278554,0 120.8156086038798,21.96651105768979,0 120.815564263612,21.96651432663202,0 120.8161685988307,21.96673770435154,0 120.8160572033376,21.9665187690407,0 120.8161438722163,21.96649488061666,0 120.8161789085716,21.9665206130594,0 120.8161818422377,21.96649806573987,0 120.816156277433,21.96649856865406,0 120.8162173815072,21.9665554817766,0 120.8163884561509,21.96660451591015,0 120.8164550084621,21.96665857918561,0 120.8166571799666,21.96670241653919,0 120.8166674058884,21.96676989085972,0 120.8166078105569,21.9668903388083,0 120.8166522346437,21.96706552058458,0 120.8166804816574,21.96711505763233,0 120.8167712576687,21.96710298769176,0 120.8168773725629,21.9672080129385,0 120.8169130794704,21.96717398241162,0 120.8169072959572,21.96727255359292,0 120.8169802185148,21.96731756441295,0 120.8170545659959,21.967500038445,0 120.8171725831926,21.96765124797821,0 120.8171992376447,21.96780513972044,0 120.8170089684427,21.96820705197752,0 120.8168311044574,21.96837158873677,0 120.816785171628,21.96834107860923,0 120.8166543301195,21.96852598339319,0 120.816687270999,21.96858507581055,0 120.8165850117803,21.96867392398417,0 120.816557770595,21.96875455789268,0 120.8164842613041,21.9687931984663,0 120.8162950817496,21.969104250893,0 120.8163467142731,21.96931287646294,0 120.8164748735726,21.96941035799682,0 120.8165946509689,21.96945243515074,0 120.8165931422263,21.96952116675675,0 120.8167511411011,21.96957196108997,0 120.8167632948607,21.96959786117077,0 120.8167068846524,21.96962929330766,0 120.816679475829,21.96959299966693,0 120.8167709223926,21.96965209208429,0 120.8169111516327,21.96957011707127,0 120.8169053681195,21.96954228915274,0 120.8168420847505,21.96954874321818,0 120.8168506342918,21.96956810541451,0 120.8168223872781,21.96953449398279,0 120.8168435934931,21.96953432634473,0 120.8167870994657,21.96952351368964,0 120.8168296795338,21.96961361914873,0 120.8167287614197,21.9697467237711,0 120.8166912943125,21.969751752913,0 120.8166743628681,21.96980246342719,0 120.8167140930891,21.96987018920481,0 120.8165962435305,21.97006716392934,0 120.8166783023626,21.97009339928627,0 120.8167080581188,21.97007219307125,0 120.8167554158717,21.97017436847091,0 120.8168875146657,21.97023304179311,0 120.8171305060387,21.9702073931694,0 120.8172516245395,21.97021133266389,0 120.8173036761582,21.9702454470098,0 120.8173874951899,21.97021736763418,0 120.8174078632146,21.97023974731565,0 120.817559659481,21.97022231295705,0 120.8175394590944,21.97029355913401,0 120.8175101224333,21.97028324939311,0 120.8174536284059,21.97034158743918,0 120.8173901773989,21.97055582888424,0 120.8173822984099,21.97061341255903,0 120.8174429833889,21.97062078863382,0 120.8173041790724,21.97066839784384,0 120.8173062745482,21.97071416303515,0 120.8174320030957,21.97085564956069,0 120.8175781834871,21.97077551856637,0 120.8176134712994,21.97079722769558,0 120.8176245354116,21.97086847387254,0 120.8177218493074,21.97071181610227,0 120.8177750743926,21.97088280692697,0 120.8180365897715,21.97083016857505,0 120.8181453030556,21.97086562402546,0 120.8181731309742,21.97092153131962,0 120.8183507435024,21.97094676084816,0 120.8184096682817,21.9710779376328,0 120.8185472991318,21.97101867757738,0 120.8187635522336,21.97111238725483,0 120.8186242450029,21.97103611193597,0 120.8183398470283,21.97095178999007,0 120.8181846141815,21.97106896899641,0 120.8181142900139,21.97107282467186,0 120.8179562911391,21.97123040445149,0 120.8178273774683,21.97130165062845,0 120.817689159885,21.97131598368287,0 120.8173726592213,21.97124750353396,0 120.8172310888767,21.97115899063647,0 120.8172061108053,21.97110710665584,0 120.8168648835272,21.97083402425051,0 120.8167396578938,21.97063847444952,0 120.8167630434036,21.97054585441947,0 120.81661879085,21.97043982334435,0 120.8164506498724,21.97039690800011,0 120.8163219038397,21.97030378505588,0 120.8161756396294,21.97010924108326,0 120.8161794114858,21.97006305679679,0 120.8162256795913,21.97009432129562,0 120.8161700237542,21.97011770680547,0 120.8162003662437,21.97011787444353,0 120.8161347359419,21.97007889859378,0 120.8159650862217,21.96982241235673,0 120.8155820332468,21.96963725611567,0 120.8155159838498,21.96952099911869,0 120.815508607775,21.96942142210901,0 120.8155257068574,21.9693611562252,0 120.8155666105449,21.96935059502721,0 120.8154537063092,21.96922360919416,0 120.8155072666705,21.96915294975042,0 120.8155038300902,21.96891632862389,0 120.8154198434204,21.96872999891639,0 120.8154026605189,21.96853453293443,0 120.8152677118778,21.9683647993952,0 120.8153568953276,21.96790681220591,0 120.8155047520995,21.96771486662328,0 120.8156595658511,21.96741286665201,0 120.8156759105623,21.96721287444234,0 120.8154231123626,21.96723315864801,0 120.8151979744434,21.96730147115886,0 120.815133266151,21.96724556386471,0 120.8151617646217,21.96714950725436,0 120.8150670491159,21.96710751391947,0 120.8150595892221,21.96698111481965,0 120.8150316774845,21.9669643510133,0 120.8150526322424,21.96694021113217,0 120.8149849902838,21.96700374595821,0 120.8149330224842,21.96696829050779,0 120.8148570824414,21.96802005171776,0 120.814829422161,21.96790706366301,0 120.8148922864348,21.96752510033548,0 120.814953641966,21.96748855523765,0 120.8150139916688,21.967394342646,0 120.8151935320348,21.96729518473148,0 120.8150424063206,21.96711581200361,0 120.8150475192815,21.96703165769577,0 120.8150775264949,21.96701497770846,0 120.8150589186698,21.96699771098793,0 120.8150082919747,21.96699938736856,0 120.8150021731853,21.96696954779327,0 120.8148538134992,21.96691213175654,0 120.8148132450879,21.9668417237699,0 120.8146409131587,21.9668488483876,0 120.8145011868328,21.96679470129311,0 120.8143496420234,21.96662899106741,0 120.8142416831106,21.96666184812784,0 120.8141236659139,21.96665237657726,0 120.8140008710325,21.96659496054053,0 120.8139548543841,21.96653687395155,0 120.8137370087206,21.96665296331048,0 120.813674479723,21.9666450843215,0 120.8136866334826,21.96661365218461,0 120.8136464003474,21.96662404574454,0 120.8136001322418,21.96672379039228,0 120.8135367650539,21.96676067076623,0 120.8133531175554,21.9667346868664,0 120.8130584098399,21.96653502993286,0 120.812659766525,21.96633176878095,0 120.8126018475741,21.96626865305007,0 120.8124488778412,21.96624040603638,0 120.8122697565705,21.96610512211919,0 120.8123143482953,21.96585634723306,0 120.8124140929431,21.96564361453056,0 120.8129511214793,21.96470249444246,0 120.8133065141737,21.96392708458006,0 120.8133242838085,21.96386036463082,0 120.8132972102612,21.9637799821794,0 120.8132361061871,21.96379859000444,0 120.8129850681871,21.96367839351296,0 120.8130029216409,21.96365810930729,0 120.8129617664963,21.96367445401847,0 120.8130368683487,21.96368065662682,0 120.8129868283868,21.96365509182215,0 120.8129298314452,21.96367688477039,0 120.8132019080222,21.96371435187757,0 120.8133511058986,21.96362877264619,0 120.8135346695781,21.96342668496072,0 120.8134272973984,21.96347664110363,0 120.8133015688509,21.96343900635839,0 120.8132319152355,21.96336692199111,0 120.8131527900696,21.96317707188427,0 120.8129045180976,21.96296802721918,0 120.8128457609564,21.96285151876509,0 120.8127217926085,21.96271665394306,0 120.8127070404589,21.96257684379816,0 120.8126071281731,21.96248732507229,0 120.8125000912696,21.9623123947531,0 120.8125306013972,21.96219714358449,0 120.8125073835254,21.96209471672773,0 120.8124313596636,21.96195599623024,0 120.8123242389411,21.96184745058417,0 120.8122987579554,21.96175239980221,0 120.8120483905077,21.9616818241775,0 120.8117167185992,21.96037072688341,0 120.8119074068964,21.95957251824439,0 120.8118790760636,21.95936322212219,0 120.8119262661785,21.95916482247412,0 120.8118848595768,21.95911436341703,0 120.8118732925504,21.9590262696147,0 120.8119443710893,21.95871488191187,0 120.8121809922159,21.95855227299035,0 120.8123016916215,21.95851908065379,0 120.8122891187668,21.95848848670721,0 120.8122481312603,21.95850399322808,0 120.8122617099434,21.9584889896214,0 120.812273863703,21.95852385833859,0 120.8124161884189,21.95855327881873,0 
		</coordinates>
	</LineString>
	<atom:link rel="app" href="https://www.google.com/earth/about/versions/#earth-pro" title="Google Earth Pro 7.3.7.1155"></atom:link>
</Placemark>
</kml>
