<?xml version="1.0" encoding="UTF-8"?>
<kml
  xsi:schemaLocation="http://earth.google.com/kml/2.1 http://earth.google.com/kml2.1.xsd"
  xmlns:xsi="http://www.w3.org/2001/XMLSchema-instance" xmlns="http://earth.google.com/kml/2.1">
  <Folder>
    <name>Randersacker Wandern</name>
    <Placemark>
      <name>Track</name>
      <Style>
        <LineStyle>
          <color>FF0000FF</color>
          <width>3.0</width>
        </LineStyle>
      </Style>
      <LineString>
        <extrude>false</extrude>
        <tessellate>true</tessellate>
        <altitudeMode>clampToGround</altitudeMode>
        <coordinates>9.979455610737205,49.761158963665366 9.979612855240703,49.76119131781161 9.979853080585599,49.7611088398844 9.98048591427505,49.761103643104434 9.98044685460627,49.761150078848004 9.980508042499423,49.7611831035465 9.980820268392563,49.76123104803264 9.980807024985552,49.761315202340484 9.980858657509089,49.761341689154506 9.980747513473034,49.761408157646656 9.98091146349907,49.76138150319457 9.980808952823281,49.76135208271444 9.980773413553834,49.76138586178422 9.980925880372524,49.76138485595584 9.980907943099737,49.76144067943096 9.980864189565182,49.76142534054816 9.981030318886042,49.76136105135083 9.981204243376851,49.7610779106617 9.98125109821558,49.76083123125136 9.981185216456652,49.76073693484068 9.981280686333776,49.760342901572585 9.981600875034928,49.76030509918928 9.981871526688337,49.76005498319864 9.98182668350637,49.76008943282068 9.981514038518071,49.75984183140099 9.981701290234923,49.759959345683455 9.981827102601528,49.75995314307511 9.981912346556783,49.75988491438329 9.981882590800524,49.75975583307445 9.982007564976811,49.75956824608147 9.982189955189824,49.759479481726885 9.982205042615533,49.75931704044342 9.982020473107696,49.75915292277932 9.982308307662606,49.758970364928246 9.982217783108354,49.758905908092856 9.982157433405519,49.75864011794329 9.982104627415538,49.758724607527256 9.98226840980351,49.75902174599469 9.982581725344062,49.759058794006705 9.982783393934369,49.759203381836414 9.982877941802144,49.75917790085077 9.98291096650064,49.759237160906196 9.98328865505755,49.759360793977976 9.983552182093263,49.75938979536295 9.984398251399398,49.759295247495174 9.984492380172014,49.75931100547314 9.984544347971678,49.75940731354058 9.984784992411733,49.7593645658344 9.984785160049796,49.75943857803941 9.98513426631689,49.75925342179835 9.985336270183325,49.759218050166965 9.985713791102171,49.75930178537965 9.985870951786637,49.75926239043474 9.986857669427991,49.759285524487495 9.98689765110612,49.75933858193457 9.98784807510674,49.75931930355728 9.990852484479547,49.759956328198314 9.991025906056166,49.760074429214 9.991152724251151,49.760062946006656 9.991997955366969,49.760339967906475 9.99231462366879,49.760519759729505 9.99256826005876,49.76052051410079 9.99260731972754,49.760621348395944 9.99278711155057,49.76075361482799 9.99411279335618,49.76145534776151 9.994061077013612,49.76145861670375 9.994517220184207,49.76156179793179 9.995913645252585,49.76218868046999 9.996994156390429,49.7629670239985 9.997218120843172,49.763235077261925 9.997178055346012,49.76331789046526 9.997279979288578,49.76333297789097 9.997171266004443,49.76340095512569 9.997562868520617,49.76320154964924 9.997511403635144,49.76306417025626 9.997267741709948,49.762890078127384 9.997181659564376,49.76267784833908 9.997216612100601,49.761789282783866 9.9970992654562,49.761488204821944 9.997053584083915,49.760978082194924 9.997142599895597,49.76066401228309 9.99728693626821,49.76044096983969 9.998419918119907,49.7598413284868 9.999340837821364,49.75957788527012 9.999795807525516,49.75960185751319 9.999969145283103,49.7595392446965 10.000590914860368,49.759536143392324 10.000722762197256,49.75948476232588 10.000809514895082,49.759604539722204 10.001102797687054,49.759562043473125 10.002059256657958,49.759693555533886 10.002756211906672,49.76018046028912 10.00402263365686,49.760522190481424 10.00484892167151,49.76092846132815 10.005473038181663,49.76110892370343 10.004646079614758,49.76076987572014 10.004388336092234,49.76058304309845 10.004486739635468,49.760584803298116 10.004992168396711,49.760909769684076 10.00544705428183,49.7610879689455 10.006137052550912,49.7615697607398 10.006536701694131,49.76171317510307 10.006897626444697,49.761756006628275 10.007299538701773,49.76193705573678 10.007594916969538,49.762158086523414 10.007801530882716,49.76216185837984 10.007543032988906,49.76168040186167 10.00686896033585,49.76082779467106 10.004763761535287,49.75961359217763 10.003571351990104,49.75846971385181 10.003323247656226,49.758071741089225 10.00313381664455,49.75742784328759 10.003206571564078,49.75665687583387 10.003371695056558,49.756379602476954 10.003774277865887,49.75611196830869 10.003848122432828,49.755986826494336 10.004258584231138,49.755142433568835 10.004269313067198,49.75458847358823 10.003925571218133,49.754232075065374 10.002749674022198,49.75415169261396 10.00264280475676,49.7541063465178 10.002646492794156,49.75395220331848 10.00437987037003,49.75358750671148 10.005486533045769,49.75362539291382 10.005758609622717,49.75349044427276 10.005822898820043,49.7535381373018 10.005791885778308,49.75349455140531 10.006643068045378,49.75346898660064 10.00708487816155,49.75352665409446 10.00874382443726,49.75326530635357 10.00957841053605,49.75322641432285 10.009776391088963,49.75312666967511 10.011428715661168,49.75312767550349 10.012241341173649,49.75303455255926 10.011795507743955,49.7528837621212 10.011734990403056,49.75246676243842 10.011738846078515,49.75212696008384 10.011803051456809,49.751949179917574 10.011712275445461,49.75157283246517 10.011789640411735,49.751452803611755 10.011801961809397,49.751255409792066 10.011900700628757,49.75121014751494 10.011951411142945,49.75105642341077 10.012051993981004,49.75039433687925 10.011911178007722,49.75006484426558 10.011927774176002,49.750111447647214 10.012018047273159,49.749863259494305 10.013104258105159,49.749757312238216 10.01358998939395,49.74979913793504 10.014033643528819,49.74972906522453 10.014459611847997,49.749750941991806 10.01469966955483,49.74967944435775 10.01547122374177,49.7496943641454 10.016493229195476,49.7495196852833 10.018145553767681,49.74966427311301 10.018717953935266,49.74978824146092 10.018832702189684,49.749740883708 10.018789116293192,49.749676594510674 10.018855668604374,49.74971204996109 10.018613263964653,49.749357663095 10.018675709143281,49.74919404834509 10.01858132891357,49.74906605668366 10.018618293106556,49.74896899424493 10.018561966717243,49.74872600287199 10.020443033427,49.74922338500619 10.022435914725065,49.74961465224624 10.022487211972475,49.749409379437566 10.023048883304,49.748566411435604 10.023021474480629,49.748381758108735 10.023134546354413,49.7480883076787 10.023617846891284,49.747377103194594 10.024066362529993,49.746382255107164 10.022410601377487,49.745027739554644 10.02207264304161,49.74456857889891 10.021807691082358,49.74406097084284 10.021624378859997,49.743864331394434 10.02161230891943,49.74374799057841 10.022064177319407,49.742912482470274 10.022387634962797,49.74256304092705 10.023139407858253,49.74215090274811 10.025595724582672,49.73953985609114 10.020220577716827,49.73721840418875 10.01994707621634,49.73721186630428 10.019782958552241,49.7373350802809 10.019439216703176,49.7374421171844 10.019308291375637,49.73741663619876 10.019227741286159,49.737129053100944 10.019294880330563,49.73698270507157 10.019168397411704,49.73678790964186 10.019241655245423,49.736622367054224 10.019428739324212,49.73659814335406 10.019386913627386,49.736561849713326 10.019161943346262,49.73667450249195 10.019110394641757,49.736642902716994 10.019239140674472,49.736692355945706 10.019166469573975,49.736697720363736 10.019362941384315,49.73663628101349 10.019266214221716,49.73663720302284 10.019178623333573,49.73672739230096 10.019244337454438,49.73687835037708 10.01942572183907,49.736950350925326 10.019682794809341,49.73676745779812 10.0197022408247,49.736665869131684 10.019424380734563,49.735993556678295 10.019203098490834,49.73570052534342 10.018765144050121,49.73570253700018 10.017290264368057,49.73600990138948 10.017191777005792,49.735987689346075 10.016937553882599,49.735668087378144 10.016737645491958,49.73565668798983 10.015566609799862,49.73621861077845 10.015127398073673,49.73653997294605 10.014360370114446,49.736605770885944 10.01456388272345,49.73667986690998 10.015126308426261,49.73668430931866 10.014770915731788,49.73676469177008 10.014503365382552,49.73694213666022 10.014423904940486,49.737138859927654 10.014453995972872,49.73702536895871 10.01486336812377,49.736817413941026 10.015619667246938,49.736241744831204 10.01608058810234,49.736033119261265 10.016590626910329,49.73672429099679 10.016606384888291,49.73687583580613 10.016504377126694,49.736918080598116 10.016349563375115,49.73733223043382 10.016187625005841,49.737500455230474 10.016117887571454,49.73767815157771 10.0158875528723,49.73778476938605 10.015828963369131,49.73790035583079 10.015834495425224,49.73814778961241 10.015391260385513,49.73868515342474 10.015413472428918,49.73886511288583 10.015557641163468,49.739092933014035 10.015549007803202,49.73926191218197 10.015797950327396,49.73962367512286 10.015646405518055,49.739851243793964 10.016173962503672,49.740043273195624 10.016885250806808,49.740116614848375 10.017561502754688,49.74027955904603 10.01811470836401,49.740267153829336 10.018417714163661,49.74019565619528 10.018326016142964,49.74021493457258 10.018339427188039,49.74028836004436 10.018468089401722,49.74034301005304 10.018347725272179,49.7403106559068 10.01838007941842,49.740373687818646 10.018390472978354,49.74027645774186 10.018474208191037,49.740367736667395 10.019173342734575,49.74048952572048 10.019168397411704,49.74059270694852 10.019069658592343,49.74069245159626 10.018861116841435,49.74076378159225 10.018495917320251,49.74103292450309 10.01843917183578,49.74119134247303 10.017961570993066,49.741613790392876 10.017887810245156,49.741783272475004 10.017153806984425,49.74157481454313 10.015486478805542,49.74130265414715 10.013496279716492,49.74041442386806 10.01288934610784,49.7402155213058 10.012693293392658,49.7402136772871 10.012640235945582,49.74027385935187 10.012840228155255,49.7403347119689 10.013125967234373,49.74054057151079 10.015003429725766,49.7412911709398 10.015044333413243,49.74136962555349 10.01497384160757,49.741401644423604 10.0149498693645,49.741777405142784 10.014837216585875,49.74182459525764 10.014952048659325,49.7418612241745 10.015052631497383,49.742024755105376 10.014981552958488,49.74228652194142 10.013983016833663,49.74263428710401 10.01362276263535,49.74279563874006 10.013468535616994,49.742935029789805 10.013227388262749,49.742955565452576 10.013158656656742,49.74301096983254 10.013292515650392,49.74310979247093 10.012949192896485,49.74324985407293 10.012714331969619,49.7431461699307 10.012405794113874,49.74221125245094 10.012048641219735,49.74210538901389 10.011143395677209,49.742232793942094 10.010311743244529,49.74227160215378 10.010023070499301,49.74240596406162 10.009565418586135,49.74244368262589 10.009009195491672,49.74271877668798 10.0087521225214,49.74277191795409 10.008260859176517,49.742995547130704 10.0080890301615,49.74316016770899 10.007647555321455,49.74330693483353 10.007215049117804,49.74355537444353 10.006309635937214,49.74420723505318 10.004348186776042,49.745034696534276 10.003941413015127,49.745086496695876 10.003753239288926,49.745449433103204 10.003843931481242,49.74578303284943 10.003823144361377,49.74605645053089 10.003719544038177,49.746316876262426 10.003710994496942,49.746700935065746 10.00361762009561,49.746990110725164 10.003523239865899,49.7470710799098 10.003329450264573,49.74704769439995 10.002617072314024,49.7466601151973 10.002060094848275,49.74674426950514 10.001223245635629,49.74652709439397 10.000591250136495,49.74646758288145 9.999594809487462,49.74649406969547 9.998747231438756,49.74664737470448 9.998187823221087,49.746876033023 9.997412664815784,49.74708071909845 9.995445432141423,49.74791295826435 9.994365340098739,49.748635394498706 9.992454182356596,49.750152602791786 9.992034249007702,49.75065593607724 9.991912543773651,49.75098241120577 9.991680951789021,49.75124694406986 9.99165153130889,49.75141340866685 9.991920087486506,49.75184801034629 9.992358963936567,49.752314211800694 9.99251939356327,49.752600034698844 9.99312188476324,49.753150725737214 9.993146359920502,49.75324862636626 9.992550322785974,49.75315550342202 9.99155580997467,49.7527698520571 9.99149621464312,49.75284361280501 9.99163736589253,49.753038911148906 9.99184649437666,49.753163382411 9.991857642307878,49.7533000074327 9.99113654717803,49.753603264689445 9.990712841972709,49.753928650170565 9.990575797855854,49.75390794686973 9.98999996110797,49.753431687131524 9.989745235070586,49.753561271354556 9.989124052226543,49.753680462017655 9.98889958485961,49.75378079339862 9.98850672505796,49.75382127799094 9.988490715622902,49.75391465239227 9.987899456173182,49.75409637205303 9.987724861130118,49.75396519526839 9.98764531686902,49.7540098708123 9.987316830083728,49.75389814004302 9.987043663859367,49.75371197797358 9.986904608085752,49.75382152944803 9.986858004704118,49.753946252167225 9.98661526478827,49.75401800125837 9.986431701108813,49.75422536954284 9.98608754016459,49.75445268675685 9.984766468405724,49.755704775452614 9.983476744964719,49.7567917406559 9.982552472501993,49.75729834288359 9.982197331264615,49.75757989101112 9.982159361243248,49.75756497122347 9.982240330427885,49.7575444355607 9.98224887996912,49.757473189383745 9.98213354498148,49.75750017911196 9.982469324022532,49.757488863542676 9.98216145671904,49.757388196885586 9.982537720352411,49.75758676417172 9.9819581117481,49.757419461384416 9.982026005163789,49.75758198648691 9.981870353221893,49.75770830176771 9.981010956689715,49.758108453825116 9.980754386633635,49.75836234167218 9.980454985052347,49.75854414515197 9.980959491804242,49.758961061015725 9.980991929769516,49.75907220505178 9.981225868687034,49.7591642383486 9.981158981099725,49.759279573336244 9.981199549511075,49.75942156277597 9.981093350797892,49.759494569152594 9.981289403513074,49.759622225537896 9.98134589754045,49.75960277952254 9.981257049366832,49.75958903320134 9.98150716535747,49.75978374481201 9.981665667146444,49.759826408699155 9.981836238875985,49.76002707146108 9.98180078342557,49.76012086495757 9.981563659384847,49.76015657186508 9.981503058224916,49.76027668453753 9.981295187026262,49.76028196513653 9.981256127357483,49.760507522150874 9.981309017166495,49.760737186297774 9.981131572276354,49.76104781962931 9.980965526774526,49.761104648932815 9.980273433029652,49.761091992259026 9.979700529947877,49.7610102687031 9.979341197758913,49.76103013381362 9.979308089241385,49.76112895645201</coordinates>
      </LineString>
    </Placemark>
  </Folder>
</kml>
