<?xml version="1.0" encoding="UTF-8"?>
<kml xmlns="http://www.opengis.net/kml/2.2" xmlns:gx="http://www.google.com/kml/ext/2.2" xmlns:kml="http://www.opengis.net/kml/2.2" xmlns:atom="http://www.w3.org/2005/Atom">
<Placemark>
	<name>Track</name>
	<Style>
		<LineStyle>
			<color>ff0000ff</color>
			<width>3</width>
		</LineStyle>
	</Style>
	<LineString>
		<tessellate>1</tessellate>
		<coordinates>
			176.2268903944641,-40.90315388515592,0 176.2268259376287,-40.90312412939966,0 176.2266473192722,-40.90318431146443,0 176.2265462335199,-40.90329210273921,0 176.2264071777463,-40.90336795896292,0 176.2263433914632,-40.90348077937961,0 176.2258071172982,-40.90348966419697,0 176.2256986554712,-40.90358538553119,0 176.2256007548422,-40.90362260118127,0 176.2255444284528,-40.90360214933753,0 176.2253958173096,-40.90364824980497,0 176.2253060471267,-40.90364229865372,0 176.225069006905,-40.9038766566664,0 176.2248675897717,-40.90399073436856,0 176.2247499916703,-40.90398830361664,0 176.224551005289,-40.90388914570212,0 176.2243438046426,-40.90389518067241,0 176.2243114504963,-40.90398386120796,0 176.2243489176035,-40.90403029695153,0 176.2243784219027,-40.90400691144168,0 176.2243573833257,-40.90404982678592,0 176.2243932578713,-40.90407840907574,0 176.2243735603988,-40.90406969189644,0 176.2244339101017,-40.90402971021831,0 176.2244074232876,-40.90401981957257,0 176.2244152184576,-40.90404043905437,0 176.2245270330459,-40.90399953536689,0 176.2245725467801,-40.9040577057749,0 176.2244344130158,-40.90416910126805,0 176.2243275437504,-40.90417857281864,0 176.2240071035922,-40.90433682315052,0 176.2236084602773,-40.90422634966671,0 176.2236141599715,-40.90424705296755,0 176.2235339451581,-40.90425434522331,0 176.2235841527581,-40.90423364192247,0 176.2235445901752,-40.90428292751312,0 176.2235625274479,-40.90427010320127,0 176.2234922870994,-40.90425610542297,0 176.2232653051615,-40.90434411540627,0 176.2231522332877,-40.90435073710978,0 176.2230244930834,-40.90431083925068,0 176.2225831858814,-40.90446531772614,0 176.2222425453365,-40.90448409318924,0 176.2220911681652,-40.90452499687672,0 176.221718005836,-40.90448250062764,0 176.2211679015309,-40.90457344427705,0 176.2209104932845,-40.90454863384366,0 176.2208600342274,-40.90456229634583,0 176.2207644805312,-40.90467134490609,0 176.2206810805947,-40.90469338931143,0 176.2204691022635,-40.9046793077141,0 176.2201914936304,-40.90458987280726,0 176.2200115341693,-40.90456891804934,0 176.2196076940745,-40.90466690249741,0 176.2195076141506,-40.90472884476185,0 176.2190747726709,-40.90459548868239,0 176.2189986649901,-40.90461074374616,0 176.2190086394548,-40.90463588945568,0 176.2188186217099,-40.90466966852546,0 176.218538749963,-40.90462926775217,0 176.2183238379657,-40.90467444621027,0 176.2181404419243,-40.90475742705166,0 176.2178474944085,-40.90504962019622,0 176.2174853123724,-40.90534038841724,0 176.2173912674189,-40.90548053383827,0 176.2171236332506,-40.90570659376681,0 176.2168731819838,-40.90598596259952,0 176.216754578054,-40.90600683353841,0 176.2166076432914,-40.90611345134676,0 176.2164239119738,-40.90637538582087,0 176.2163050565869,-40.90648510493338,0 176.2160652503371,-40.90654981322587,0 176.2161017116159,-40.90678207576275,0 176.2162887956947,-40.90702372603118,0 176.2163108401,-40.90719337575138,0 176.2162649910897,-40.90742823667824,0 176.2162429466844,-40.90741373598576,0 176.2162170466036,-40.90745992027223,0 176.216186368838,-40.90768329799175,0 176.2160139530897,-40.9078449010849,0 176.2159449700266,-40.90798010118306,0 176.2159201595932,-40.90796526521444,0 176.2158874701709,-40.90799812227488,0 176.2158247735351,-40.90823566541076,0 176.2158363405615,-40.90839492157102,0 176.2159979436547,-40.90872500091791,0 176.2161488179117,-40.90885835699737,0 176.2161539308727,-40.90890722349286,0 176.2160525936633,-40.90902373194695,0 176.2161613069475,-40.90920880436897,0 176.2161538470536,-40.90936303138733,0 176.2162069045007,-40.90949630364776,0 176.2161761429161,-40.90945749543607,0 176.2162316311151,-40.90946612879634,0 176.2161980196834,-40.90947291813791,0 176.2162370793521,-40.90948155149817,0 176.2162057310343,-40.90947082266212,0 176.2162773124874,-40.90960551984608,0 176.2162899691612,-40.90975706465542,0 176.2161951698363,-40.90981339104474,0 176.2162151187658,-40.9098357707262,0 176.2162039708346,-40.90980056673288,0 176.2162928190082,-40.90975203551352,0 176.2164092436433,-40.90996694751084,0 176.216537905857,-40.91006719507277,0 176.2167948950082,-40.91021136380732,0 176.2170462682843,-40.91029803268611,0 176.2170608527958,-40.91037355363369,0 176.2171567417681,-40.91046114452183,0 176.2171845696867,-40.91059491969645,0 176.2174012418836,-40.91083967126906,0 176.2174932751805,-40.91082802042365,0 176.2175293173641,-40.91079181060195,0 176.2176458258182,-40.91079650446773,0 176.2176933512092,-40.91086506843567,0 176.2178639229387,-40.91083497740328,0 176.2180192396045,-40.91084671206772,0 176.2180657591671,-40.91087839566171,0 176.2181875482202,-40.91087026521564,0 176.2185346428305,-40.91094251722097,0 176.218707729131,-40.91090655885637,0 176.2187118362635,-40.91093949973583,0 176.2188907898962,-40.91092617250979,0 176.2190138362348,-40.9109859354794,0 176.2190079689026,-40.91095458716154,0 176.2190871778876,-40.91087738983333,0 176.2191748525947,-40.91084402985871,0 176.2190394848585,-40.91096506454051,0 176.2189415842295,-40.91100948862731,0 176.2187902908772,-40.91105206869543,0 176.2186429370195,-40.91113706119359,0 176.2186000216752,-40.9111257456243,0 176.2185219023377,-40.91118525713682,0 176.2183844391257,-40.91121367178857,0 176.2182151246816,-40.91131023131311,0 176.2179621588439,-40.91136538423598,0 176.2178889848292,-40.91145473532379,0 176.2179111130536,-40.91147149913013,0 176.2179662659764,-40.91142950579524,0 176.2179515138268,-40.91148524545133,0 176.2180320639163,-40.9114730078727,0 176.2180616520345,-40.91143730096519,0 176.2181065790355,-40.91144568286836,0 176.2180930003524,-40.91148113831878,0 176.2181340716779,-40.91141257435083,0 176.2179774139076,-40.91157434508204,0 176.2178028188646,-40.91167786158621,0 176.2180060800165,-40.91149832122028,0 176.2179091013968,-40.91145599260926,0 176.2179339956492,-40.91145263984799,0 176.2178860511631,-40.91140679083765,0 176.2179689481854,-40.9113316051662,0 176.2182365823537,-40.91127175837755,0 176.2183732073754,-40.91117469593883,0 176.2184612173587,-40.91116572730243,0 176.2190124951303,-40.91092105954885,0 176.2188793066889,-40.91089842841029,0 176.2185962498188,-40.91097453609109,0 176.2183212395757,-40.91088308952749,0 176.2180638313293,-40.91084939427674,0 176.2180551979691,-40.91082257218659,0 176.2180783320218,-40.91083489358425,0 176.2177112046629,-40.91086666099727,0 176.2176525313407,-40.91080664657056,0 176.2175520323217,-40.91078443452716,0 176.2174605019391,-40.9108326304704,0 176.2173635233194,-40.91079893521965,0 176.2172020878643,-40.91061855666339,0 176.2172289937735,-40.91061453334987,0 176.2171932030469,-40.91061537154019,0 176.2170659657568,-40.91033214703202,0 176.217100834474,-40.9103059116751,0 176.2170606013387,-40.91030867770314,0 176.2170418258756,-40.91024732217193,0 176.2169278319925,-40.91024237684906,0 176.216944931075,-40.91025436297059,0 176.2167767900974,-40.91017599217594,0 176.2167296838015,-40.91012025251985,0 176.2165070604533,-40.91004204936326,0 176.2163536716253,-40.90989318676293,0 176.2162374984473,-40.90965329669416,0 176.2162168789655,-40.90941893868148,0 176.2161716166884,-40.90933872386813,0 176.2161802500486,-40.9091761149466,0 176.2160686030984,-40.90900688432157,0 176.2161613907665,-40.90883187018335,0 176.21586416848,-40.90831906534731,0 176.2158650066704,-40.90805310755968,0 176.2160072475672,-40.90779444202781,0 176.2161307130009,-40.90768681839108,0 176.2161801662296,-40.90759637765586,0 176.2163179647177,-40.90703663416207,0 176.2160726264119,-40.90676003135741,0 176.216043876484,-40.90655777603388,0 176.2160921562463,-40.90648803859949,0 176.2161438725889,-40.90650253929198,0 176.2160561978817,-40.90651653707027,0 176.2163385841995,-40.90641754679382,0 176.2166420929134,-40.9060247708112,0 176.2168969865888,-40.90591714717448,0 176.2169330287725,-40.90582662262022,0 176.217079879716,-40.90572210028768,0 176.2171235494316,-40.90564515441656,0 176.2173768505454,-40.90542605146766,0 176.2175786867738,-40.9051753487438,0 176.2181427050382,-40.90473840013146,0 176.2185715232044,-40.90454695746303,0 176.2188280094415,-40.90461946092546,0 176.2191067077219,-40.90455215424299,0 176.2193471007049,-40.90463379397988,0 176.219310220331,-40.90468567796052,0 176.2193399760872,-40.90464217588305,0 176.2195258028805,-40.90465776622295,0 176.2196004856378,-40.90460303239524,0 176.2198184151202,-40.90455634519458,0 176.2199521064758,-40.90448325499892,0 176.2204807531089,-40.90463077649474,0 176.220684600994,-40.90460278093815,0 176.2209267541766,-40.90448350645602,0 176.2212045304477,-40.90454251505435,0 176.221324140206,-40.90449540875852,0 176.2215689755976,-40.90450244955719,0 176.2217241246253,-40.90445425361395,0 176.2221227679402,-40.90446271933615,0 176.2226027157158,-40.90439717285335,0 176.2228096649051,-40.9043153654784,0 176.2230461183935,-40.90426800772548,0 176.2231801450253,-40.90430907905102,0 176.2232845835388,-40.90427027083933,0 176.2232820689678,-40.90430011041462,0 176.223462279886,-40.9042080771178,0 176.2239815387875,-40.90430815704167,0 176.2241275515407,-40.904277311638,0 176.2240984663367,-40.90430446900427,0 176.2244520988315,-40.90413590893149,0 176.2244790885597,-40.90406994335353,0 176.2244432140142,-40.90404588729143,0 176.2244098540395,-40.90406449511647,0 176.2243900727481,-40.90398042462766,0 176.2243585567921,-40.90404513292015,0 176.2243278790265,-40.90397916734219,0 176.2243959400803,-40.90386969968677,0 176.2244567088783,-40.90389174409211,0 176.2246396858245,-40.90387598611414,0 176.2247038073838,-40.90390347875655,0 176.2247389275581,-40.90397405438125,0 176.2248685117811,-40.90398453176022,0 176.2249905522913,-40.9038975276053,0 176.2251011095941,-40.90372167527676,0 176.2252161093056,-40.90365579351783,0 176.2256272416562,-40.90359049849212,0 176.2257300037891,-40.9035552944988,0 176.2258217018098,-40.90347885154188,0 176.225883224979,-40.90349528007209,0 176.2266921624541,-40.90341657400131,0 176.2268569506705,-40.9032719861716,0 176.2268471438438,-40.90317836031318,0 176.2268915679306,-40.90320493094623,0 176.2268130294979,-40.903225466609,0 176.2268492393196,-40.90318850241601,0 176.2268321402371,-40.90324415825307,0 176.2268844433129,-40.90323862619698,0 176.2268358282745,-40.90324759483337,0 176.2268630694598,-40.90323309414089,0 
		</coordinates>
	</LineString>
	<atom:link rel="app" href="https://www.google.com/earth/about/versions/#earth-pro" title="Google Earth Pro 7.3.7.1155"></atom:link>
</Placemark>
</kml>
