<?xml version="1.0" encoding="UTF-8"?>
<kml xmlns="http://www.opengis.net/kml/2.2" xmlns:gx="http://www.google.com/kml/ext/2.2" xmlns:kml="http://www.opengis.net/kml/2.2" xmlns:atom="http://www.w3.org/2005/Atom">
<Placemark>
	<name>Track</name>
	<Style>
		<LineStyle>
			<color>ff0000ff</color>
			<width>3</width>
		</LineStyle>
	</Style>
	<LineString>
		<tessellate>1</tessellate>
		<coordinates>
			170.4630368761718,-43.99918366223574,0 170.4630714096129,-43.99916455149651,0 170.4630486946553,-43.9991042856127,0 170.4629603493959,-43.99905860424042,0 170.4628088884056,-43.99882634170353,0 170.4625082295388,-43.99862408638,0 170.4623479675502,-43.99845292791724,0 170.4623600374907,-43.99841822683811,0 170.46227093786,-43.99836642667651,0 170.4621378332376,-43.99820096790791,0 170.4620929900557,-43.9980545360595,0 170.4618593025953,-43.99786124937236,0 170.4617071710527,-43.99749998934567,0 170.4615770839155,-43.99740611203015,0 170.4615797661245,-43.99730787612498,0 170.4614945221692,-43.99721056222916,0 170.4614719748497,-43.99709992110729,0 170.4615054186434,-43.99694753810763,0 170.4616447258741,-43.99690311402082,0 170.4616053309292,-43.99674327112734,0 170.4614020697773,-43.99655811488628,0 170.461393604055,-43.99648904800415,0 170.4615765810013,-43.99588412605226,0 170.4615501780063,-43.99577449075878,0 170.4612159077078,-43.99567969143391,0 170.4611654486507,-43.99571204558015,0 170.4611696396023,-43.99560861289501,0 170.4609428253025,-43.99556712247431,0 170.4605837445706,-43.9953606761992,0 170.4596321471035,-43.99503319524229,0 170.4593459051102,-43.99479791522026,0 170.4592450708151,-43.99458803236485,0 170.4593289736658,-43.99441041983664,0 170.4597378429025,-43.99398369714618,0 170.4598830174655,-43.99391018785536,0 170.4599676746875,-43.99392686784267,0 170.4602883663028,-43.99372930638492,0 170.460626995191,-43.99361724033952,0 170.4614635091275,-43.99351397529244,0 170.4620126914233,-43.99335840716958,0 170.462107155472,-43.99328833445907,0 170.4624777194113,-43.99325891397893,0 170.462696319446,-43.993163947016,0 170.4630974773318,-43.9931657910347,0 170.4633918497711,-43.993000080809,0 170.4636253695935,-43.99296252988279,0 170.4638927523047,-43.99294006638229,0 170.4641875438392,-43.99302422069013,0 170.46431645751,-43.99300971999764,0 170.4643751308322,-43.99307560175657,0 170.4644553456455,-43.99307233281434,0 170.4645063914359,-43.9930069539696,0 170.4645522404462,-43.99307501502335,0 170.4648520611227,-43.99301340803504,0 170.4651064518839,-43.99323862977326,0 170.4653073661029,-43.9931449200958,0 170.465141069144,-43.99302639998496,0 170.4647219739854,-43.99251418188214,0 170.4644719418138,-43.99241887964308,0 170.464311176911,-43.99241033010185,0 170.464165750891,-43.9923124294728,0 170.4639730509371,-43.99232542142272,0 170.4638053290546,-43.99226783774793,0 170.4636548738927,-43.9922934025526,0 170.4636256210506,-43.99222827516496,0 170.4633505269885,-43.99230941198766,0 170.4630755167454,-43.99215241894126,0 170.4623411782086,-43.99190180003643,0 170.4621455445886,-43.99170968681574,0 170.4619199875742,-43.99158320389688,0 170.4616967774928,-43.99155730381608,0 170.4617213364691,-43.9914717245847,0 170.4619347397238,-43.99134088307619,0 170.4621687624604,-43.99132235907018,0 170.462231375277,-43.9913559705019,0 170.4623156972229,-43.9913197606802,0 170.4626663960516,-43.9914286416024,0 170.4629495367408,-43.99138061329722,0 170.4631160851568,-43.99143291637301,0 170.4625264182687,-43.99134658277035,0 170.462292060256,-43.99112018756568,0 170.4621401801705,-43.99107366800308,0 170.4619374219328,-43.99109906516969,0 170.461747739464,-43.99094567634165,0 170.4615569673479,-43.99093461222947,0 170.4615512676537,-43.99089605547488,0 170.4614072665572,-43.99086638353765,0 170.4612148180604,-43.99053513072431,0 170.4612016584724,-43.99027076549828,0 170.4615004733205,-43.98995351046324,0 170.4615538660437,-43.98973784409463,0 170.4617695324123,-43.98942687548697,0 170.4617284610868,-43.98935931734741,0 170.4618535190821,-43.98930081166327,0 170.4619046486914,-43.98914985358715,0 170.4621164593846,-43.98888875730336,0 170.4622162878513,-43.98855423554778,0 170.4625992570072,-43.98812390863895,0 170.462640831247,-43.98797940462828,0 170.4629108961672,-43.98796356283128,0 170.4631081223488,-43.98789684288204,0 170.4631807096303,-43.98795953951776,0 170.4633050132543,-43.98794252425432,0 170.4634934384376,-43.98822113871574,0 170.4641299601644,-43.98832390084863,0 170.4642554372549,-43.98841023445129,0 170.4642204847187,-43.98840797133744,0 170.4642036370933,-43.98850478231907,0 170.4640518408269,-43.9884908683598,0 170.4640398547053,-43.98854853585362,0 170.4639726318419,-43.98851878009737,0 170.4640474822372,-43.98850176483393,0 170.4640393517911,-43.98853152059019,0 170.4640418663621,-43.98848148062825,0 170.464194836095,-43.98840713314712,0 170.4641827661544,-43.98836237378418,0 170.4644079040736,-43.98824175819755,0 170.4646174516529,-43.98797756060958,0 170.4646437708288,-43.9878454618156,0 170.4646999295801,-43.98790589533746,0 170.4646399989724,-43.98780003190041,0 170.4646998457611,-43.98767396807671,0 170.4650156758726,-43.98738604970276,0 170.4652857407928,-43.98700299672782,0 170.4652822203934,-43.98688707500696,0 170.4651086311787,-43.98668674752116,0 170.4644482210279,-43.98613999597728,0 170.4643856920302,-43.9861389901489,0 170.4638314805925,-43.98574076592922,0 170.463481284678,-43.98581293411553,0 170.4635628405958,-43.9858318772167,0 170.4635176621377,-43.98582885973155,0 170.4635206796229,-43.98588895797729,0 170.4635250382125,-43.98584964685142,0 170.46372435987,-43.98578896187246,0 170.4639825224876,-43.98579063825309,0 170.464052176103,-43.98584604263306,0 170.4640276171267,-43.98589750751853,0 170.4642797447741,-43.98603396490216,0 170.4645113367587,-43.98605416528881,0 170.4644933994859,-43.98613362573087,0 170.4648198746145,-43.9863844960928,0 170.4652882553637,-43.98688330315053,0 170.4654671251774,-43.98684558458626,0 170.4655636008829,-43.98672580718994,0 170.4657219350338,-43.98670284077525,0 170.4657869786024,-43.98664299398661,0 170.4657045006752,-43.98659538477659,0 170.4657376930118,-43.98642984218895,0 170.4659356735647,-43.98602155968547,0 170.4660906549543,-43.98581393994391,0 170.4662263579667,-43.98531655780971,0 170.4662862047553,-43.98530507460237,0 170.4663102608174,-43.98504422977567,0 170.4662712849677,-43.98478539660573,0 170.4663053154945,-43.98469319567084,0 170.4661971889436,-43.98456973023713,0 170.466187717393,-43.9846127294004,0 170.4663761425763,-43.98462655954063,0 170.466491477564,-43.98448859341443,0 170.4665380809456,-43.98431802168489,0 170.4666301142424,-43.98426303640008,0 170.4669212177396,-43.98378644138575,0 170.4670204594731,-43.98375341668725,0 170.4670564178377,-43.98356918245554,0 170.4672093037516,-43.98333004675806,0 170.4674971383065,-43.98308705538511,0 170.4675553925335,-43.98296509869397,0 170.4678787663579,-43.9826646912843,0 170.4679464921355,-43.9824833907187,0 170.4683322273195,-43.98205859586596,0 170.4687521606684,-43.98141285404563,0 170.468748640269,-43.98148267529905,0 170.4687967523932,-43.98138653486967,0 170.4694449249655,-43.98073551245034,0 170.4694412369281,-43.98077365010977,0 170.4695805441588,-43.9805543795228,0 170.4699993040413,-43.98030870594084,0 170.4702578857541,-43.98023628629744,0 170.4703692812473,-43.98010653443635,0 170.4703934211284,-43.98015498183668,0 170.4703018907458,-43.98011458106339,0 170.4704203270376,-43.98016260936856,0 170.4703922476619,-43.98013302125037,0 170.4704869631678,-43.98005766794086,0 170.4704655054957,-43.98012715391815,0 170.4704587999731,-43.9800778683275,0 170.4705540183932,-43.97999731823802,0 170.470820479095,-43.97989866323769,0 170.4709317907691,-43.97980721667409,0 170.4712287615985,-43.97975223138928,0 170.4722329974174,-43.97973605431616,0 170.4727779049426,-43.97961711511016,0 170.4734890256077,-43.97926482371986,0 170.4738248884678,-43.97897338494658,0 170.4739581607282,-43.97837257012725,0 170.4738820530474,-43.97826050408185,0 170.4738548118621,-43.97803570143878,0 170.4739032592624,-43.97791869007051,0 170.4738182667643,-43.97783034481108,0 170.4738731682301,-43.97777770645916,0 170.4737518820912,-43.97792941890657,0 170.4733566753566,-43.97822538390756,0 170.4731334652752,-43.97849561646581,0 170.4727607220411,-43.97874070331454,0 170.4726372566074,-43.97888721898198,0 170.4721609968692,-43.97914186120033,0 170.4718949552625,-43.97940823808312,0 170.4717362858355,-43.97948258556426,0 170.4715555720031,-43.97964745759964,0 170.4711383208632,-43.97974971681833,0 170.4713634587824,-43.97956506349146,0 170.4716615192592,-43.97947294637561,0 170.4717568214983,-43.97927463054657,0 170.4719175025821,-43.97910464555025,0 170.4720914270729,-43.97902803495526,0 170.4722394514829,-43.97886282764375,0 170.4731543362141,-43.97824231535196,0 170.4739881679416,-43.97751954384148,0 170.4743411298841,-43.97697245702147,0 170.4750952497125,-43.97606637328863,0 170.4752399213612,-43.97581701166928,0 170.4759330209345,-43.97504881024361,0 170.4761825501919,-43.97453147917986,0 170.4765201732516,-43.97415513172746,0 170.4765477497131,-43.9740011561662,0 170.4766931757331,-43.97381046786904,0 170.4768133722246,-43.97339640185237,0 170.4774053860456,-43.97257816046476,0 170.477535892278,-43.97213232703507,0 170.4777689930052,-43.97171398624778,0 170.4790754802525,-43.97062174044549,0 170.4792266059667,-43.97042560391128,0 170.4792370833457,-43.97030314430594,0 170.4793319664896,-43.97039081901312,0 170.4798015207052,-43.97042753174901,0 170.480213239789,-43.97053113207221,0 170.4805327579379,-43.97078912705183,0 170.4807210154831,-43.97101216949522,0 170.4808232747018,-43.97104251198471,0 170.4809547867626,-43.97101359441876,0 170.481066852808,-43.97082567214966,0 170.4814380872995,-43.97044220007956,0 170.4816543404013,-43.97010181099176,0 170.4817062243819,-43.97008848376572,0 170.4816659074277,-43.97006660699844,0 170.481701027602,-43.97007088176906,0 170.4815885424614,-43.97021597251296,0 170.4815597925335,-43.97034840658307,0 170.4816650692374,-43.97101552225649,0 170.4821589309722,-43.97234799340367,0 170.4826748371124,-43.97301175631583,0 170.4827050119638,-43.97310915403068,0 170.4823100566864,-43.97368038073182,0 170.482147699222,-43.97407022304833,0 170.4821668937802,-43.97448873147368,0 170.4820573423058,-43.97495568729937,0 170.4821180272847,-43.97517059929669,0 170.4820449370891,-43.97554493509233,0 170.4809271264821,-43.97682669572532,0 170.480683548376,-43.97731284610927,0 170.4804994817823,-43.9775565918535,0 170.4801515489817,-43.9783475920558,0 170.4795035440475,-43.97879744879901,0 170.479343617335,-43.97895653732121,0 170.4788531083614,-43.97974519059062,0 170.4786026570946,-43.98046704009175,0 170.4784102924168,-43.98158040829003,0 170.4781398922205,-43.98230217397213,0 170.4777471162379,-43.98297515697777,0 170.4769639112055,-43.98386942222714,0 170.4769027233124,-43.98402138613164,0 170.4765734821558,-43.98448180407286,0 170.4758910275996,-43.98520767688751,0 170.4756254889071,-43.98539995774627,0 170.4754308611155,-43.98567664436996,0 170.4749775677919,-43.98608040064573,0 170.4746660124511,-43.98649765178561,0 170.4742143116891,-43.98694708943367,0 170.4741720668972,-43.98708933033049,0 170.4737915284932,-43.98765980266035,0 170.4731768835336,-43.98822449147701,0 170.4725470673293,-43.98871466517448,0 170.472548995167,-43.98890158161521,0 170.472358642146,-43.98924113251269,0 170.4714474454522,-43.99022240191698,0 170.4713064618409,-43.99043513461947,0 170.4711332917213,-43.99079983122647,0 170.4710814077407,-43.99112488143146,0 170.4711301065981,-43.99131297133863,0 170.4712799750268,-43.99147088639438,0 170.4711025301367,-43.99173382669687,0 170.4706668388098,-43.99216331541538,0 170.4700121283531,-43.99247637949884,0 170.4688068106771,-43.99291969835758,0 170.4681084305048,-43.99351045489311,0 170.4667565971613,-43.99415703490376,0 170.4663903918117,-43.99426097050309,0 170.4661701153964,-43.99425795301795,0 170.4653770197183,-43.99440597742796,0 170.4650736786425,-43.99450203403831,0 170.4639987833798,-43.99443841539323,0 170.4637091886252,-43.99451904930174,0 170.4632440768182,-43.9945678319782,0 170.4628502111882,-43.99450421333313,0 170.4624096583575,-43.99469708092511,0 170.4623230732977,-43.99484728462994,0 170.4620680119842,-43.99494493380189,0 170.4615764133632,-43.9953398052603,0 170.4616436362267,-43.99545941501856,0 170.4615412093699,-43.99567114189267,0 170.4613955318928,-43.99632099084556,0 170.4614159837365,-43.99660103023052,0 170.4615827836096,-43.99725263938308,0 170.4618755634874,-43.99762915447354,0 170.4618937522173,-43.99775538593531,0 170.4621550161391,-43.99822770617902,0 170.4626153502613,-43.99881158955395,0 170.4629757720977,-43.99914041161537,0 170.4631016682833,-43.99915910325944,0 170.4630608484149,-43.99920503608882,0 
		</coordinates>
	</LineString>
	<atom:link rel="app" href="https://www.google.com/earth/about/versions/#earth-pro" title="Google Earth Pro 7.3.7.1155"></atom:link>
</Placemark>
</kml>
