<?xml version="1.0" encoding="UTF-8"?>
<kml xmlns="http://www.opengis.net/kml/2.2" xmlns:gx="http://www.google.com/kml/ext/2.2" xmlns:kml="http://www.opengis.net/kml/2.2" xmlns:atom="http://www.w3.org/2005/Atom">
<Placemark>
	<name>Track</name>
	<Style>
		<LineStyle>
			<color>ff0000ff</color>
			<width>3</width>
		</LineStyle>
	</Style>
	<LineString>
		<tessellate>1</tessellate>
		<coordinates>
			6.702415114268661,49.64772650040686,0 6.702471524477005,49.64773454703391,0 6.701968526467681,49.64731863699853,0 6.701973639428616,49.64721126481891,0 6.702407822012901,49.64709492400289,0 6.704310430213809,49.64628506451845,0 6.704000635072589,49.64580302126706,0 6.704117730259895,49.64555885642767,0 6.704174475744367,49.64560646563768,0 6.704108007252216,49.64554142206907,0 6.70424991287291,49.64521092362702,0 6.704153520986438,49.64473868720233,0 6.704209595918655,49.64417433366179,0 6.704990286380053,49.64358382858336,0 6.705672740936279,49.64328350499272,0 6.706766411662102,49.64329021051526,0 6.70729698613286,49.64301922358572,0 6.706969756633043,49.64274144731462,0 6.706862216815352,49.64257481507957,0 6.706915106624365,49.6424559596926,0 6.706806980073452,49.64241673238575,0 6.707168575376272,49.64208749122918,0 6.707451716065407,49.64162204414606,0 6.707381894811988,49.6411453653127,0 6.707524387165904,49.64105291292071,0 6.707523129880428,49.64062602259219,0 6.707697389647365,49.64050984941423,0 6.707642739638686,49.64019485749304,0 6.707727313041687,49.64005974121392,0 6.707476945593953,49.6401852183044,0 6.707140244543552,49.64058210141957,0 6.705919587984681,49.64108015410602,0 6.705340817570686,49.64112776331604,0 6.704093590378761,49.64080162346363,0 6.702965805307031,49.64026811532676,0 6.701147183775902,49.63978724554181,0 6.700810482725501,49.6395995747298,0 6.700724065303802,49.63967258110642,0 6.700797406956553,49.63963042013347,0 6.69862674549222,49.63834312744439,0 6.698116958141327,49.63794473558664,0 6.697796601802111,49.63783384300768,0 6.697827447205782,49.63778899982572,0 6.697694174945354,49.6376985590905,0 6.697558471933007,49.63771054521203,0 6.697908416390419,49.63762630708516,0 6.69852951541543,49.63790986686945,0 6.698887338861823,49.63787424378097,0 6.699477592483163,49.63803609833121,0 6.699514640495181,49.63798899203539,0 6.699281120672822,49.63771758601069,0 6.699046092107892,49.63724828325212,0 6.699038548395038,49.636658616364,0 6.698967888951302,49.63655350729823,0 6.698437482118607,49.63641185313463,0 6.697506252676249,49.63649600744247,0 6.696644760668278,49.63631579652429,0 6.69633362442255,49.6360782533884,0 6.696122065186501,49.63561465032399,0 6.696180570870638,49.63504979386926,0 6.696463627740741,49.63459298014641,0 6.696470333263278,49.63444763794541,0 6.697054384276271,49.63414278812706,0 6.696737799793482,49.63357399217784,0 6.696425322443247,49.63277343660593,0 6.696658926084638,49.63141934014857,0 6.696735536679626,49.6313829626888,0 6.696676025167108,49.63129931129515,0 6.696764873340726,49.63087677955627,0 6.697276337072253,49.62941262871027,0 6.698584500700235,49.62812634184957,0 6.69926100410521,49.62727482430637,0 6.699685882776976,49.62692353874445,0 6.701881270855665,49.62675631977618,0 6.702707642689347,49.6267777774483,0 6.702583339065313,49.62666713632643,0 6.702667577192187,49.62669437751174,0 6.702672857791185,49.62656739167869,0 6.702305311337113,49.62648826651275,0 6.701630400493741,49.62604452855885,0 6.701331585645676,49.62597864679992,0 6.701218597590923,49.62586306035519,0 6.699550012126565,49.62516895495355,0 6.698998734354973,49.62486737407744,0 6.698586512356997,49.62453385815024,0 6.697039715945721,49.62391334585845,0 6.696835616603494,49.62374755181372,0 6.696896804496646,49.62369969114661,0 6.696513835340738,49.62349441833794,0 6.696437140926719,49.62333457544446,0 6.696505285799503,49.62332074530423,0 6.696494640782475,49.62338847108185,0 6.69653738848865,49.62332719936967,0 6.696737380698323,49.62333725765347,0 6.696864198893309,49.62342610582709,0 6.698679216206074,49.62352811358869,0 6.698996890336275,49.6236724499613,0 6.699916301295161,49.62381234392524,0 6.700409660115838,49.62366800755262,0 6.701643308624625,49.62359550409019,0 6.70279573649168,49.62333717383444,0 6.704185707494617,49.62336986325681,0 6.704227868467569,49.62345192208886,0 6.704366756603122,49.62340967729688,0 6.705113332718611,49.62350640445948,0 6.705700736492872,49.62381988763809,0 6.706461058929563,49.62402717210352,0 6.706908568739891,49.62433453649282,0 6.706737913191319,49.62473510764539,0 6.706817541271448,49.62483359500766,0 6.706661973148584,49.62539174593985,0 6.706644203513861,49.62589491158724,0 6.707203360274434,49.62602533400059,0 6.70812570489943,49.62593489326537,0 6.709391372278333,49.6259574405849,0 6.710612531751394,49.62549224495888,0 6.712593007832766,49.62552275508642,0 6.712757963687181,49.62542921304703,0 6.712753521278501,49.625333994627,0 6.712980587035418,49.62505747564137,0 6.713396916165948,49.6247742511332,0 6.713405968621373,49.62440234608948,0 6.712831305339932,49.62380270473659,0 6.711562536656857,49.62306786328554,0 6.710698865354061,49.62278547696769,0 6.710629379376769,49.62273275479674,0 6.710682017728686,49.62268120609224,0 6.710670702159405,49.6228454913944,0 6.71096658334136,49.62262756191194,0 6.710828617215157,49.62276184000075,0 6.710778661072254,49.62262974120677,0 6.710867593064904,49.62277332320809,0 6.710759717971087,49.62260769680142,0 6.710850074887276,49.62269646115601,0 6.710744798183441,49.6227537933737,0 6.710795341059566,49.62268380448222,0 6.710884692147374,49.62273258715868,0 6.710758460685611,49.62269235402346,0 6.710847979411483,49.6226623468101,0 6.710758041590452,49.62272873148322,0 6.710584536194801,49.62267709895968,0 6.7109455447644,49.62261599488556,0 6.710895504802465,49.62271691299975,0 6.710674474015832,49.62267994880676,0 6.71082048676908,49.62259059771895,0 6.710964236408472,49.62262890301645,0 6.710727112367749,49.62272889912128,0 6.710850996896625,49.62258791550994,0 6.710939677432179,49.62259696796536,0 6.710813278332353,49.62260685861111,0 6.710786456242204,49.62254022248089,0 6.710832305252552,49.62260803207755,0 6.710778325796127,49.6226467564702,0 6.710789054632187,49.62257173843682,0 6.710713030770421,49.62266687303782,0 6.710962224751711,49.62237954139709,0 6.711272606626153,49.62243217974901,0 6.711382577195764,49.62227996438742,0 6.711377883329988,49.62206153199077,0 6.711382241919637,49.6221234742552,0 6.711873421445489,49.62216102518141,0 6.711901668459177,49.62208676151931,0 6.712141307070851,49.62208667770028,0 6.712898192927241,49.62263653054833,0 6.71304864808917,49.62269319221377,0 6.71319181099534,49.62261440232396,0 6.713649211451411,49.62297507561743,0 6.71422571875155,49.62300483137369,0 6.714369719848037,49.62316165678203,0 6.714918063953519,49.62331496179104,0 6.715200114995241,49.62350070476532,0 6.715713003650308,49.62333055213094,0 6.715753320604563,49.62307834066451,0 6.71601315960288,49.62326190434396,0 6.716484390199184,49.62321186438203,0 6.716719083487988,49.62299854494631,0 6.717216381803155,49.6229749917984,0 6.717526344582438,49.62261725217104,0 6.71765735372901,49.62256981059909,0 6.717754499986768,49.62218323722482,0 6.718085249885917,49.62219036184251,0 6.718710036948323,49.62169758975506,0 6.718934252858162,49.62166607379913,0 6.718942886218429,49.62155342102051,0 6.719870427623391,49.62143431417644,0 6.720388010144234,49.62149105966091,0 6.7204381339252,49.62134764529765,0 6.720347944647074,49.62124748155475,0 6.720395386219025,49.62134932167828,0 6.720350794494152,49.62127497419715,0 6.720522623509169,49.62130137719214,0 6.720433859154582,49.6212793327868,0 6.720483396202326,49.62137061171234,0 6.720814732834697,49.621343286708,0 6.721060574054718,49.62109467945993,0 6.721383444964886,49.6209629997611,0 6.72127615660429,49.62094472721219,0 6.721503725275397,49.62081329897046,0 6.721608079969883,49.62064566090703,0 6.722051063552499,49.62052026763558,0 6.721982415765524,49.62048757821321,0 6.7220423463732,49.62044969201088,0 6.721964562311769,49.62046964094043,0 6.722023990005255,49.62036419659853,0 6.721964981406927,49.62048732675612,0 6.722053494304419,49.62040476500988,0 6.721984930336475,49.62046394124627,0 6.721920808777213,49.62039311416447,0 6.722260024398565,49.62036201730371,0 6.72194167971611,49.6204415615648,0 6.722034802660346,49.62040166370571,0 6.722032371908426,49.62047575972974,0 6.722579542547464,49.62064205668867,0 6.722805351018906,49.62062235921621,0 6.722931582480669,49.62051733396947,0 6.722935941070318,49.62059964425862,0 6.723137609660625,49.62070073001087,0 6.723575312644243,49.62063082493842,0 6.724155088886619,49.62067499756813,0 6.724795298650861,49.62053786963224,0 6.725176507607102,49.62066326290369,0 6.725124791264534,49.62071715854108,0 6.725232163444161,49.62066560983658,0 6.725359652191401,49.62081363424659,0 6.725606583058834,49.62089351378381,0 6.725965160876513,49.62088379077613,0 6.7258086707443,49.62089854292572,0 6.725635668262839,49.62073191069067,0 6.7255047429353,49.62076744996011,0 6.725562578067183,49.62087800726295,0 6.726007405668497,49.62114530615509,0 6.72668625600636,49.62138729169965,0 6.726898653432727,49.62157680653036,0 6.727143237367272,49.62155543267727,0 6.727084144949913,49.62164067663252,0 6.72722864896059,49.62167361751199,0 6.72719000838697,49.62176246568561,0 6.727296374738216,49.62184192612767,0 6.727362591773272,49.62213763967156,0 6.72807639464736,49.62215691804886,0 6.728457352146506,49.62229706346989,0 6.728819198906422,49.62232522666454,0 6.72970742918551,49.62258062325418,0 6.729876743629575,49.62267944589257,0 6.729886466637254,49.622802156955,0 6.729802396148443,49.62276544421911,0 6.729950420558453,49.62273032404482,0 6.729972548782825,49.62280324660242,0 6.730264658108354,49.62266896851361,0 6.731076277792454,49.62275253608823,0 6.732705216854811,49.6223930362612,0 6.73411538824439,49.62221282534301,0 6.734543032944202,49.62223009206355,0 6.7352753598243,49.62271699681878,0 6.736548906192183,49.62330549024045,0 6.736947717145085,49.62338981218636,0 6.737195234745741,49.62367144413292,0 6.737833181396127,49.62396732531488,0 6.738728703930974,49.62414963170886,0 6.739209573715925,49.62438868358731,0 6.740456884726882,49.62457819841802,0 6.741942493245006,49.62454240769148,0 6.742166876792908,49.62463016621768,0 6.743685929104686,49.62465623393655,0 6.743579562753439,49.62493686005473,0 6.74369296990335,49.62542208842933,0 6.744239889085293,49.62620303034782,0 6.744535937905312,49.62639489211142,0 6.744475420564413,49.62642665952444,0 6.744640460237861,49.62662304751575,0 6.744211055338383,49.62758763693273,0 6.744129499420524,49.62767623364925,0 6.744040483608842,49.62764337658882,0 6.744316415861249,49.6276670973748,0 6.744365785270929,49.62778461165726,0 6.744413897395134,49.6276826877147,0 6.744583044201136,49.6276533510536,0 6.744548175483942,49.62771303020418,0 6.744220862165093,49.62782291695476,0 6.744140982627869,49.6277120243758,0 6.744210300967097,49.62768109515309,0 6.742771547287703,49.62912236340344,0 6.742123542353511,49.62957465089858,0 6.741796145215631,49.62968177162111,0 6.741260457783937,49.63002610020339,0 6.740412460640073,49.63017638772726,0 6.739071607589722,49.63061635382473,0 6.738919224590063,49.63063781149685,0 6.738556623458862,49.63051275350153,0 6.738440450280905,49.63062574155629,0 6.738084722310305,49.63061073794961,0 6.737954802811146,49.63068969547749,0 6.738054966554046,49.63064887560904,0 6.737998388707638,49.6306352969259,0 6.73789638094604,49.63081978261471,0 6.738071562722325,49.63069933466613,0 6.737143853679299,49.63075851090252,0 6.736913099884987,49.63083847425878,0 6.736606992781162,49.63105673901737,0 6.735925208777189,49.63185712695122,0 6.735600493848324,49.63206072337925,0 6.735051311552525,49.63259029202163,0 6.734953997656703,49.63259850628674,0 6.73475593328476,49.63314777240157,0 6.734641268849373,49.63396433740854,0 6.734385620802641,49.6343186404556,0 6.733953533694148,49.63469088077545,0 6.73381925560534,49.6351942140609,0 6.733664693310857,49.63542203418911,0 6.733373673632741,49.63559528812766,0 6.732611423358321,49.63582679629326,0 6.732168272137642,49.6362217515707,0 6.731197983026505,49.63667722418904,0 6.730918111279607,49.63694209232926,0 6.73020338639617,49.6373441722244,0 6.730272537097335,49.63736101984978,0 6.729615395888686,49.63786527514458,0 6.729462258517742,49.63795077055693,0 6.729023717343807,49.63794666342437,0 6.727876402437687,49.637879608199,0 6.727437023073435,49.63774742558599,0 6.727581946179271,49.6376845613122,0 6.727422857657075,49.63781774975359,0 6.727356975898147,49.63781372644007,0 6.727448087185621,49.63769713416696,0 6.726832017302513,49.63763929903507,0 6.726671336218715,49.63772823102772,0 6.726594306528568,49.63783375918865,0 6.726911477744579,49.63831454515457,0 6.727048438042402,49.63919221423566,0 6.727268043905497,49.63978967629373,0 6.727127227932215,49.64012403041124,0 6.726707713678479,49.64014121331275,0 6.726108156144619,49.6404233481735,0 6.725750667974353,49.64043667539954,0 6.725695012137294,49.64050171896815,0 6.717935465276241,49.63796032592654,0 6.717111272737384,49.63798362761736,0 6.717206826433539,49.63796812109649,0 6.717104064300656,49.63797373697162,0 6.717094592750072,49.63784096762538,0 6.71665814705193,49.63735624216497,0 6.716419514268637,49.63732782751322,0 6.716325217857957,49.63738071732223,0 6.716442480683327,49.63737476617098,0 6.716361343860626,49.63744307868183,0 6.71618758700788,49.63733738288283,0 6.71568626537919,49.63729798793793,0 6.71501386910677,49.63743687607348,0 6.715696072205901,49.63737920857966,0 6.715937554836273,49.63743176311255,0 6.715058796107769,49.63771331124008,0 6.715115876868367,49.63769612833858,0 6.715138675644994,49.63778271339834,0 6.715208999812603,49.63773627765477,0 6.71391885727644,49.63844513520598,0 6.712765758857131,49.63869013823569,0 6.712208446115255,49.63871595449746,0 6.711691450327635,49.63892608880997,0 6.710667684674263,49.63911099359393,0 6.709908619523048,49.6390472073108,0 6.709235552698374,49.63938265107572,0 6.708664242178202,49.63997634127736,0 6.70777240768075,49.64132046326995,0 6.707577193155885,49.64173972606659,0 6.707040751352906,49.64200551621616,0 6.706820894032717,49.64224775321782,0 6.706778649240732,49.64256710372865,0 6.706870514899492,49.64266240596771,0 6.707037482410669,49.64255335740745,0 6.706943521276116,49.64268805459142,0 6.707214340567589,49.6429131925106,0 6.707245353609324,49.64305023662746,0 6.706405570730567,49.64329264126718,0 6.706272214651108,49.6432414278388,0 6.705543659627438,49.64330236427486,0 6.704914849251509,49.64355172589421,0 6.704162573441863,49.64414843358099,0 6.704111779108644,49.64420970529318,0 6.704246560111642,49.64485075324774,0 6.704190317541361,49.64490347541869,0 6.704276064410806,49.64495804160833,0 6.704227030277252,49.64516742154956,0 6.704075569286942,49.64533606544137,0 6.704017063602805,49.64572079479694,0 6.704051680862904,49.6459632832557,0 6.704272627830505,49.64621641673148,0 6.701908512040973,49.64717622846365,0 6.701488746330142,49.64765533804893,0 6.701827710494399,49.64788902550936,0 6.702138511464,49.64786622673273,0 6.702297767624259,49.64772935025394,0 
		</coordinates>
	</LineString>
	<atom:link rel="app" href="https://www.google.com/earth/about/versions/#earth-pro" title="Google Earth Pro 7.3.7.1155"></atom:link>
</Placemark>
</kml>
