<?xml version="1.0" encoding="UTF-8"?>
<kml xmlns="http://www.opengis.net/kml/2.2" xmlns:gx="http://www.google.com/kml/ext/2.2" xmlns:kml="http://www.opengis.net/kml/2.2" xmlns:atom="http://www.w3.org/2005/Atom">
<Placemark>
	<name>Track</name>
	<Style>
		<LineStyle>
			<color>ff0000ff</color>
			<width>3</width>
		</LineStyle>
	</Style>
	<LineString>
		<tessellate>1</tessellate>
		<coordinates>
			6.704209428280592,49.64602690190077,0 6.704147402197123,49.64606705121696,0 6.704172715544701,49.64612941257656,0 6.704674540087581,49.64658211916685,0 6.704790210351348,49.64677523821592,0 6.70475416816771,49.64696978218853,0 6.704458119347692,49.64730455540121,0 6.703979345038533,49.64755827561021,0 6.703278115019202,49.64775784872472,0 6.702798586338758,49.64796119369566,0 6.702163489535451,49.6484221983701,0 6.701772222295403,49.64860299602151,0 6.701616402715445,49.64875370264053,0 6.701409369707108,49.64879301376641,0 6.70106939971447,49.64894321747124,0 6.701086666435003,49.64899979531765,0 6.700918106362224,49.64912284165621,0 6.701036458835006,49.64921956881881,0 6.701394952833652,49.64930179528892,0 6.70177398249507,49.64947521686554,0 6.702191568911076,49.64947504922748,0 6.703063789755106,49.64961024932563,0 6.703563937917352,49.64982532896101,0 6.703792428597808,49.64983572252095,0 6.704481756314635,49.65010520070791,0 6.705289436504245,49.650525636971,0 6.705523878335953,49.65069243684411,0 6.705506443977356,49.65073669329286,0 6.705057760700583,49.6508589014411,0 6.70444680377841,49.65117179788649,0 6.70400164090097,49.6515804156661,0 6.703513395041227,49.65185961686075,0 6.702758353203535,49.65246420353651,0 6.70251234434545,49.65275061316788,0 6.702357027679682,49.65283988043666,0 6.702286116778851,49.653031071648,0 6.702538328245282,49.65315629728138,0 6.702688951045275,49.65317892841995,0 6.703959312289953,49.653266267851,0 6.705554639920592,49.65312821790576,0 6.706956177949905,49.65289771556854,0 6.708121346309781,49.65288539417088,0 6.70914595015347,49.65268950909376,0 6.710396530106664,49.65301699005067,0 6.710906233638525,49.65349584817886,0 6.711706286296248,49.65436656028032,0 6.712410449981689,49.65502495877445,0 6.712714629247785,49.65560272336006,0 6.713072536513209,49.65592157095671,0 6.713547874242067,49.65648642741144,0 6.713599422946572,49.65666269883513,0 6.713472856208682,49.65684399940073,0 6.713353917002678,49.65691239573061,0 6.712668528780341,49.65705513954163,0 6.712369630113244,49.65723644010723,0 6.712233759462833,49.65745026245713,0 6.712257312610745,49.65755478478968,0 6.712441882118583,49.65781940147281,0 6.713358359411359,49.65864401310682,0 6.713725151494145,49.65877384878695,0 6.714446749538183,49.658911395818,0 6.714481199160218,49.65896378271282,0 6.714492850005627,49.65891525149345,0 6.714613130316138,49.65894190594554,0 6.714942706748843,49.6591098792851,0 6.714975563809276,49.65946476906538,0 6.715211095288396,49.6598472353071,0 6.715088887140155,49.66030614450574,0 6.715075224637985,49.66101885773242,0 6.715122833848,49.66132312081754,0 6.715338500216603,49.66173559427261,0 6.715508317574859,49.66180851683021,0 6.715529020875692,49.66188982129097,0 6.715685511007905,49.66202376410365,0 6.716245589777827,49.66230397112668,0 6.717525338754058,49.66262575238943,0 6.71777855604887,49.66274552978575,0 6.7181362118572,49.66281677596271,0 6.718251463025808,49.6629068814218,0 6.718489173799753,49.66277838684618,0 6.718594366684556,49.66276589781046,0 6.718682376667857,49.66280277818441,0 6.718671228736639,49.66283379122615,0 6.718476014211774,49.66284435242414,0 6.718591768294573,49.66276329942048,0 6.718570981174707,49.66273647733033,0 6.718670893460512,49.66278048232198,0 6.718508955091238,49.6627187076956,0 6.718755383044481,49.6626291051507,0 6.718909107148647,49.66251846402884,0 6.718969373032451,49.66237370856106,0 6.718837274238467,49.66231746599078,0 6.718456065282226,49.66185034252703,0 6.718413988128304,49.66153199784458,0 6.718331594020128,49.66139478608966,0 6.718286415562034,49.66115179471672,0 6.718188934028149,49.66105883941054,0 6.718062283471227,49.66104651801288,0 6.717981398105621,49.6606726013124,0 6.717602619901299,49.66030321083963,0 6.717410255223513,49.66003415174782,0 6.717371363192797,49.65978370048106,0 6.717487704008818,49.65965109877288,0 6.717432383447886,49.65988084673882,0 6.717567499727011,49.65986207127571,0 6.71767252497375,49.65973240323365,0 6.717746872454882,49.65972427278757,0 6.717922808602452,49.65943476185203,0 6.718138726428151,49.65922823175788,0 6.718565113842487,49.6589890960604,0 6.718871723860502,49.65869732201099,0 6.718989238142967,49.658625992015,0 6.719365920871496,49.65861945413053,0 6.719756601378322,49.65874048881233,0 6.719958605244756,49.65886445716023,0 6.72069177031517,49.65905489400029,0 6.721603637561202,49.6591217815876,0 6.722061540931463,49.6590353641659,0 6.722433194518089,49.65912622399628,0 6.722547020763159,49.65920442715287,0 6.72272052615881,49.65920710936189,0 6.722709042951465,49.65914064086974,0 6.722897551953793,49.65906486846507,0 6.723274905234575,49.65901298448443,0 6.723636668175459,49.65885104611516,0 6.723787961527705,49.65871903114021,0 6.723898435011506,49.65869120322168,0 6.72405400313437,49.65847042389214,0 6.724401768296957,49.65825433842838,0 6.724524479359388,49.65809977613389,0 6.724611232057214,49.65806256048381,0 6.725012557581067,49.65799290686846,0 6.725325286388397,49.65781453996897,0 6.725435089319944,49.65787438675761,0 6.725462162867188,49.65781026519835,0 6.725715883076191,49.65773742645979,0 6.72582870349288,49.65781252831221,0 6.726253414526582,49.65755646117032,0 6.726541668176651,49.6575780864805,0 6.726790610700846,49.65740013867617,0 6.726702265441418,49.6572894975543,0 6.726840566843748,49.65718975290656,0 6.726942323148251,49.65723065659404,0 6.727094119414687,49.65706980787218,0 6.727298218756914,49.65695531107485,0 6.727325459942222,49.65687777847052,0 6.727494522929192,49.65685313567519,0 6.727943206205964,49.65651400387287,0 6.728367414325476,49.65640126727521,0 6.72918607480824,49.65631853789091,0 6.729339044541121,49.65624410659075,0 6.729642385616899,49.65620873495936,0 6.729695778340101,49.656255338341,0 6.729721846058965,49.65620194561779,0 6.729689827188849,49.65624989010394,0 6.729785716161132,49.65620420873165,0 6.729818657040596,49.65611737221479,0 6.72992879524827,49.65612776577473,0 6.729862159118056,49.65608711354434,0 6.730119902640581,49.65603497810662,0 6.73049901612103,49.65587974525988,0 6.730725578963757,49.65572828426957,0 6.731066973879933,49.65564178302884,0 6.731702657416463,49.65538655407727,0 6.731997868046165,49.65539434924722,0 6.732100965455174,49.65521472506225,0 6.732267765328288,49.65512453578413,0 6.732824994251132,49.6544539835304,0 6.732978466898203,49.65440729632974,0 6.733202515169978,49.65412306599319,0 6.733348360285163,49.65413387864828,0 6.733559248968959,49.65394025668502,0 6.733642145991325,49.65369567275047,0 6.733830822631717,49.65344086289406,0 6.733790254220366,49.65322947129607,0 6.733849765732884,49.65324187651277,0 6.733930483460426,49.65290551073849,0 6.73405671492219,49.65270987711847,0 6.735045779496431,49.65207888744771,0 6.735179051756859,49.65192290022969,0 6.735308216884732,49.65192818082869,0 6.735363537445664,49.65177546255291,0 6.735282484441996,49.65179080143571,0 6.735263122245669,49.65169172734022,0 6.735187852755189,49.65168594382703,0 6.735277622938156,49.65149282477796,0 6.735174441710114,49.65156591497362,0 6.735212411731482,49.6516274381429,0 6.735186176374555,49.65160966850817,0 6.735250884667039,49.65160723775625,0 6.735237808898091,49.65153582394123,0 6.735310647636652,49.65157873928547,0 6.73538968898356,49.65156172402203,0 6.735297739505768,49.65159122832119,0 6.73536135815084,49.65156499296427,0 6.735328920185566,49.65155535377562,0 6.735360184684396,49.65151721611619,0 6.735285418108106,49.65153221972287,0 6.73542439006269,49.65144529938698,0 6.735262703150511,49.65146055445075,0 6.735299415886402,49.65148041956127,0 6.735220458358526,49.65155275538564,0 6.735294051468372,49.65155074372888,0 6.735287262126803,49.6516340598464,0 6.735475519672036,49.65184377506375,0 6.735590100288391,49.65178401209414,0 6.735649779438972,49.65165526606143,0 6.735801743343472,49.65158184058964,0 6.735724797472358,49.65146960690618,0 6.73576645553112,49.65142266824841,0 6.735724210739136,49.65135485865176,0 6.7357122246176,49.6514754742384,0 6.735769808292389,49.65147849172354,0 6.735727479681373,49.65140682645142,0 6.735786823555827,49.65148016810417,0 6.735843988135457,49.65146876871586,0 6.735759666189551,49.65129358693957,0 6.73559982329607,49.6511866338551,0 6.735641481354833,49.65109250508249,0 6.735490774735808,49.65101664885879,0 6.735513238236308,49.6510864701122,0 6.735610468313098,49.65108462609351,0 6.735587669536471,49.65110423974693,0 6.735643995925784,49.65107909403741,0 6.735601080581546,49.65105126611888,0 6.735677188262343,49.65105176903307,0 6.735542742535472,49.65116299688816,0 6.7355015873909,49.65110063552856,0 6.735580796375871,49.6510624140501,0 6.735528912395239,49.65099695138633,0 6.735563026741147,49.65100273489952,0 6.735679619014263,49.65125075541437,0 6.735721360892057,49.65089410543442,0 6.735576102510095,49.65079394169152,0 6.735631925985217,49.65073526836932,0 6.735537797212601,49.65032489039004,0 6.73563988879323,49.6499106567353,0 6.73572932370007,49.64979641139507,0 6.735579706728458,49.64980563148856,0 6.735576270148158,49.6497708465904,0 6.73561155796051,49.64962483383715,0 6.735720103606582,49.64948301203549,0 6.735794618725777,49.64914354495704,0 6.735645169392228,49.64883416891098,0 6.735421875491738,49.64858187362552,0 6.735188355669379,49.64820560999215,0 6.735224230214953,49.64809346012771,0 6.735169664025307,49.64791878126562,0 6.735181314870715,49.64725208468735,0 6.734888786450028,49.64674472808838,0 6.734762554988265,49.64667381718755,0 6.734573291614652,49.64644859544933,0 6.733837947249413,49.64543379843235,0 6.733359675854445,49.64521285146475,0 6.732823317870498,49.64476249180734,0 6.732311770319939,49.64446258731186,0 6.732090823352337,49.64421599172056,0 6.731872223317623,49.64407567866147,0 6.731601571664214,49.64381131343544,0 6.731598386541009,49.64368298649788,0 6.731392946094275,49.64331284165382,0 6.731411889195442,49.64305861853063,0 6.731355395168066,49.64261412620544,0 6.731432173401117,49.64239058084786,0 6.731401579454541,49.64188858866692,0 6.731257326900959,49.64187794364989,0 6.731438878923655,49.641487095505,0 6.731446338817477,49.64137704111636,0 6.731516746804118,49.6413401607424,0 6.731390515342355,49.6408966742456,0 6.731180883944035,49.64083255268633,0 6.730736391618848,49.64080941863358,0 6.73061192035675,49.64084898121655,0 6.730341855436563,49.64077136479318,0 6.729876408353448,49.64077396318316,0 6.729851011186838,49.64080044999719,0 6.729898955672979,49.640844874084,0 6.729877162724733,49.64080774225295,0 6.729551777243614,49.64097722433507,0 6.729546831920743,49.64101846329868,0 6.729267295449972,49.64110923931003,0 6.728752227500081,49.64146479964256,0 6.728652231395245,49.64148391038179,0 6.728609232231975,49.6415735129267,0 6.728132385760546,49.64168038219213,0 6.728411838412285,49.64167384430766,0 6.729062777012587,49.64139799587429,0 6.728374706581235,49.64163897559047,0 6.728056110441685,49.64167744852602,0 6.726300185546279,49.64086934924126,0 6.725309193134308,49.64033575728536,0 6.722711138427258,49.63909205049276,0 6.7225397285074,49.63907402940094,0 6.722054500132799,49.63929086923599,0 6.721741603687406,49.63934132829309,0 6.721243802458048,49.63921383954585,0 6.720705013722181,49.63891636580229,0 6.720432098954916,49.63904628530145,0 6.720251636579633,49.63906564749777,0 6.71893953345716,49.63886733166873,0 6.718870801851153,49.63881796225905,0 6.71892000362277,49.63860405609012,0 6.718777595087886,49.63821379467845,0 6.718590343371034,49.63796904310584,0 6.718439217656851,49.63793316856027,0 6.717399610206485,49.63794322684407,0 6.716965092346072,49.63797038421035,0 6.716819582507014,49.63802587240934,0 6.716676838696003,49.63789637200534,0 6.716101253405213,49.63793626986444,0 6.715675201267004,49.63805386796594,0 6.71498553827405,49.6383458096534,0 6.714902389794588,49.63844873942435,0 6.714607011526823,49.63860078714788,0 6.713710147887468,49.63888057507575,0 6.712896097451448,49.63900353759527,0 6.712355883792043,49.63918467052281,0 6.710793329402804,49.63943880982697,0 6.71049258671701,49.63943428359926,0 6.71006066724658,49.63955414481461,0 6.70972446911037,49.63973368518054,0 6.709537887945771,49.63986134156585,0 6.709454907104373,49.63999914005399,0 6.709297662600875,49.64012688025832,0 6.709308307617903,49.64026736095548,0 6.709133125841618,49.64045176282525,0 6.709041511639953,49.64085099287331,0 6.709118960425258,49.6414350438863,0 6.709097921848297,49.64176738634706,0 6.708949562162161,49.64187727309763,0 6.708645550534129,49.64224129915237,0 6.706784348934889,49.64320622384548,0 6.705689337104559,49.64322223328054,0 6.705029597505927,49.64345265179873,0 6.704236418008804,49.64406847022474,0 6.70415410771966,49.64422353543341,0 6.704261898994446,49.64459083043039,0 6.7042953427881,49.64514906518161,0 6.704008765518665,49.64558450505137,0 6.704097697511315,49.64597267098725,0 6.704221414402127,49.64607870206237,0 6.704291235655546,49.64622681029141,0 6.70288123190403,49.64676350355148,0 6.702426848933101,49.64700096286833,0 6.701911278069019,49.64715711772442,0 6.701841875910759,49.64722878299654,0 6.702147061005235,49.64737001806498,0 6.70239650644362,49.64761544018984,0 6.702290559187531,49.64768031612039,0 
		</coordinates>
	</LineString>
	<atom:link rel="app" href="https://www.google.com/earth/about/versions/#earth-pro" title="Google Earth Pro 7.3.7.1155"></atom:link>
</Placemark>
</kml>
