<?xml version="1.0" encoding="UTF-8"?>
<kml xmlns="http://www.opengis.net/kml/2.2" xmlns:gx="http://www.google.com/kml/ext/2.2" xmlns:kml="http://www.opengis.net/kml/2.2" xmlns:atom="http://www.w3.org/2005/Atom">
<Placemark>
	<name>Track</name>
	<Style>
		<LineStyle>
			<color>ff0000ff</color>
			<width>3</width>
		</LineStyle>
	</Style>
	<LineString>
		<tessellate>1</tessellate>
		<coordinates>
			172.6547680143267,-43.60348080284894,0 172.6546538528055,-43.60349337570369,0 172.6547272782773,-43.60357417725027,0 172.6546707842499,-43.60361650586128,0 172.6542563829571,-43.60374893993139,0 172.654073825106,-43.6037608422339,0 172.6538130640984,-43.60370426438749,0 172.6536131557077,-43.60373645089567,0 172.653582142666,-43.60371172428131,0 172.6535286661237,-43.603829825297,0 172.6533641293645,-43.60393359325826,0 172.6532046217471,-43.60381850972772,0 172.6530989259481,-43.60383410006762,0 172.6528650708497,-43.60375614836812,0 172.6527675893158,-43.60377190634608,0 172.6526374183595,-43.60372756607831,0 172.6524064969271,-43.60374131239951,0 172.6519850548357,-43.60363318584859,0 172.6518708094954,-43.60380107536912,0 172.6517562288791,-43.6040819529444,0 172.6515006646514,-43.60428798012435,0 172.6514169294387,-43.60429544001818,0 172.6513924542814,-43.60434556379914,0 172.651417767629,-43.60450347885489,0 172.6514477748424,-43.60450255684555,0 172.6514244731516,-43.6044548638165,0 172.6511720940471,-43.60440708696842,0 172.650992302224,-43.60456617549062,0 172.650838829577,-43.60458360984921,0 172.6507942378521,-43.60462325625122,0 172.6506637316197,-43.60494051128626,0 172.6505804155022,-43.60501871444285,0 172.6502464804798,-43.6050680000335,0 172.650104323402,-43.60516196116805,0 172.6499625854194,-43.60507445409894,0 172.649860996753,-43.60510119237006,0 172.6497471705079,-43.60527930781245,0 172.6497116312385,-43.60528576187789,0 172.6497133914381,-43.6053320299834,0 172.6496539637446,-43.60541752539575,0 172.6493735052645,-43.60558088868856,0 172.6493147481233,-43.60579621978104,0 172.6492332760245,-43.60592840239406,0 172.6491482835263,-43.60594139434397,0 172.6490393187851,-43.60604641959071,0 172.6489959005266,-43.60613753087819,0 172.6491616107523,-43.60623224638402,0 172.6492045260966,-43.60631036572158,0 172.6491790451109,-43.60630927607417,0 172.6492165122181,-43.60632268711925,0 172.6492336113006,-43.60630114562809,0 172.6490378100425,-43.60619368962944,0 172.648687614128,-43.60608791001141,0 172.6485941559076,-43.60596695914865,0 172.6485036313534,-43.60602948814631,0 172.6484198961407,-43.60602119006217,0 172.6482061576098,-43.60596385784447,0 172.6481369230896,-43.60591281205416,0 172.6481094304472,-43.60596067272127,0 172.6480345800519,-43.60598556697369,0 172.6478191651404,-43.60598925501108,0 172.6475868187845,-43.6059224512428,0 172.6473597530276,-43.60590116120875,0 172.6470594294369,-43.60578934662044,0 172.6470325235277,-43.60582714900374,0 172.6467280928046,-43.60584056004882,0 172.6466365624219,-43.60594533383846,0 172.6464456226677,-43.6060641054064,0 172.6462266873568,-43.60596084035933,0 172.6460286229849,-43.60591549426317,0 172.6458943448961,-43.60578012652695,0 172.6459077559412,-43.6057501193136,0 172.6459595561028,-43.60597249120474,0 172.6462519168854,-43.60623274929821,0 172.6462673395872,-43.60628387890756,0 172.6459961850196,-43.60629335045815,0 172.6457776688039,-43.6063558794558,0 172.6456119585782,-43.60633878037333,0 172.6455724798143,-43.6063080187887,0 172.6455987989902,-43.6062889918685,0 172.6456785108894,-43.60629879869521,0 172.6456285547465,-43.60634967684746,0 172.6456065103412,-43.60630919225514,0 172.6456651836634,-43.60631112009287,0 172.6454909238964,-43.60633769072592,0 172.6453030854464,-43.60630818642676,0 172.6451027579606,-43.60633324831724,0 172.645067051053,-43.60636518336833,0 172.6453732419759,-43.60626820474863,0 172.6453844737262,-43.60632754862309,0 172.6455754972994,-43.60655603930354,0 172.6456153113395,-43.60665142536163,0 172.6456137187779,-43.60678176395595,0 172.6456657703966,-43.60688938759267,0 172.6456413790584,-43.60707035288215,0 172.6454966235906,-43.60729783773422,0 172.645479105413,-43.60743882134557,0 172.6455199252814,-43.60749171115458,0 172.6454216893762,-43.6076357960701,0 172.6453837193549,-43.60787929035723,0 172.6452037598938,-43.60799529589713,0 172.645159335807,-43.60810643993318,0 172.6451103854924,-43.60814474523067,0 172.6451406441629,-43.60817240551114,0 172.6446845009923,-43.60819067806005,0 172.6443062257022,-43.60832143574953,0 172.6442519109696,-43.60835504718125,0 172.6442809961736,-43.60837273299694,0 172.6441333908588,-43.60838195309043,0 172.6440380048007,-43.60846032388508,0 172.6439702790231,-43.60845621675253,0 172.644022917375,-43.60837021842599,0 172.6440742984414,-43.60840508714318,0 172.6441509090364,-43.6084043327719,0 172.6439770683646,-43.60813284292817,0 172.6439213287085,-43.60790552571416,0 172.6439300458878,-43.60782623291016,0 172.6439865399152,-43.60773880966008,0 172.6439990289509,-43.60760729759932,0 172.644142024219,-43.60740470699966,0 172.644133977592,-43.60694269649684,0 172.6441772282124,-43.6067483201623,0 172.6442664954811,-43.60662787221372,0 172.6444365642965,-43.60653776675463,0 172.644681064412,-43.60648286528885,0 172.6446615345776,-43.60644967295229,0 172.6446895301342,-43.60643349587917,0 172.645053807646,-43.60638555139303,0 172.6453488506377,-43.60627884976566,0 172.645516237244,-43.60628999769688,0 172.6456357631832,-43.60626149922609,0 172.6455837953836,-43.60631044954062,0 172.6461271103472,-43.60635780729353,0 172.6462490670383,-43.60632553696632,0 172.6462551858276,-43.60626250505447,0 172.6459170598537,-43.60597617924213,0 172.6458812691271,-43.6057260632515,0 172.645751517266,-43.60550235025585,0 172.6457827817649,-43.60539816319942,0 172.6456329971552,-43.6051198001951,0 172.6456345897168,-43.60505601391196,0 172.6457826979458,-43.60517939552665,0 172.6463054772466,-43.60532155260444,0 172.6464008633047,-43.60539531335235,0 172.6468554139137,-43.60547653399408,0 172.6468564197421,-43.60544317401946,0 172.6467157714069,-43.60532431863248,0 172.6466581877321,-43.60512876883149,0 172.646750388667,-43.60501485876739,0 172.6470632012933,-43.60513706691563,0 172.6469238102436,-43.6049332190305,0 172.6471652090549,-43.60503405332565,0 172.6472412329167,-43.60501427203417,0 172.647318681702,-43.6050405073911,0 172.6474061887711,-43.60504352487624,0 172.647506268695,-43.60500253736973,0 172.6477544568479,-43.60502114519477,0 172.6478548720479,-43.6049469653517,0 172.6480917446315,-43.60496615990996,0 172.648217137903,-43.60505986958742,0 172.6483144517988,-43.60504461452365,0 172.6484490651637,-43.60496289096773,0 172.648656014353,-43.605005890131,0 172.6488152705133,-43.60478268004954,0 172.6488134264946,-43.60471101477742,0 172.6488839183003,-43.60465686768293,0 172.6489049568772,-43.60451303422451,0 172.6490487903357,-43.60439300537109,0 172.6493026781827,-43.60432611778378,0 172.6493481080979,-43.60435000620782,0 172.6494181808084,-43.60432670451701,0 172.6494755130261,-43.60436224378645,0 172.6496023312211,-43.60431337729096,0 172.6496255490929,-43.60434874892235,0 172.6497304067016,-43.60431522130966,0 172.6497594080865,-43.60426241531968,0 172.6501501724124,-43.60406527295709,0 172.6501578837633,-43.60400844365358,0 172.650281181559,-43.60400869511068,0 172.6502989511937,-43.60404683277011,0 172.6504030544311,-43.604033337906,0 172.6504911482334,-43.60397634096444,0 172.6505434513092,-43.60387173481286,0 172.6506949122995,-43.60376738011837,0 172.6507364865392,-43.60367467626929,0 172.6508683338761,-43.60355355776846,0 172.6512321922928,-43.60337175428867,0 172.6513889338821,-43.603340908885,0 172.651460012421,-43.60329589806497,0 172.6515281572938,-43.60330930911005,0 172.6516315061599,-43.60325859859586,0 172.6514743454754,-43.60318148508668,0 172.6513968966901,-43.60318634659052,0 172.6514201145619,-43.60300521366298,0 172.6513395644724,-43.60295659862459,0 172.6513645425439,-43.60296280123293,0 172.6513310987502,-43.60289222560823,0 172.6518279779702,-43.60292508266866,0 172.6519351825118,-43.60297269187868,0 172.6520262099802,-43.60296917147934,0 172.6523697003722,-43.60305994749069,0 172.6523466501385,-43.6030787229538,0 172.6523312274367,-43.60304527916014,0 172.6524142920971,-43.60302390530705,0 172.6523866318166,-43.60299649648368,0 172.6525078341365,-43.60304083675146,0 172.6525711175054,-43.60308852978051,0 172.6525519229472,-43.60309456475079,0 172.6525708660483,-43.60304737463593,0 172.6525978557765,-43.60305005684495,0 172.6527380011976,-43.60314443707466,0 172.6528352312744,-43.60312549397349,0 172.6530390791595,-43.60325742512941,0 172.6532757841051,-43.60330897383392,0 172.6533197890967,-43.60334451310337,0 172.6535543147475,-43.60336798243225,0 172.6536712422967,-43.60342112369835,0 172.6542089413851,-43.60337343066931,0 172.6543971989304,-43.60340452753007,0 172.6545614842325,-43.60348952002823,0 172.6547044795007,-43.60347745008767,0 172.6550476346165,-43.60337259247899,0 172.655432112515,-43.60342464409769,0 172.655754731968,-43.6033808067441,0 172.6559649500996,-43.60342288389802,0 172.6563244499266,-43.60343034379184,0 172.6566734723747,-43.60357618890703,0 172.6567117776722,-43.60358197242022,0 172.6567174773663,-43.60355456359684,0 172.6567494124174,-43.60361826606095,0 172.6568427029997,-43.60365053638816,0 172.6571794040501,-43.60367299988866,0 172.6574503071606,-43.60381205566227,0 172.6576652191579,-43.60401489771903,0 172.6577575039119,-43.60416015610099,0 172.6577485352755,-43.60422922298312,0 172.6577954739332,-43.60434246249497,0 172.6578625291586,-43.60437464900315,0 172.6578618586063,-43.60443977639079,0 172.6578495372087,-43.60441270284355,0 172.6579737570137,-43.6045703664422,0 172.6580569893122,-43.60459953546524,0 172.6581492740661,-43.60471235588193,0 172.6580959651619,-43.60462711192667,0 172.6580306701362,-43.6045981105417,0 172.658080291003,-43.60460909083486,0 172.6578527223319,-43.60442318022251,0 172.6578486151993,-43.60435646027327,0 172.657781643793,-43.60426895320415,0 172.6579627767205,-43.60456751659513,0 172.6581704802811,-43.60473708249629,0 172.6579035166651,-43.60447975806892,0 172.6580008305609,-43.60455150716007,0 172.6579186879098,-43.60447808168828,0 172.6578844897449,-43.60438453964889,0 172.6577512174845,-43.60422084107995,0 172.6576906163245,-43.60406778752804,0 172.6575474534184,-43.60391573980451,0 172.6575595233589,-43.6038314178586,0 172.6575266662985,-43.60377651639283,0 172.657385263592,-43.60371734015644,0 172.657482996583,-43.60360552556813,0 172.6574312802404,-43.60330134630203,0 172.6574760396034,-43.60310470685363,0 172.6574110798538,-43.60296070575714,0 172.6574236527085,-43.60291183926165,0 172.6575845852494,-43.60282533802092,0 172.6577914506197,-43.602777980268,0 172.6581525430083,-43.60234354622662,0 172.6581481844187,-43.60226048156619,0 172.6579942088574,-43.60221454873681,0 172.658151788637,-43.60220708884299,0 172.6583097875118,-43.60212586820126,0 172.6584277208894,-43.60192403197289,0 172.6584777608514,-43.60190492123365,0 172.6584896631539,-43.60192839056253,0 172.6585158146918,-43.60179863870144,0 172.6584366895258,-43.60160384327173,0 172.6584202609956,-43.60145984217525,0 172.6584606617689,-43.6012686509639,0 172.6585575565696,-43.601033706218,0 172.658606339246,-43.60099380835891,0 172.6587334927171,-43.60102817416191,0 172.6588026434183,-43.60097243450582,0 172.6588794216514,-43.60079783946276,0 172.6589451357722,-43.60077202320099,0 172.6589975226671,-43.60055023804307,0 172.6591655798256,-43.60023088753223,0 172.6593923103064,-43.60001186840236,0 172.6595085673034,-43.59981740824878,0 172.6599016785622,-43.59965538606048,0 172.6600797101855,-43.59944835305214,0 172.6602062769234,-43.59938330948353,0 172.6602380443364,-43.59924299642444,0 172.660358492285,-43.59899749048054,0 172.6606037467718,-43.59910829924047,0 172.6607421319932,-43.59912799671292,0 172.6608462352306,-43.59907552599907,0 172.6607196684927,-43.59911559149623,0 172.6606237795204,-43.59910704195499,0 172.6604818738997,-43.5990063752979,0 172.6603661198169,-43.59900930896401,0 172.6602213643491,-43.59926939941943,0 172.6600721664727,-43.5994212795049,0 172.6600986532867,-43.59945950098336,0 172.6600459311157,-43.59952387399971,0 172.6596523169428,-43.59973702579737,0 172.6595559250563,-43.59982972964644,0 172.6594303641468,-43.60006249509752,0 172.6593447849154,-43.6001168936491,0 172.6591080799699,-43.6004969291389,0 172.6590249314904,-43.60056540928781,0 172.6589274499565,-43.60082684084773,0 172.6587848737836,-43.60101434402168,0 172.6586744841188,-43.60095684416592,0 172.6586000528187,-43.60098970122635,0 172.6585552934557,-43.6010717600584,0 172.6584696304053,-43.60113521106541,0 172.6584709715098,-43.60165539197624,0 172.6585283037275,-43.60184817574918,0 172.6584606617689,-43.60192118212581,0 172.6584324985743,-43.6020112875849,0 172.6582169160247,-43.60222016461194,0 172.6581284031272,-43.6024100985378,0 172.65803813003,-43.60248771496117,0 172.6573938131332,-43.60263666138053,0 172.6568801701069,-43.6028974223882,0 172.656465601176,-43.60303832218051,0 172.6563734840602,-43.60313756391406,0 172.6562358532101,-43.60316907986999,0 172.6559790316969,-43.60332137905061,0 172.6554409135133,-43.60338591970503,0 172.6550309546292,-43.60336387529969,0 172.6549361553043,-43.60337787307799,0 172.6548287831247,-43.6034445092082,0 172.6547248475254,-43.60341290943325,0 172.6547430362552,-43.60347837209702,0 172.6547523401678,-43.60344878397882,0 
		</coordinates>
	</LineString>
	<atom:link rel="app" href="https://www.google.com/earth/about/versions/#earth-pro" title="Google Earth Pro 7.3.7.1155"></atom:link>
</Placemark>
</kml>
