<?xml version="1.0" encoding="UTF-8"?>
<kml xmlns="http://www.opengis.net/kml/2.2" xmlns:gx="http://www.google.com/kml/ext/2.2" xmlns:kml="http://www.opengis.net/kml/2.2" xmlns:atom="http://www.w3.org/2005/Atom">
<Placemark>
	<name>Track</name>
	<Style>
		<LineStyle>
			<color>ff0000ff</color>
			<width>3</width>
		</LineStyle>
	</Style>
	<LineString>
		<tessellate>1</tessellate>
		<coordinates>
			6.741770664229989,49.5197531953454,0 6.741812489926815,49.51970407739282,0 6.741661867126822,49.51967474073172,0 6.741643091663718,49.51960357837379,0 6.741835037246346,49.51942278072238,0 6.741857836022973,49.51931758783758,0 6.741319298744202,49.51921742409468,0 6.740742120891809,49.51898775994778,0 6.740227472037077,49.51940023340285,0 6.739989845082164,49.51940123923123,0 6.739390958100557,49.51986148953438,0 6.739144530147314,49.51992804184556,0 6.739490199834108,49.52005100436509,0 6.739948354661465,49.52036046423018,0 6.740142647176981,49.52037530019879,0 6.739840395748615,49.52030221000314,0 6.739666806533933,49.52042927965522,0 6.739702681079507,49.52058317139745,0 6.739643169566989,49.52067989856005,0 6.739272437989712,49.52094040811062,0 6.738799950107932,49.52112397179008,0 6.738668773323298,49.52140468172729,0 6.738498788326979,49.52136905863881,0 6.738597108051181,49.52147307805717,0 6.738544721156359,49.52155647799373,0 6.738117160275578,49.52180240303278,0 6.738022277131677,49.52196082100272,0 6.737758917734027,49.52207271941006,0 6.737514669075608,49.52229710295796,0 6.737416014075279,49.52249684371054,0 6.73708769492805,49.52285190112889,0 6.737243933603168,49.52295617200434,0 6.737231863662601,49.52310268767178,0 6.736937155947089,49.52333997935057,0 6.736356290057302,49.5233125705272,0 6.735991174355149,49.52311081811786,0 6.735477950423956,49.52293479815125,0 6.735044354572892,49.52288098633289,0 6.734692147001624,49.52269172295928,0 6.734402468428016,49.52263028360903,0 6.734183952212334,49.52265517786145,0 6.733375769108534,49.52321877703071,0 6.733319610357285,49.52356880530715,0 6.733444165438414,49.52368690632284,0 6.73340393230319,49.52374868094921,0 6.733450451865792,49.52394615858793,0 6.733217602595687,49.52418026514351,0 6.733299912884831,49.5242571271956,0 6.733221542090178,49.52422234229743,0 6.733211819082499,49.52413969673216,0 6.732699181884527,49.52426173724234,0 6.732378322631121,49.52392243780196,0 6.73228545114398,49.52390131540596,0 6.732123764231801,49.52367483638227,0 6.732340520247817,49.52346805483103,0 6.732247481122613,49.52329748310149,0 6.73231084831059,49.52317242510617,0 6.732275057584047,49.5230395719409,0 6.731782285496593,49.52274033799767,0 6.731891417875886,49.52262894250453,0 6.731805335730314,49.52255551703274,0 6.731860740110278,49.52257940545678,0 6.732163662090898,49.52218176797032,0 6.732140695676208,49.52201614156365,0 6.731928465887904,49.52165798284113,0 6.731016095727682,49.52093504369259,0 6.730865221470594,49.52067436650395,0 6.730563640594482,49.5205460395664,0 6.729890070855618,49.52041670680046,0 6.729524955153465,49.52045450918376,0 6.728937048465014,49.52062969096005,0 6.72902530990541,49.52056473121047,0 6.728956075385213,49.52055090107024,0 6.728045549243689,49.52097284607589,0 6.72762930393219,49.52129437588155,0 6.726921116933227,49.52152588404715,0 6.726661697030067,49.52171799726784,0 6.72617269679904,49.5219137147069,0 6.725913193076849,49.52187616378069,0 6.725849574431777,49.52205712907016,0 6.725672883912921,49.52215435914695,0 6.725453613325953,49.52218336053193,0 6.72529217787087,49.52231529168785,0 6.725005013868213,49.52233264222741,0 6.725032422691584,49.52249106019735,0 6.724582817405462,49.52279875986278,0 6.724039921537042,49.52269767411053,0 6.722716419026256,49.52267579734325,0 6.72273762524128,49.52274025417864,0 6.722676604986191,49.52261368744075,0 6.7223462741822,49.52233423478901,0 6.722368989139795,49.52217447571456,0 6.722282990813255,49.52208705246449,0 6.721838330850005,49.52207515016198,0 6.721466593444347,49.52215905301273,0 6.721136933192611,49.52204413712025,0 6.720635108649731,49.5221296325326,0 6.720149544999003,49.52203541994095,0 6.719901524484158,49.52212041243911,0 6.71926056034863,49.52216131612659,0 6.718985131010413,49.5220810174942,0 6.718691848218441,49.52209400944412,0 6.71846360899508,49.52214849181473,0 6.718460507690907,49.52221445739269,0 6.718220869079232,49.52214346267283,0 6.718179127201438,49.52226432971656,0 6.718354560434818,49.52259625308216,0 6.718330504372716,49.52281133271754,0 6.71839420683682,49.52279096469283,0 6.718360343948007,49.52276783064008,0 6.718426728621125,49.52299179509282,0 6.718542063608766,49.52317728661001,0 6.718535274267197,49.52340326271951,0 6.718377778306603,49.52370434068143,0 6.718293959274888,49.52371356077492,0 6.718304855749011,49.52384733594954,0 6.718376688659191,49.52386066317558,0 6.718192705884576,49.52391933649778,0 6.718180635944009,49.52409577555954,0 6.718234783038497,49.52403701841831,0 6.718273758888245,49.52386611141264,0 6.718111904338002,49.52393534593284,0 6.716723525896668,49.52404380775988,0 6.71637374907732,49.52418671920896,0 6.716197058558464,49.52440330758691,0 6.716271406039596,49.52454345300794,0 6.716528898105025,49.52469114214182,0 6.716615986078978,49.52480882406235,0 6.7166683729738,49.52496740967035,0 6.71663467772305,49.52515508048236,0 6.716786222532392,49.52574147842824,0 6.71703340485692,49.52612101100385,0 6.717212107032537,49.52672869898379,0 6.717367088422179,49.52688921242952,0 6.717366250231862,49.52704159542918,0 6.717685852199793,49.52756680548191,0 6.717876959592104,49.52828345820308,0 6.717832451686263,49.52872183173895,0 6.717906380072236,49.52902869321406,0 6.718131685629487,49.52933236956596,0 6.718493616208434,49.53009353019297,0 6.718551367521286,49.53067129477859,0 6.718499232083559,49.53091906383634,0 6.718613225966692,49.53156279399991,0 6.718704253435135,49.53167594969273,0 6.718790335580707,49.53168315812945,0 6.718984460458159,49.53156128525734,0 6.719094514846802,49.53162322752178,0 6.719634225592017,49.53148836269975,0 6.719306074082851,49.53147889114916,0 6.71945015899837,49.53159120865166,0 6.719564152881503,49.53193159773946,0 6.719802115112543,49.53227416612208,0 6.719915354624391,49.5326907467097,0 6.720199668779969,49.53297925181687,0 6.720089195296168,49.5329153817147,0 6.720207380130887,49.53303474001586,0 6.720168069005013,49.53309651464224,0 6.720265550538898,49.53334026038647,0 6.720452969893813,49.53356204554439,0 6.72058816999197,49.53400377184153,0 6.720532765612006,49.53402841463685,0 6.720588002353907,49.53426042571664,0 6.720366384834051,49.53444365411997,0 6.720175612717867,49.53477750532329,0 6.719930358231068,49.53493449836969,0 6.719822650775313,49.53518511727452,0 6.719637326896191,49.53533708117902,0 6.718448605388403,49.53576154075563,0 6.717528942972422,49.53576556406915,0 6.717561380937696,49.53586606308818,0 6.717442106455564,49.53600847162306,0 6.717434981837869,49.53624492511153,0 6.717345546931028,49.53630711883307,0 6.717473370954394,49.53649244271219,0 6.717553753405809,49.53655312769115,0 6.717665232717991,49.53653058037162,0 6.717659030109644,49.53648271970451,0 6.71775558963418,49.53650736249983,0 6.717934124171734,49.53667097724974,0 6.718277279287577,49.53668405301869,0 6.71852664090693,49.53683031722903,0 6.718495963141322,49.53674255870283,0 6.71855547465384,49.53676921315491,0 6.718343077227473,49.5367506891489,0 6.718561258167028,49.53684171661735,0 6.718919835984707,49.53687256202102,0 6.719092670828104,49.53678002581,0 6.719101555645466,49.53664088621736,0 6.719152685254812,49.536650525406,0 6.719047492370009,49.53642915934324,0 6.719061238691211,49.53669763170183,0 6.719587370753288,49.53669293783605,0 6.720684561878443,49.53710046596825,0 6.721097035333514,49.53718378208578,0 6.721471790224314,49.53716064803302,0 6.722213756293058,49.53724010847509,0 6.722877100110054,49.53711597248912,0 6.723317904397845,49.53684364445508,0 6.723541533574462,49.53651909716427,0 6.723591657355428,49.5362086314708,0 6.723692156374454,49.53611684963107,0 6.723760971799493,49.53590646386147,0 6.724165566265583,49.53549834899604,0 6.724348710849881,49.53521160408854,0 6.724468236789107,49.53515024855733,0 6.724607544019818,49.53517095185816,0 6.724530765786767,49.53533984720707,0 6.724582063034177,49.53528645448387,0 6.724640317261219,49.53533339314163,0 6.724675185978413,49.53565534204245,0 6.725151361897588,49.53610695898533,0 6.725338026881218,49.53667089343071,0 6.725506419315934,49.53683802857995,0 6.725765755400062,49.53693525865674,0 6.726025845855474,49.53714463859797,0 6.726162387058139,49.53734178096056,0 6.72649129293859,49.53760547563434,0 6.72663101926446,49.53790194354951,0 6.726845009252429,49.5380372274667,0 6.727225380018353,49.5378887001425,0 6.727719577029347,49.53755116090178,0 6.72784186899662,49.5373313035816,0 6.728154178708792,49.53709702938795,0 6.728355931118131,49.53699694946408,0 6.72895641066134,49.53687549568713,0 6.729237120598555,49.53696451149881,0 6.729780519381166,49.53740397468209,0 6.73022685572505,49.53741068020463,0 6.730481497943401,49.53755191527307,0 6.730584595352411,49.53772173263133,0 6.730693811550736,49.53769616782665,0 6.730628684163094,49.53774805180728,0 6.730656679719687,49.53805935569108,0 6.730495160445571,49.53875907696784,0 6.730262562632561,49.53896351158619,0 6.730181341990829,49.53892637975514,0 6.729928040876985,49.53943884931505,0 6.730057625100017,49.5394104346633,0 6.729975650086999,49.53940951265395,0 6.729933070018888,49.53950665891171,0 6.729946229606867,49.53946868889034,0 6.730391811579466,49.54087710008025,0 6.730467416346073,49.54096770845354,0 6.730531705543399,49.54144455492496,0 6.730820378288627,49.54200496897101,0 6.731635518372059,49.5431939419359,0 6.731632836163044,49.54330340959132,0 6.732289055362344,49.54442247748375,0 6.732422998175025,49.54453906975687,0 6.732814600691199,49.54469346441329,0 6.732822312042117,49.54475230537355,0 6.732681831344962,49.54483855515718,0 6.732419393956661,49.54521104693413,0 6.732245804741979,49.54534607939422,0 6.732186125591397,49.54558295197785,0 6.732276901602745,49.54572116956115,0 6.732220910489559,49.54583482816815,0 6.731765018776059,49.5462829247117,0 6.730359708890319,49.54692682251334,0 6.730181593447924,49.54706277698278,0 6.729874815791845,49.54713854938745,0 6.728838225826621,49.54760114662349,0 6.728319637477398,49.54831293784082,0 6.728029707446694,49.54860135912895,0 6.728153340518475,49.54871007241309,0 6.728582326322794,49.54873505048454,0 6.728886757045984,49.54885449260473,0 6.728707803413272,49.54879565164447,0 6.729064453393221,49.54857185482979,0 6.729004271328449,49.54857529141009,0 6.729086162522435,49.54860236495733,0 6.729070153087378,49.54865827225149,0 6.729304762557149,49.54876120202243,0 6.72946217469871,49.54874904826283,0 6.72942210920155,49.54881643876433,0 6.729381289333105,49.54874997027218,0 6.729071410372853,49.54885231330991,0 6.729196384549141,49.54884476959705,0 6.728824898600578,49.54885994084179,0 6.728925397619605,49.54865659587085,0 6.729001505300403,49.54863212071359,0 6.728611998260021,49.54885566607118,0 6.728400690481067,49.5488406624645,0 6.728438157588243,49.54882641322911,0 6.72803389839828,49.54861979931593,0 6.728437067940831,49.54804639331996,0 6.728748623281717,49.5477666053921,0 6.728812409564853,49.54761656932533,0 6.730165584012866,49.54704609699547,0 6.731080636382103,49.54651275649667,0 6.731339721009135,49.5464697573334,0 6.731843892484903,49.54615216702223,0 6.732270615175366,49.54570264555514,0 6.732185455039144,49.54556216485798,0 6.732232142239809,49.54538103193045,0 6.732491478323936,49.54518472775817,0 6.732725165784359,49.54476160928607,0 6.733798887580633,49.54353257082403,0 6.733798133209348,49.54338085837662,0 6.733747087419033,49.54336392693222,0 6.733895614743233,49.54347800463438,0 6.733854375779629,49.54342897050083,0 6.734035424888134,49.54334833659232,0 6.734167858958244,49.5431886613369,0 6.734150340780616,49.54309486784041,0 6.734246397390962,49.54310500994325,0 6.734177833423018,49.54306821338832,0 6.734637999907136,49.54270142130554,0 6.73517226241529,49.54142611473799,0 6.735576437786222,49.5400854293257,0 6.735668387264013,49.53997344709933,0 6.735876258462667,49.53845757991076,0 6.736268196254969,49.5375937409699,0 6.736507164314389,49.53723851591349,0 6.736659212037921,49.53659545630217,0 6.736896084621549,49.53612917102873,0 6.73692693002522,49.53566229902208,0 6.737186769023538,49.53547077253461,0 6.7377067822963,49.53532769344747,0 6.737984558567405,49.53508369624615,0 6.738238278776407,49.53503952361643,0 6.7385184019804,49.53470424748957,0 6.738674305379391,49.53461581841111,0 6.73844120465219,49.53467750921845,0 6.738333078101277,49.53466585837305,0 6.73825747333467,49.53457877039909,0 6.738402396440506,49.53471480868757,0 6.738415723666549,49.53482603654265,0 6.738192597404122,49.53490457497537,0 6.738055301830173,49.53482863493264,0 6.737936111167073,49.53462352976203,0 6.73765305429697,49.53445161692798,0 6.73763494938612,49.53434441238642,0 6.737273689359426,49.53417794778943,0 6.737182829529047,49.53403193503618,0 6.736861299723387,49.53393193893135,0 6.736679077148438,49.53370939940214,0 6.736735906451941,49.53360303305089,0 6.736703217029572,49.5337428431958,0 6.736561562865973,49.53358585014939,0 6.736616129055619,49.53343271277845,0 6.736420914530754,49.53308209776878,0 6.736461650580168,49.53271237201989,0 6.736114388331771,49.53252545557916,0 6.735931495204568,49.53230576589704,0 6.735387342050672,49.53195883892477,0 6.734920470044017,49.5317842438817,0 6.734706060960889,49.53160705044866,0 6.734419316053391,49.53150923363864,0 6.734397858381271,49.53143044374883,0 6.734651746228337,49.53094337135553,0 6.734938155859709,49.52991667203605,0 6.735145188868046,49.52962984330952,0 6.736080106347799,49.52926397323608,0 6.73624673858285,49.52897555194795,0 6.736705815419555,49.52879232354462,0 6.736857946962118,49.52859166078269,0 6.736857695505023,49.5284690335393,0 6.737359771504998,49.52808162197471,0 6.737697394564748,49.52793410047889,0 6.738171642646194,49.52758013270795,0 6.738484539091587,49.52746043913066,0 6.738637341186404,49.52711636200547,0 6.738934898748994,49.52698493376374,0 6.739652808755636,49.52649459242821,0 6.739953216165304,49.52609980478883,0 6.74019486643374,49.52554374933243,0 6.740665175020695,49.52506765723228,0 6.74112182110548,49.52509540133178,0 6.741191726177931,49.52488442882895,0 6.741329524666071,49.52477864921093,0 6.741303289309144,49.52462006360292,0 6.741425329819322,49.52458913438022,0 6.74148190766573,49.52448486350477,0 6.741737220436335,49.52439593151212,0 6.742118177935481,49.52439107000828,0 6.742251366376877,49.52447522431612,0 6.742479186505079,49.52441956847906,0 6.742469212040305,49.52357249334455,0 6.742365024983883,49.52341374009848,0 6.742470888420939,49.52318030409515,0 6.742062186822295,49.52276070602238,0 6.742677083238959,49.52163510024548,0 6.742937173694372,49.52140660956502,0 6.743000708520412,49.521126402542,0 6.742815803736448,49.52099447138608,0 6.74158257432282,49.52094250358641,0 6.741075133904815,49.52082616277039,0 6.741085611283779,49.52055467292666,0 6.74120144918561,49.52036851085722,0 6.741243274882436,49.52010774984956,0 6.741478135809302,49.51994027942419,0 6.741785164922476,49.51985419727862,0 
		</coordinates>
	</LineString>
	<atom:link rel="app" href="https://www.google.com/earth/about/versions/#earth-pro" title="Google Earth Pro 7.3.7.1155"></atom:link>
</Placemark>
</kml>
