<?xml version="1.0" encoding="UTF-8"?>
<kml xmlns="http://www.opengis.net/kml/2.2" xmlns:gx="http://www.google.com/kml/ext/2.2" xmlns:kml="http://www.opengis.net/kml/2.2" xmlns:atom="http://www.w3.org/2005/Atom">
<Placemark>
	<name>Track</name>
	<Style>
		<LineStyle>
			<color>ff0000ff</color>
			<width>3</width>
		</LineStyle>
	</Style>
	<LineString>
		<tessellate>1</tessellate>
		<coordinates>
			-66.12106829881668,48.94672958180308,0 -66.1211793590337,48.94686821848154,0 -66.12140592187643,48.94702445715666,0 -66.12190565094352,48.94719368778169,0 -66.12211159430444,48.9472122117877,0 -66.122205555439,48.94730374217033,0 -66.12253052182496,48.94740264862776,0 -66.12257016822696,48.94746609963477,0 -66.12244636751711,48.94749904051423,0 -66.12231041304767,48.94730013795197,0 -66.12207002006471,48.94717709161341,0 -66.12193305976689,48.94703853875399,0 -66.12203372642398,48.94678540527821,0 -66.12203263677657,48.94650452770293,0 -66.12193389795721,48.94599415361881,0 -66.12183205783367,48.94589005038142,0 -66.12176022492349,48.94567270763218,0 -66.12201838754117,48.94543097354472,0 -66.12191939726472,48.94496980123222,0 -66.12195066176355,48.94492303021252,0 -66.12262297421694,48.9448362775147,0 -66.12269514240324,48.94474390894175,0 -66.12264409661293,48.94469487480819,0 -66.12285632640123,48.94469822756946,0 -66.12305036745965,48.94455070607364,0 -66.12337315455079,48.94454006105661,0 -66.12348077818751,48.9444956369698,0 -66.12333166413009,48.94430293701589,0 -66.12330970354378,48.94419045187533,0 -66.12344381399453,48.94403555430472,0 -66.12340936437249,48.94402172416449,0 -66.12341699190438,48.94412155263126,0 -66.12327190116048,48.94404376856983,0 -66.12322135828435,48.94387629814446,0 -66.12325706519186,48.94380144774914,0 -66.12317928113043,48.94375199452043,0 -66.12325513735414,48.94367253407836,0 -66.12308146432042,48.94359198398888,0 -66.12331523559988,48.94350472837687,0 -66.12315757200122,48.94327841699123,0 -66.12347725778818,48.9430264569819,0 -66.12357507459819,48.94284356385469,0 -66.12362343817949,48.94250191748142,0 -66.12380415201187,48.94239907152951,0 -66.12381270155311,48.94224903546274,0 -66.12394295632839,48.94212297163904,0 -66.12395293079317,48.94187059253454,0 -66.12415568903089,48.94161293283105,0 -66.12404555082321,48.94151830114424,0 -66.12411579117179,48.94140883348882,0 -66.12411218695343,48.94125192426145,0 -66.12418125383556,48.94110423512757,0 -66.12407622858882,48.94088286906481,0 -66.1241567786783,48.94076535478234,0 -66.12411059439182,48.94058673642576,0 -66.12418293021619,48.94057743251324,0 -66.12423506565392,48.9405070245266,0 -66.12390481866896,48.94052957184613,0 -66.12353987060487,48.94022363238037,0 -66.1230050213635,48.93995465710759,0 -66.12293545156717,48.93985373899341,0 -66.12271886318922,48.93979380838573,0 -66.12263454124331,48.9396211411804,0 -66.12246857956052,48.93952055834234,0 -66.12245550379157,48.93941989168525,0 -66.12232114188373,48.93931805156171,0 -66.1222676653415,48.9391271956265,0 -66.12215358763933,48.93897003494203,0 -66.12218133173883,48.93884992226958,0 -66.12201989628375,48.9386350940913,0 -66.12208049744368,48.93847424536943,0 -66.1222726944834,48.93838690593839,0 -66.12244519405067,48.93837307579815,0 -66.12253203056753,48.93830602057278,0 -66.12247075885534,48.93822672776878,0 -66.12248199060559,48.93811189569533,0 -66.12233379855752,48.93790922127664,0 -66.1223607044667,48.93753362819552,0 -66.12221544608474,48.93723749555647,0 -66.12222944386303,48.93691722303629,0 -66.12220086157322,48.93687481060624,0 -66.12212014384568,48.93688218668103,0 -66.12202936783433,48.93664774484932,0 -66.12190204672515,48.93655956722796,0 -66.12157188355923,48.93647021614015,0 -66.12106662243605,48.93646879121661,0 -66.12079580314457,48.93639737740159,0 -66.12019088119268,48.93656141124666,0 -66.11983171664178,48.93657616339624,0 -66.11947833560407,48.93626980483532,0 -66.11933341249824,48.9360154978931,0 -66.11915010027587,48.93592371605337,0 -66.11915093846619,48.93573612906039,0 -66.11932402476668,48.93550034612417,0 -66.11907969228923,48.93511980772018,0 -66.11909109167755,48.93496759235859,0 -66.11901364289224,48.93460432067513,0 -66.11907265149057,48.93389169126749,0 -66.11894030123949,48.93368164077401,0 -66.11897064372897,48.93340663053095,0 -66.11888288520277,48.93303950317204,0 -66.11892965622246,48.93269349820912,0 -66.11903174780309,48.93254631198943,0 -66.11897667869925,48.93236920237541,0 -66.11903585493565,48.93213735893369,0 -66.11897131428123,48.9317222032696,0 -66.11904046498239,48.9314785413444,0 -66.11892890185118,48.93111904151738,0 -66.11871122382581,48.93096213229001,0 -66.11850167624652,48.93062015064061,0 -66.1182954814285,48.93041311763227,0 -66.11784344539046,48.93011354841292,0 -66.11762174405158,48.92958926036954,0 -66.11743181012571,48.92949152737856,0 -66.11731085926294,48.92933403141797,0 -66.11706954427063,48.92920813523233,0 -66.11693962477148,48.92898752354085,0 -66.11697449348867,48.92896682024002,0 -66.11670040525496,48.92862576059997,0 -66.11667366698384,48.92837623134255,0 -66.11567211337388,48.92793936654925,0 -66.11576205119491,48.92791346646845,0 -66.11571846529841,48.92798529937863,0 -66.11543951556087,48.92786141484976,0 -66.11504095606506,48.92731642350554,0 -66.11477977596223,48.92704820260406,0 -66.11424392089248,48.92667504027486,0 -66.11413797363639,48.92651947215199,0 -66.11388919875026,48.92632509581745,0 -66.11346851103008,48.92567734234035,0 -66.11339818686247,48.92535120248795,0 -66.11343557015061,48.9250600989908,0 -66.11338041722775,48.92497410066426,0 -66.11350564286113,48.92477167770267,0 -66.11345401033759,48.92468593083322,0 -66.11348586156964,48.92470185644925,0 -66.11340589821339,48.92469657585025,0 -66.11351888626814,48.92471359111369,0 -66.11350547522306,48.92478349618614,0 -66.11338402144611,48.92481249757111,0 -66.11338242888451,48.92474644817412,0 -66.11331336200237,48.92474410124123,0 -66.11339340917766,48.92473773099482,0 -66.11374125815928,48.92444226890802,0 -66.11388140358031,48.92449130304158,0 -66.11428138799965,48.92447571270168,0 -66.11453703604639,48.92440069466829,0 -66.1143444199115,48.92425811849535,0 -66.11424098722637,48.92407941631973,0 -66.11426085233688,48.92397992312908,0 -66.11404040828347,48.92358270473778,0 -66.11406530253589,48.92354540526867,0 -66.11430955119431,48.92352629452944,0 -66.1145190987736,48.92361992038786,0 -66.11450945958495,48.92346376553178,0 -66.11442103050649,48.9233763422817,0 -66.11459068022668,48.92334231175482,0 -66.11538863740861,48.92371983267367,0 -66.11540204845369,48.92352394759655,0 -66.11545443534851,48.92347172833979,0 -66.11544328741729,48.92325052991509,0 -66.11527254804969,48.92266605980694,0 -66.11530372872949,48.92263471148908,0 -66.11544010229409,48.92267502844334,0 -66.11528872512281,48.92263948917389,0 -66.11523482948542,48.92228359356523,0 -66.1154361627996,48.92222383059561,0 -66.11560229212046,48.92209894023836,0 -66.11549098044634,48.9219877962023,0 -66.11548100598156,48.92175746150315,0 -66.11541512422264,48.92171882092953,0 -66.11545275896788,48.92170557752252,0 -66.11534723080695,48.92144054174423,0 -66.11540028825402,48.92138002440333,0 -66.11538050696254,48.92123803496361,0 -66.11554881557822,48.92179132439196,0 -66.11552199348807,48.92192526720464,0 -66.11561545170844,48.92208083532751,0 -66.11545435152948,48.92223020084202,0 -66.11522158607841,48.92228703014553,0 -66.11531940288842,48.92245391383767,0 -66.11536290496588,48.92269531264901,0 -66.11552651971579,48.92290703952312,0 -66.11549399793148,48.92300192266703,0 -66.11559793353081,48.92336309887469,0 -66.11550346948206,48.92345010302961,0 -66.11545753665268,48.92367616295815,0 -66.11536407843232,48.92374824732542,0 -66.11516525968909,48.92372511327267,0 -66.11453820951283,48.92335513606668,0 -66.11460811458528,48.92348136752844,0 -66.11449973657727,48.92364070750773,0 -66.11433142796159,48.92356744967401,0 -66.11416722647846,48.92356887459755,0 -66.11420896835625,48.92367750406265,0 -66.11432162113488,48.92377791926265,0 -66.11431038938463,48.92386785708368,0 -66.11440133303404,48.92394019290805,0 -66.11442228779197,48.92407966777682,0 -66.11438180319965,48.92421503551304,0 -66.11456184647977,48.92435970716178,0 -66.11452245153487,48.92441846430302,0 -66.11425221897662,48.92452541738749,0 -66.11376313492656,48.92447428777814,0 -66.1134952493012,48.92463128082454,0 -66.11357253044844,48.92477620393038,0 -66.1133808363229,48.92489028163254,0 -66.11347923986614,48.92559276893735,0 -66.11384108662605,48.92622116021812,0 -66.11434316262603,48.92670714296401,0 -66.11480190418661,48.92699036747217,0 -66.1154464725405,48.92778614535928,0 -66.11642162315547,48.92815813422203,0 -66.11662806943059,48.92828579060733,0 -66.11670099198818,48.92836223356426,0 -66.11673980019987,48.92854001373053,0 -66.11685647629201,48.92863338813186,0 -66.11688639968634,48.92877001315355,0 -66.11705353483558,48.92897260375321,0 -66.11702118068933,48.92905466258526,0 -66.11762786284089,48.929497981444,0 -66.11773137934506,48.92952186986804,0 -66.11780975013971,48.92962236888707,0 -66.11765921115875,48.92965631559491,0 -66.11777337267995,48.92971976660192,0 -66.11802541650832,48.93006602302194,0 -66.1182613670826,48.93020801246166,0 -66.11867828294635,48.93062274903059,0 -66.11875497736037,48.93082424998283,0 -66.11910835839808,48.93126388080418,0 -66.11915437504649,48.93146311864257,0 -66.1191057600081,48.93186947330832,0 -66.11914934590459,48.93209335394204,0 -66.1190365254879,48.93217390403152,0 -66.11914431676269,48.93249224871397,0 -66.11904473975301,48.93266089260578,0 -66.11900744028389,48.93289692699909,0 -66.11912210471928,48.9332817401737,0 -66.11906737089157,48.93357602879405,0 -66.1191713064909,48.93383209593594,0 -66.11908078193665,48.93410987220705,0 -66.11911112442613,48.93417256884277,0 -66.11905999481678,48.93466701731086,0 -66.11920961178839,48.9351845998317,0 -66.11936341971159,48.93539255484939,0 -66.11932134255767,48.93557737581432,0 -66.11923132091761,48.93566370941699,0 -66.11928622238338,48.93583956174552,0 -66.11978033557534,48.93641967326403,0 -66.11992685124278,48.93649796023965,0 -66.12038056366146,48.93631959334016,0 -66.1206719186157,48.93628346733749,0 -66.12094449810684,48.93634172156453,0 -66.12143877893686,48.93633250147104,0 -66.12173658795655,48.93637541681528,0 -66.12200698815286,48.93645688891411,0 -66.12219893373549,48.93659627996385,0 -66.12235064618289,48.93700866959989,0 -66.12237914465368,48.93726800568402,0 -66.1224471218884,48.93737931735814,0 -66.12244770862162,48.93785297870636,0 -66.12258919514716,48.93823561258614,0 -66.12256966531277,48.93827802501619,0 -66.1221743747592,48.93840735778213,0 -66.12208829261363,48.93851850181818,0 -66.12219591625035,48.93861506134272,0 -66.12237956374884,48.93919953145087,0 -66.12259204499424,48.93945191055536,0 -66.12270226702094,48.93967369571328,0 -66.1229135747999,48.93972088582814,0 -66.12308825366199,48.93988299183547,0 -66.12373609095812,48.94024785608053,0 -66.12390900962055,48.94046285189688,0 -66.12408695742488,48.94049185328186,0 -66.12416038289666,48.94067038781941,0 -66.12415057606995,48.94087733700871,0 -66.12423866987228,48.94100566394627,0 -66.12420539371669,48.94119517877698,0 -66.12425484694541,48.94135409966111,0 -66.12421117722988,48.94148879684508,0 -66.12407673150301,48.94161821343005,0 -66.12400012090802,48.94179129973054,0 -66.12398771569133,48.94195642322302,0 -66.12384974956512,48.94209556281567,0 -66.12383114174008,48.94230837933719,0 -66.12367297522724,48.94239127635956,0 -66.12361396662891,48.94248004071414,0 -66.12358362413943,48.94290181808174,0 -66.12324449233711,48.94314774312079,0 -66.12326301634312,48.94336776807904,0 -66.12339687533677,48.94348469562829,0 -66.12314231693745,48.94356851466,0 -66.12326083704829,48.94367597065866,0 -66.12318162806332,48.94368820823729,0 -66.12324667163193,48.94376154989004,0 -66.12320618703961,48.94383874721825,0 -66.12342688255012,48.94413295201957,0 -66.12341531552374,48.94422724843025,0 -66.12352126277983,48.94440670497715,0 -66.12351422198117,48.94447091035545,0 -66.12319411709905,48.94448834471405,0 -66.12312404438853,48.94454156979918,0 -66.12272808328271,48.94457736052573,0 -66.12262548878789,48.94462522119284,0 -66.12242289818823,48.94450502470136,0 -66.12235399894416,48.94436605274677,0 -66.12254678271711,48.94466302357614,0 -66.12258986569941,48.94479394890368,0 -66.12255021929741,48.94482739269733,0 -66.12244108691812,48.94488371908665,0 -66.12206012941897,48.94487634301186,0 -66.1218894738704,48.94498949870467,0 -66.12177975475788,48.94493359141052,0 -66.12155185081065,48.94497801549733,0 -66.12138982862234,48.94512142986059,0 -66.12144305370748,48.94513509236276,0 -66.12150533124804,48.94506627693772,0 -66.12146308645606,48.94509552977979,0 -66.12143802456558,48.94505630247295,0 -66.12145218998194,48.94511187449098,0 -66.1211381200701,48.94519980065525,0 -66.12058985978365,48.94552024081349,0 -66.12059488892555,48.94558176398277,0 -66.12076261080801,48.94576214253902,0 -66.12134364433587,48.94607453607023,0 -66.12140231765807,48.94618107005954,0 -66.12144489772618,48.94643294624984,0 -66.1213746573776,48.94649681635201,0 -66.12077124416828,48.94637670367956,0 -66.12080577760935,48.94651114940643,0 -66.12103745341301,48.94664852879941,0 -66.12098883837461,48.94672153517604,0 
		</coordinates>
	</LineString>
	<atom:link rel="app" href="https://www.google.com/earth/about/versions/#earth-pro" title="Google Earth Pro 7.3.7.1155"></atom:link>
</Placemark>
</kml>
