<?xml version="1.0" encoding="UTF-8"?>
<kml
  xsi:schemaLocation="http://earth.google.com/kml/2.1 http://earth.google.com/kml2.1.xsd"
  xmlns:xsi="http://www.w3.org/2001/XMLSchema-instance" xmlns="http://earth.google.com/kml/2.1">
  <Folder>
    <name>Sommerhausen Wandern</name>
    <Placemark>
      <name>Track</name>
      <Style>
        <LineStyle>
          <color>FF0000FF</color>
          <width>3.0</width>
        </LineStyle>
      </Style>
      <LineString>
        <extrude>false</extrude>
        <tessellate>true</tessellate>
        <altitudeMode>clampToGround</altitudeMode>
        <coordinates>10.040144948288798,49.69842301681638 10.040114186704159,49.69829167239368 10.040130028501153,49.69816611148417 10.039909332990646,49.697959162294865 10.039310781285167,49.69776847399771 10.038881879299879,49.69776243902743 10.037818802520633,49.697658251971006 10.037273559719324,49.69765749759972 10.037205163389444,49.697633776813745 10.037210695445538,49.69756077043712 10.03725872375071,49.697499414905906 10.037543289363384,49.69729179516435 10.03773900680244,49.69707386568189 10.037817042320967,49.69687596894801 10.037806397303939,49.69671595841646 10.037741186097264,49.696525018662214 10.037411022931337,49.696012046188116 10.037201223894954,49.696043226867914 10.037029646337032,49.696006597951055 10.036646844819188,49.69602755270898 10.03643637523055,49.69607918523252 10.036327242851257,49.69604800455272 10.036057764664292,49.6959126368165 10.035856431350112,49.695852203294635 10.035436330363154,49.695619102567434 10.03498513251543,49.695549197494984 10.034712050110102,49.69545238651335 10.03451306372881,49.6953050326556 10.034370152279735,49.69511325471103 10.034401332959533,49.69496514648199 10.034826546907425,49.6946831792593 10.034979432821274,49.69445209018886 10.034863092005253,49.694345723837614 10.034529408439994,49.694231981411576 10.034453636035323,49.694133242592216 10.03435967490077,49.69396862201393 10.034380294382572,49.6938319131732 10.034242831170559,49.69368539750576 10.03419790416956,49.693593531847 10.034239394590259,49.69338742084801 10.034330673515797,49.69316756352782 10.034305863082409,49.692962961271405 10.034237215295434,49.692906718701124 10.03409681841731,49.69254923053086 10.033968491479754,49.692527521401644 10.033974191173911,49.69254973344505 10.033890204504132,49.69257680699229 10.033799763768911,49.692541267722845 10.033906549215317,49.69255174510181 10.03392524085939,49.69253892078996 10.03386857919395,49.69249717891216 10.034071253612638,49.69248779118061 10.03415540792048,49.692415622994304 10.03425071015954,49.692094679921865 10.034342827275395,49.69195034354925 10.03446570597589,49.69184624031186 10.034772818908095,49.69169176183641 10.03510918468237,49.69140015542507 10.0354322232306,49.691381799057126 10.035969503223896,49.69121248461306 10.036239651963115,49.691233690828085 10.03657408989966,49.69119924120605 10.03683116286993,49.69111659564078 10.037190159782767,49.69110972248018 10.037645883858204,49.69100763089955 10.037860292941332,49.69089237973094 10.037931120023131,49.69069398008287 10.038034385070205,49.69058560207486 10.037990380078554,49.69044872559607 10.037878565490246,49.69034839421511 10.037764739245176,49.69028879888356 10.037491070106626,49.690233897417784 10.037217987701297,49.690066846087575 10.0368931889534,49.68997632153332 10.036566881462932,49.689760906621814 10.036159101873636,49.68937483616173 10.035632383078337,49.68917928636074 10.035505313426256,49.68902581371367 10.03536382690072,49.6889431681484 10.034999633207917,49.68889337964356 10.034796707332134,49.68877318315208 10.034565953537822,49.688413850963116 10.034291697666049,49.68810833059251 10.034284070134163,49.6879209112376 10.034170327708125,49.68783315271139 10.034134536981583,49.687849497422576 10.03415004350245,49.687863159924746 10.03398441709578,49.68752218410373 10.033968659117818,49.687221106141806 10.033886767923832,49.68704776838422 10.033951727673411,49.68688566237688 10.033953906968236,49.686540914699435 10.034202514216304,49.68611561693251 10.034432346001267,49.685810850933194 10.034563019871712,49.68567933887243 10.0347501039505,49.685560734942555 10.034860745072365,49.68542846851051 10.034976499155164,49.6850904263556 10.034931153059006,49.68495019711554 10.034634852781892,49.68444057740271 10.034660333767533,49.68422097153962 10.034566121175885,49.68399088829756 10.034603755921125,49.68387823551893 10.03469092771411,49.68377362936735 10.034891339018941,49.68361311592162 10.034859655424953,49.683612613007426 10.03504816442728,49.683510940521955 10.035351756960154,49.68321992084384 10.03590278327465,49.68291549012065 10.036545004695654,49.68266537413001 10.037338770925999,49.68218316324055 10.037611769512296,49.682194981724024 10.038057519122958,49.68203388154507 10.038245189934969,49.68214242719114 10.038671996444464,49.68220537528396 10.0388496927917,49.68219540081918 10.038993190973997,49.68214536085725 10.039126882329583,49.68203262425959 10.039120176807046,49.68187470920384 10.039157895371318,49.68182131648064 10.039121937006712,49.68178351409733 10.039295190945268,49.68191083520651 10.03948931582272,49.681959534063935 10.039957528933883,49.68183774501085 10.040442254394293,49.681660048663616 10.04056773148477,49.681573044508696 10.040649119764566,49.68156365677714 10.040677450597286,49.68152040615678 10.040613915771246,49.6813568752259 10.040688682347536,49.68134799040854 10.040698992088437,49.68129862099886 10.040645599365234,49.68132586218417 10.040715169161558,49.68134614638984 10.040594972670078,49.681368274614215 10.040601175278425,49.681336088106036 10.040675606578588,49.68131572008133 10.040655406191945,49.68134279362857 10.040607629343867,49.681310607120395 10.040650209411979,49.68135243281722 10.040620705112815,49.68133399263024 10.04064828157425,49.681312032043934 10.040613329038024,49.681337513029575 10.040660183876753,49.68127909116447 10.040648616850376,49.68133667483926 10.040669152513146,49.68128504231572 10.040711732581258,49.68128294683993 10.040519535541534,49.68121404759586 10.040438398718834,49.681215388700366 10.040468825027347,49.681149842217565 10.040714498609304,49.68099754303694 10.041195787489414,49.68084566295147 10.04089211113751,49.6807075291872 10.04088289104402,49.68058909289539 10.040836120024323,49.680546848103404 10.041006356477737,49.680431596934795 10.041206264868379,49.680351465940475 10.041176257655025,49.68031886033714 10.041276840493083,49.680305030196905 10.041312631219625,49.68033512122929 10.041563836857677,49.68028927221894 10.041582025587559,49.68025214038789 10.041535254567862,49.68018441461027 10.041783023625612,49.68011333607137 10.041873129084706,49.68004737049341 10.041891820728779,49.679989367723465 10.042010508477688,49.679970759898424 10.042369170114398,49.6797785628587 10.042718192562461,49.67963933944702 10.042750798165798,49.67954806052148 10.042920866981149,49.67953389510512 10.042966715991497,49.67960715293884 10.043118176981807,49.67961042188108 10.043213395401835,49.67969650402665 10.043355468660593,49.67975861392915 10.043525118380785,49.679736234247684 10.043245162814856,49.67979960143566 10.043094707652926,49.67991007491946 10.042980965226889,49.679883755743504 10.042748032137752,49.67992105521262 10.042900498956442,49.67996262945235 10.042635463178158,49.680241495370865 10.042731184512377,49.68036931939423 10.042836796492338,49.680748181417584 10.04283344373107,49.68093358911574 10.042791701853275,49.68102436512709 10.04270444624126,49.681054120883346 10.042568910866976,49.68102495186031 10.042428933084011,49.68104808591306 10.041806576773524,49.68126693740487 10.041718650609255,49.681214885786176 10.041757207363844,49.68116878531873 10.041714292019606,49.68101900070906 10.041829459369183,49.68125763349235 10.041819987818599,49.68130264431238 10.04156593233347,49.681343380361795 10.04144623875618,49.68142166733742 10.041353954002261,49.681433318182826 10.041358564049006,49.681470366194844 10.041210791096091,49.68158536590636 10.040986575186253,49.681671196594834 10.040696812793612,49.68176180496812 10.040624057874084,49.68173833563924 10.040609305724502,49.681702544912696 10.040560774505138,49.68170874752104 10.040600001811981,49.68175057321787 10.040561193600297,49.68182425014675 10.040154503658414,49.68202432617545 10.040023578330874,49.68205559067428 10.039956858381629,49.682038659229875 10.0399773940444,49.682015776634216 10.039952332153916,49.68206003308296 10.039418488740921,49.682140331715345 10.039294268935919,49.68211820349097 10.039114728569984,49.682018123567104 10.039124367758632,49.68181771226227 10.03903434611857,49.68172878026962 10.039171306416392,49.68149760738015 10.038978355005383,49.6814242657274 10.03893175162375,49.681344302371144 10.03905395977199,49.6810669451952 10.039326874539256,49.68085831962526 10.039403652772307,49.68075497075915 10.039694756269455,49.68059563077986 10.040087196975946,49.68027837574482 10.041660396382213,49.67929719015956 10.042908461764455,49.67837216332555 10.043397461995482,49.67810754664242 10.043484382331371,49.67803118750453 10.043522017076612,49.678048538044095 10.0434725638479,49.67797997407615 10.043587647378445,49.6778944786638 10.043916553258896,49.67751326970756 10.044118724763393,49.67737848870456 10.044149653986096,49.67729710042477 10.044102547690272,49.677077662199736 10.044125178828835,49.67701144516468 10.044357776641846,49.67692410573363 10.044625494629145,49.67673283070326 10.045155314728618,49.67643124982715 10.045568458735943,49.67624366283417 10.04558832384646,49.676261097192764 10.045403083786368,49.67639671638608 10.04524139687419,49.67670894227922 10.045185405761003,49.67676233500242 10.045101335272193,49.67720439657569 10.045116757974029,49.67735158279538 10.045161182060838,49.67743070796132 10.045370729640126,49.67776380479336 10.045514311641455,49.67790059745312 10.045932484790683,49.67849738895893 10.046098278835416,49.67861054465175 10.04642441868782,49.67893090099096 10.046922136098146,49.6792814321816 10.047378866001964,49.67976716347039 10.047630490735173,49.67996313236654 10.047686733305454,49.68004929833114 10.04843364469707,49.680559588596225 10.048522660508752,49.680670481175184 10.04889054223895,49.68096921220422 10.048936055973172,49.681054037064314 10.049056336283684,49.68110793270171 10.049110231921077,49.68123910948634 10.04920033738017,49.681313121691346 10.049329167231917,49.68150137923658 10.049380967393517,49.681776808574796 10.049495715647936,49.68200018629432 10.049488926306367,49.682185258716345 10.049404185265303,49.68243721872568 10.049409801140428,49.682774506509304 10.049480376765132,49.683038368821144 10.049552377313375,49.68320055864751 10.04967181943357,49.68331631273031 10.049740802496672,49.68331974931061 10.049792937934399,49.683367777615786 10.04983551800251,49.68330801464617 10.049878600984812,49.68330658972263 10.049789249897003,49.68345168046653 10.049870554357767,49.683785028755665 10.049921767786145,49.68385761603713 10.049912799149752,49.68395920470357 10.049860496073961,49.6840560156852 10.049859574064612,49.68425877392292 10.049932580441236,49.68459136784077 10.050035174936056,49.684786666184664 10.0502625759691,49.68502689152956 10.050413785502315,49.68535722233355 10.050687370821834,49.68562100082636 10.050695752725005,49.68580959364772 10.050817457959056,49.68631192110479 10.050802119076252,49.68634310178459 10.050917202606797,49.68630462884903 10.05086456425488,49.68646799214184 10.050919214263558,49.68684467487037 10.050989454612136,49.687046175822616 10.051208725199103,49.68735865317285 10.051261112093925,49.687359826639295 10.051448531448841,49.68759896233678 10.051510641351342,49.68761648051441 10.051617007702589,49.68778814189136 10.051827980205417,49.68803012743592 10.052316561341286,49.68896579928696 10.052640438079834,49.68939042650163 10.05300915800035,49.689668621867895 10.053399503231049,49.689838606864214 10.0536472722888,49.68973869457841 10.053714327514172,49.68973618000746 10.053759338334203,49.689799128100276 10.053849024698138,49.68972218222916 10.053819017484784,49.68974506482482 10.053807282820344,49.68971002846956 10.053842822089791,49.68969921581447 10.053662694990635,49.689799547195435 10.05349631421268,49.68983885832131 10.053605530411005,49.68981999903917 10.053535960614681,49.689820585772395 10.053346697241068,49.68995947390795 10.05327109247446,49.69015209004283 10.053309900686145,49.690282763913274 10.053452393040061,49.69052022323012 10.053559513762593,49.69063589349389 10.053671663627028,49.69069557264447 10.054375492036343,49.69128582626581 10.054959207773209,49.691831320524216 10.055132294073701,49.692126866430044 10.054995836690068,49.692229544743896 10.054668942466378,49.69231487251818 10.054581519216299,49.692376563325524 10.054099056869745,49.69253414310515 10.053084008395672,49.692785600200295 10.05290069617331,49.69285818748176 10.052833808586001,49.692848632112145 10.052618645131588,49.692917950451374 10.052444050088525,49.6929320320487 10.052290493622422,49.693000512197614 10.051789255812764,49.693112494423985 10.051366221159697,49.693284491077065 10.051151644438505,49.693290777504444 10.051132868975401,49.693331932649016 10.051095904782414,49.69333344139159 10.051112836226821,49.693388510495424 10.051101688295603,49.693280132487416 10.050725005567074,49.69343218021095 10.050280010327697,49.69350719824433 10.049435701221228,49.693744741380215 10.049219783395529,49.69376175664365 10.048761880025268,49.69389393925667 10.048609245568514,49.69396845437586 10.048079090192914,49.69408839941025 10.04799091257155,49.6941461507231 10.047714225947857,49.694213289767504 10.047508282586932,49.69430699944496 10.047223633155227,49.69436273910105 10.046899924054742,49.69450179487467 10.046549309045076,49.69450858421624 10.046003898605704,49.69470480456948 10.04556778818369,49.69478812068701 10.045323288068175,49.69487437047064 10.044522816315293,49.695334704592824 10.043938513845205,49.69558557495475 10.042930841445923,49.69593602232635 10.04256128333509,49.69610642641783 10.042229695245624,49.696326619014144 10.041796183213592,49.69648118130863 10.041520670056343,49.69663666561246 10.041304919868708,49.69689231365919 10.041202493011951,49.697101609781384 10.041195200756192,49.69720705412328 10.041044326499104,49.69730922952294 10.04097769036889,49.697502264752984 10.040907701477408,49.6975860837847 10.040537221357226,49.69778314232826 10.040338402613997,49.69792236573994 10.04020756110549,49.69805957749486 10.040109073743224,49.69820282422006 10.040091220289469,49.69850566238165 10.040015280246735,49.69870791770518 10.039865747094154,49.69877597875893</coordinates>
      </LineString>
    </Placemark>
  </Folder>
</kml>
