<?xml version="1.0" encoding="UTF-8"?>
<kml xmlns="http://www.opengis.net/kml/2.2" xmlns:gx="http://www.google.com/kml/ext/2.2" xmlns:kml="http://www.opengis.net/kml/2.2" xmlns:atom="http://www.w3.org/2005/Atom">
<Placemark>
	<name>Track</name>
	<Style>
		<LineStyle>
			<color>ff0000ff</color>
			<width>3</width>
		</LineStyle>
	</Style>
	<LineString>
		<tessellate>1</tessellate>
		<coordinates>
			121.5044904034585,22.67514850012958,0 121.504600122571,22.67539023421705,0 121.5046191494912,22.67537766136229,0 121.5046427864581,22.67540599219501,0 121.504653096199,22.67547237686813,0 121.5048508252949,22.67564998939633,0 121.504948977381,22.6756705250591,0 121.505089038983,22.6757603790611,0 121.5052046254277,22.6757897157222,0 121.5053108241409,22.67583548091352,0 121.5053522307426,22.67587210983038,0 121.5055294241756,22.67585375346243,0 121.5057757683098,22.67589868046343,0 121.5059054363519,22.67596296966076,0 121.5060183405876,22.67609816975892,0 121.5061397105455,22.67614837735891,0 121.5063320752233,22.6760870218277,0 121.5063783433288,22.67610127106309,0 121.5064031537622,22.6761959027499,0 121.5064371842891,22.67621744424105,0 121.5065256133676,22.67622440122068,0 121.5066164731979,22.67629816196859,0 121.5066445525736,22.67630478367209,0 121.5067887213081,22.67624024301767,0 121.506822751835,22.67628282308578,0 121.5068132802844,22.67631400376558,0 121.5068613924086,22.67642062157393,0 121.5069101750851,22.6764562446624,0 121.5069626457989,22.6765513792634,0 121.5070002805442,22.67657585442066,0 121.5070567745715,22.67668515443802,0 121.5071222372353,22.67672773450613,0 121.5071380790323,22.67677274532616,0 121.5072117559612,22.67686578445137,0 121.5072902943939,22.67690945416689,0 121.5073394961655,22.67688388936222,0 121.5073101595044,22.67691448330879,0 121.5073340479285,22.67696284689009,0 121.5073264203966,22.67706518992782,0 121.5073602832854,22.67711422406137,0 121.5074007678777,22.67709167674184,0 121.5073876921088,22.67714414745569,0 121.5074858441949,22.67737079411745,0 121.5075568389148,22.67752694897354,0 121.5075922943652,22.67751638777554,0 121.5076199546456,22.67754865810275,0 121.5077719185501,22.67791100777686,0 121.5078063681722,22.67807504162192,0 121.5078226290643,22.67809775657952,0 121.5078445058316,22.67809230834246,0 121.5078139957041,22.67820630222559,0 121.5077677275985,22.67818668857217,0 121.5077687334269,22.67816129140556,0 121.5077949687839,22.67818995751441,0 121.5077325236052,22.67818350344896,0 121.5077454317361,22.67821527086198,0 121.5078096371144,22.67817294225097,0 121.5078045241535,22.67815659753978,0 121.5078077092767,22.6782005187124,0 121.5077931247652,22.67815701663494,0 121.5078119840473,22.67809130251408,0 121.5077909454703,22.67809205688536,0 121.5078109782189,22.67808468081057,0 121.5078101400286,22.67801092006266,0 121.5078246407211,22.67798862420022,0 121.5079761017114,22.6778759714216,0 121.507988255471,22.67786205746233,0 121.5079721622169,22.67785702832043,0 121.5079747606069,22.67782970331609,0 121.5080652851611,22.67777622677386,0 121.5081454161555,22.67781008966267,0 121.5082869865,22.67781184986234,0 121.5086206700653,22.67795425839722,0 121.5087085124105,22.67804092727602,0 121.508773220703,22.67814477905631,0 121.508791744709,22.67813798971474,0 121.5087739750743,22.67814075574279,0 121.5087686106563,22.67816900275648,0 121.5088278707117,22.6782145164907,0 121.5088760666549,22.67827779985964,0 121.5088613983244,22.67831115983427,0 121.508812783286,22.67834259197116,0 121.5088355820626,22.67834544181824,0 121.5088670141995,22.67824938520789,0 121.5088916569948,22.67829397693276,0 121.5088884718716,22.67831903882325,0 121.5088661760092,22.67833789810538,0 121.50888687931,22.67827126197517,0 121.5088349115103,22.67815844155848,0 121.5088174771518,22.6781574357301,0 121.5087544452399,22.67804587259889,0 121.5087660122663,22.67795308493078,0 121.5088111069053,22.67794981598854,0 121.5087972767651,22.67796012572944,0 121.5087842848152,22.67794931307435,0 121.5088928304613,22.6779309567064,0 121.5089164674282,22.67791796475649,0 121.5089091751724,22.67789742909372,0 121.5088670141995,22.67787479795516,0 121.5088371746242,22.67780774272978,0 121.5086272079498,22.67765745520592,0 121.5085249487311,22.67756885848939,0 121.5085309837013,22.67755167558789,0 121.5085277147591,22.67756382934749,0 121.508424449712,22.67750297673047,0 121.5083247888833,22.67748855985701,0 121.5082616731524,22.67745930701494,0 121.5081762615591,22.67739526927471,0 121.5080848988146,22.67727230675519,0 121.5080996509641,22.67718463204801,0 121.5081980545074,22.6770675368607,0 121.5083140600473,22.67701934091747,0 121.5084779262543,22.67699310556054,0 121.5086348354816,22.67698933370411,0 121.5086717996746,22.67696770839393,0 121.5086720511317,22.6768431533128,0 121.5086253639311,22.67685262486339,0 121.5086959395558,22.67694289796054,0 121.5087320655584,22.6769744977355,0 121.5088041499257,22.67698581330478,0 121.5088152978569,22.67699771560729,0 121.5087993722409,22.6770019903779,0 121.5088199079037,22.67700592987239,0 121.5087744779885,22.67697717994452,0 121.5087900683284,22.67696653492749,0 121.5088073350489,22.67698807641864,0 121.5088093467057,22.67697240225971,0 121.5087860450149,22.67697935923934,0 121.508823512122,22.67699310556054,0 121.5086352545768,22.67692906782031,0 121.5083400439471,22.67695077694952,0 121.5082772634923,22.67697617411613,0 121.5082664508373,22.67701305449009,0 121.5082255471498,22.6770537905395,0 121.5081950370222,22.67704306170344,0 121.5081314183772,22.67717373557389,0 121.5080786962062,22.67723131924868,0 121.5080165863037,22.67724473029375,0 121.5079647861421,22.67723115161061,0 121.5079574100673,22.67725034616888,0 121.5078400634229,22.67717842943966,0 121.5076977387071,22.67716258764267,0 121.5076310187578,22.67718245275319,0 121.5074484609067,22.67715839669108,0 121.5073445253074,22.67702587880194,0 121.5074155200273,22.67698598094285,0 121.507356511429,22.67697852104902,0 121.5072632208467,22.6769020780921,0 121.5071201417595,22.6767260581255,0 121.5070008672774,22.67653411254287,0 121.506910007447,22.67643629573286,0 121.506806826219,22.67627930268645,0 121.5067774895579,22.67626052722335,0 121.5066308062524,22.67636186443269,0 121.5064393635839,22.6762456074357,0 121.5063702967018,22.67614418640733,0 121.5063045825809,22.67612650059164,0 121.5062770061195,22.67614351585507,0 121.5061878226697,22.67615181393921,0 121.5060946997255,22.67610881477594,0 121.5059680491686,22.67597378231585,0 121.5059044305235,22.6759419310838,0 121.5057889278978,22.67590739764273,0 121.505799908191,22.67591997049749,0 121.5056294202805,22.67588619142771,0 121.505498662591,22.67588736489415,0 121.5051862690598,22.67575040459633,0 121.5050222352147,22.67564747482538,0 121.5049219876528,22.67563330940902,0 121.5047440398484,22.67547665163875,0 121.5047234203666,22.6754463929683,0 121.5047035552561,22.67535042017698,0 121.5046797506511,22.67535159364343,0 121.5046168863773,22.67528898082674,0 121.5045413654298,22.67511547543108,0 121.5045017190278,22.67507700249553,0 121.5043472405523,22.6750436425209,0 121.504357047379,22.67502713017166,0 121.5043376851827,22.67504473216832,0 121.5043380204588,22.6750211790204,0 121.5043581370264,22.67503433860838,0 121.5043493360281,22.67504632472992,0 121.5043171495199,22.67506258562207,0 121.5042937640101,22.67504598945379,0 121.5043335780501,22.67493358813226,0 121.5043677762151,22.67489310353994,0 121.5044085960835,22.67476360313594,0 121.5044963546097,22.6737985946238,0 121.5045451372862,22.67360899597406,0 121.504610683769,22.67350656911731,0 121.5046612266451,22.67345895990729,0 121.5050219837576,22.67317146062851,0 121.5050688385963,22.67311706207693,0 121.505144443363,22.67299007624388,0 121.5052012726665,22.67285135574639,0 121.5053471177816,22.67243477515876,0 121.5055740159005,22.67231784760952,0 121.5059661213309,22.6720632892102,0 121.5063626691699,22.67170353792608,0 121.5065198298544,22.6716369856149,0 121.5068055689335,22.67158803530037,0 121.5069649089128,22.67153380438685,0 121.5071074850857,22.67144336365163,0 121.5072685014457,22.67130489461124,0 121.5072969999164,22.67119366675615,0 121.5072098281235,22.67100574448705,0 121.506976056844,22.67064414918423,0 121.5066873840988,22.66993294470012,0 121.5063850488514,22.66942005604506,0 121.5060869883746,22.66883617267013,0 121.505979783833,22.66857968643308,0 121.505919015035,22.66838271170855,0 121.5058167558163,22.66783797182143,0 121.505607040599,22.66721804626286,0 121.5056059509516,22.66712978482246,0 121.5057617705315,22.66668864525855,0 121.5058514568955,22.66640164889395,0 121.5058628562838,22.66630978323519,0 121.5058506187052,22.66612261533737,0 121.5057661291212,22.66582648269832,0 121.5056776162237,22.66563327983022,0 121.5055601857603,22.66546949744225,0 121.5053384006023,22.66522181220353,0 121.5044282097369,22.6641231123358,0 
		</coordinates>
	</LineString>
	<atom:link rel="app" href="https://www.google.com/earth/about/versions/#earth-pro" title="Google Earth Pro 7.3.7.1155"></atom:link>
</Placemark>
</kml>
