<?xml version="1.0" encoding="UTF-8"?>
<kml xmlns="http://www.opengis.net/kml/2.2" xmlns:gx="http://www.google.com/kml/ext/2.2" xmlns:kml="http://www.opengis.net/kml/2.2" xmlns:atom="http://www.w3.org/2005/Atom">
<Placemark>
	<name>Track</name>
	<Style>
		<LineStyle>
			<color>ff0000ff</color>
			<width>3</width>
		</LineStyle>
	</Style>
	<LineString>
		<tessellate>1</tessellate>
		<coordinates>
			174.4766799453646,-36.96832895278931,0 174.4764205254614,-36.96849759668112,0 174.4762952998281,-36.96861695498228,0 174.4757947325706,-36.96898106485605,0 174.4754757173359,-36.96914141066372,0 174.4751585461199,-36.96944416500628,0 174.4749850407243,-36.96954541839659,0 174.47490231134,-36.96965019218624,0 174.4748077634722,-36.96973375976086,0 174.4744699727744,-36.96990030817688,0 174.4744091201574,-36.96990374475718,0 174.4744262192398,-36.96989234536886,0 174.4744660332799,-36.96990055963397,0 174.4744788575917,-36.96995286270976,0 174.4744697213173,-36.96997641585767,0 174.4741077907383,-36.97014028206468,0 174.4739279150963,-36.97032158263028,0 174.4738957285881,-36.97037505917251,0 174.4737676531076,-36.97045787237585,0 174.4736196286976,-36.97062685154378,0 174.4735223986208,-36.97068342939019,0 174.4734099134803,-36.97078292258084,0 174.4733727816492,-36.97085425257683,0 174.473393401131,-36.97087872773409,0 174.4733836781234,-36.97090286761522,0 174.4734158646315,-36.97090990841389,0 174.4734035432339,-36.97088744491339,0 174.4734374899417,-36.97083757258952,0 174.4735728576779,-36.97074587456882,0 174.4736351352185,-36.9706742092967,0 174.4737512245774,-36.97058309800923,0 174.4738774560392,-36.97042660787702,0 174.4743967149407,-36.97004430927336,0 174.4744392111897,-36.96999493986368,0 174.4744494371116,-36.96992360986769,0 174.474416160956,-36.96989242918789,0 174.4742318429053,-36.96987021714449,0 174.4741378817707,-36.96989075280726,0 174.4735658168793,-36.96990659460425,0 174.4732984341681,-36.96988404728472,0 174.4727279618382,-36.96974423713982,0 174.4725853018463,-36.96968539617956,0 174.472349435091,-36.96967014111578,0 174.4722899235785,-36.96964826434851,0 174.4719797931612,-36.96967634372413,0 174.4716297648847,-36.96961968205869,0 174.4713448639959,-36.96965781971812,0 174.4708962645382,-36.96964600123465,0 174.4705555401742,-36.96966712363064,0 174.4698859937489,-36.96967449970543,0 174.4692930579185,-36.96966578252614,0 174.469037912786,-36.96963761933148,0 174.4689697679132,-36.96965245530009,0 174.4687916524708,-36.96962311863899,0 174.4687385112047,-36.96965253911912,0 174.4686686899513,-36.96964197792113,0 174.4685745611787,-36.96966854855418,0 174.4682674482465,-36.96979771368206,0 174.4679983891547,-36.96986376307905,0 174.4678465090692,-36.96993643417954,0 174.4677817169577,-36.96999167092144,0 174.4678215309978,-36.97008764371276,0 174.4680089503527,-36.97020700201392,0 174.4680587388575,-36.97019652463496,0 174.4678852334619,-36.97016475722194,0 174.4677899312228,-36.97021421045065,0 174.467642577365,-36.97014204226434,0 174.4676387216896,-36.97012494318187,0 174.467655569315,-36.97005185298622,0 174.4677664618939,-36.96998127736151,0 174.4677456747741,-36.96994121186435,0 174.4677874166518,-36.9698245357722,0 174.4677967205644,-36.96974323131144,0 174.4677752628922,-36.96960819885135,0 174.4677030947059,-36.96949931792915,0 174.4676978141069,-36.9693982321769,0 174.4677168410271,-36.96933411061764,0 174.4676223769784,-36.96920578368008,0 174.4676580000669,-36.96917418390512,0 174.4676289986819,-36.96916303597391,0 174.467663615942,-36.96917988359928,0 174.4675452634692,-36.96909480728209,0 174.4674502965063,-36.96905767545104,0 174.4673275854439,-36.96903462521732,0 174.467177214101,-36.96906111203134,0 174.4671100750566,-36.96910511702299,0 174.467100603506,-36.96908449754119,0 174.4671216420829,-36.96908315643668,0 174.4671446084976,-36.96898978203535,0 174.4670861028135,-36.96906899102032,0 174.4670300278813,-36.96907569654286,0 174.4670322909951,-36.96906371042132,0 174.4670482166111,-36.96907561272383,0 174.4670606218278,-36.96912246756256,0 174.4670529104769,-36.96917292661965,0 174.4670673273504,-36.96919321082532,0 174.4671692512929,-36.96922246366739,0 174.4671079795808,-36.96944416500628,0 174.4670261722058,-36.96954625658691,0 174.4669359829277,-36.96977047249675,0 174.4667229987681,-36.96993777528405,0 174.4666505791247,-36.97004087269306,0 174.4665971025825,-36.97015495039523,0 174.4666235055774,-36.9705153722316,0 174.4666687678546,-36.97055426426232,0 174.4667141139507,-36.97067907080054,0 174.4667274411768,-36.97087830863893,0 174.4667515810579,-36.97090496309102,0 174.4667509105057,-36.97100562974811,0 174.4667732063681,-36.97107251733541,0 174.466765159741,-36.97115222923458,0 174.4667193945497,-36.97128298692405,0 174.4667049776763,-36.97144609875977,0 174.4666470587254,-36.97150158695877,0 174.4666675105691,-36.97149446234107,0 174.4666587095708,-36.97150502353907,0 174.4666323065758,-36.97149345651269,0 174.4666343182325,-36.97147794999182,0 174.4666107650846,-36.97149605490267,0 174.4666294567287,-36.97150535881519,0 174.4666245952249,-36.97151692584157,0 174.4666464719921,-36.97148742154241,0 174.4666913989931,-36.97147794999182,0 174.4666585419327,-36.97161633521318,0 174.4666261039674,-36.97166855446994,0 174.4666159618646,-36.97165631689131,0 174.4666075799614,-36.97168867103755,0 174.4666849449277,-36.9718055985868,0 174.4666520878673,-36.97183744981885,0 174.4666363298893,-36.97190525941551,0 174.4666654150933,-36.9719816185534,0 174.4666603021324,-36.97205881588161,0 174.4667064864188,-36.97218286804855,0 174.4667108450085,-36.97239124216139,0 174.466691147536,-36.97251009754837,0 174.4667265191674,-36.97254228405654,0 174.4667990226299,-36.97256893850863,0 174.4670481327921,-36.97245712392032,0 174.4673479534686,-36.97239191271365,0 174.4673892762512,-36.9724013004452,0 174.4673972390592,-36.97242594324052,0 174.4673576764762,-36.97243365459144,0 174.4673378113657,-36.97246659547091,0 174.4673100672662,-36.97261705063283,0 174.4674090575427,-36.97281578555703,0 174.4673969037831,-36.97283514775336,0 174.4675252307206,-36.97297160513699,0 174.4674994982779,-36.97299105115235,0 174.467539479956,-36.9730522390455,0 174.4675484485924,-36.97311124764383,0 174.4675805512816,-36.97315659373999,0 174.4676828943193,-36.97320344857872,0 174.4677167572081,-36.973249129951,0 174.4677089620382,-36.97328416630626,0 174.4677597563714,-36.97334510274231,0 174.4677463453263,-36.97359262034297,0 174.4678069464862,-36.97370250709355,0 174.4679572340101,-36.97381641715765,0 174.4679918512702,-36.9738791976124,0 174.467996545136,-36.97393259033561,0 174.4679657835513,-36.9740139786154,0 174.4679894205183,-36.97408732026815,0 174.4680102076381,-36.97409285232425,0 174.4680747482926,-36.9740678742528,0 174.4681491795927,-36.97400383651257,0 174.4682170730084,-36.97391607798636,0 174.4682430569082,-36.97391423396766,0 174.4682187493891,-36.97398338466883,0 174.4682175759226,-36.97420416399837,0 174.4681239500642,-36.97445813566446,0 174.4681593216956,-36.97458679787815,0 174.4681504368782,-36.97461236268282,0 174.4679248798639,-36.97467866353691,0 174.467943739146,-36.97467304766178,0 174.4679374527186,-36.97468277066946,0 174.4679744169116,-36.9746995344758,0 174.4680770952255,-36.97471755556762,0 174.4681245367974,-36.97475996799767,0 174.4681359361857,-36.97479290887713,0 174.4681118801236,-36.97484211064875,0 174.4681987166405,-36.97493833489716,0 174.4682205095887,-36.97500698268414,0 174.4682115409523,-36.97505341842771,0 174.4682941865176,-36.97510563768446,0 174.4682725612074,-36.97516816668212,0 174.4680511113256,-36.97523673065007,0 174.4680347666144,-36.97526497766376,0 174.4679662026465,-36.97529900819063,0 174.4679646939039,-36.97534343227744,0 174.4679186772555,-36.97535013779998,0 174.467864446342,-36.97528618387878,0 174.4678817130625,-36.97530319914222,0 174.4678639434278,-36.97536027990282,0 174.4677921943367,-36.97540336288512,0 174.4677405618131,-36.97541300207376,0 174.4675205368549,-36.97557711973786,0 174.4673448521644,-36.9756165985018,0 174.4672740250826,-36.97575598955154,0 174.4671574328095,-36.97584249079227,0 174.4671249948442,-36.97591340169311,0 174.4670803193003,-36.97594583965838,0 174.4670550897717,-36.9759464263916,0 174.4669748749584,-36.97601465508342,0 174.466989794746,-36.97603954933584,0 174.4669806584716,-36.97602085769176,0 174.4670014455914,-36.97602873668075,0 174.4669906329364,-36.97600401006639,0 174.467098172754,-36.97597702033818,0 174.4671460334212,-36.97593251243234,0 174.4671844225377,-36.9758618529886,0 174.4672900345176,-36.97578641586006,0 174.4673842471093,-36.97563730180264,0 174.4675242248923,-36.97559053078294,0 174.4677600916475,-36.97540445253253,0 174.4680021610111,-36.97530806064606,0 174.4680912606418,-36.97523438371718,0 174.4682626705617,-36.97514100931585,0 174.4682630058378,-36.97508996352553,0 174.4682241976261,-36.97506247088313,0 174.4681611657143,-36.97488510981202,0 174.4681040849537,-36.97481805458665,0 174.4681131374091,-36.9747756421566,0 174.4680935237557,-36.97470858693123,0 174.4681385345757,-36.97466868907213,0 174.4681708049029,-36.97457766160369,0 174.4683482497931,-36.9743609894067,0 174.4684046600014,-36.97416208684444,0 174.4685344956815,-36.97399201802909,0 174.4687108509243,-36.97392110712826,0 174.4687538500875,-36.97392630390823,0 174.4688530918211,-36.97399805299938,0 174.4689149502665,-36.97406494058669,0 174.4689966738224,-36.97409846819937,0 174.469275791198,-36.97414146736264,0 174.4693758711219,-36.97408455424011,0 174.469534708187,-36.97409067302942,0 174.4695978239179,-36.97404733859003,0 174.4697708263993,-36.97401992976665,0 174.469780633226,-36.97405463084579,0 174.4697614386678,-36.97405597195029,0 174.4700309168547,-36.97399595752358,0 174.4701595790684,-36.97401992976665,0 174.4701620098203,-36.97403350844979,0 174.4705239403993,-36.97398933582008,0 174.4710084144026,-36.97389956563711,0 174.47106750682,-36.97390610352159,0 174.4711115118116,-36.97396041825414,0 174.4711164571345,-36.97405504994094,0 174.4710509106517,-36.97421128861606,0 174.4710579514503,-36.97428219951689,0 174.4710256811231,-36.97432151064277,0 174.4710608012974,-36.97441312484443,0 174.4710507430136,-36.97444966994226,0 174.471072871238,-36.97447322309017,0 174.4712558481842,-36.97448998689651,0 174.4712706003338,-36.97452661581337,0 174.4712774734944,-36.97450088337064,0 174.4715227279812,-36.97430223226547,0 174.4716029427946,-36.97421824559569,0 174.4720994867384,-36.97397885844111,0 174.4725485052913,-36.97404549457133,0 174.472695691511,-36.97408120147884,0 174.4729707017541,-36.97420860640705,0 174.4730387628078,-36.9742179941386,0 174.4730506651103,-36.97423760779202,0 174.4730403553694,-36.97421925142407,0 174.4726879801601,-36.97408128529787,0 174.4723004009575,-36.97401942685246,0 174.4721174240112,-36.97396838106215,0 174.4720046035945,-36.97399553842843,0 174.4718043599278,-36.97411062195897,0 174.4715869333595,-36.97418899275362,0 174.4715099036694,-36.97425043210387,0 174.4714449439198,-36.97434045374393,0 174.4712603744119,-36.97449065744877,0 174.4712503999472,-36.97454513981938,0 174.4712670799345,-36.97452996857464,0 174.468443384394,-36.97363184764981,0 174.4684276264161,-36.97365640662611,0 174.4683161471039,-36.97365313768387,0 174.4681374449283,-36.97352623566985,0 174.4679544679821,-36.97342397645116,0 174.4679286517203,-36.97339832782745,0 174.4678467605263,-36.97319095954299,0 174.4678185135126,-36.97306154295802,0 174.4678338523954,-36.97302499786019,0 174.4679163303226,-36.97295433841646,0 174.4681885745376,-36.9727829284966,0 174.4682055898011,-36.97272660210729,0 174.4681986328214,-36.9726587086916,0 174.468160495162,-36.97259886190295,0 174.468105090782,-36.97242736816406,0 174.4680984690785,-36.97232561185956,0 174.4680348504335,-36.9721301458776,0 174.4678606744856,-36.97191908955574,0 174.4678683020175,-36.97179067879915,0 174.4678793661296,-36.97174977511168,0 174.4678924418986,-36.97176016867161,0 174.4679114688188,-36.97162907570601,0 174.4679709803313,-36.97149714455009,0 174.46802303195,-36.97142640128732,0 174.468171140179,-36.97095139883459,0 174.4682655204087,-36.97074067778885,0 174.468268789351,-36.97063749656081,0 174.4683187454939,-36.97047782130539,0 174.4683653488755,-36.97038302198052,0 174.4684178195894,-36.97034077718854,0 174.4684347510338,-36.97035603225231,0 174.4684164784849,-36.97029761038721,0 174.4683072622865,-36.9702444691211,0 174.4681802764535,-36.97021722793579,0 174.4681319128722,-36.97017297148705,0 174.4679071940482,-36.97012259624898,0 174.4678216148168,-36.97004824876785,0 174.4677859917283,-36.9699627533555,0 174.4678717385978,-36.96990391239524,0 174.4681179150939,-36.9698316603899,0 174.4683754909784,-36.96968179196119,0 174.4685563724488,-36.96964717470109,0 174.4688785728067,-36.96964214555919,0 174.46901938878,-36.96962404064834,0 174.4691601209342,-36.96963703259826,0 174.4697871711105,-36.96962429210544,0 174.470073916018,-36.96964248083532,0 174.4704329129308,-36.96961364708841,0 174.4715026114136,-36.96961456909776,0 174.4716795533895,-36.96962781250477,0 174.4719490315765,-36.96960090659559,0 174.4721146579832,-36.96961054578424,0 174.472264777869,-36.96959797292948,0 174.4725933484733,-36.96966972202063,0 174.4727355055511,-36.96974029764533,0 174.4729099329561,-36.96979528293014,0 174.4733962509781,-36.96987876668572,0 174.4738877657801,-36.96986912749708,0 174.4742220360786,-36.96991212666035,0 174.4744351040572,-36.96988999843597,0 174.4746755808592,-36.9697626773268,0 174.4750448036939,-36.96950887329876,0 174.4754884578288,-36.96915591135621,0 174.4758196268231,-36.96895751170814,0 174.4764112215489,-36.96853053756058,0 174.4767789356411,-36.96819727309048,0 174.4767889101058,-36.96821730583906,0 174.4767705537379,-36.96821303106844,0 174.476789329201,-36.96822174824774,0 174.4767646025866,-36.96822451427579,0 174.476765524596,-36.96823557838798,0 
		</coordinates>
	</LineString>
	<atom:link rel="app" href="https://www.google.com/earth/about/versions/#earth-pro" title="Google Earth Pro 7.3.7.1155"></atom:link>
</Placemark>
</kml>
