<?xml version="1.0" encoding="UTF-8"?>
<kml xmlns="http://www.opengis.net/kml/2.2" xmlns:gx="http://www.google.com/kml/ext/2.2" xmlns:kml="http://www.opengis.net/kml/2.2" xmlns:atom="http://www.w3.org/2005/Atom">
<Placemark>
	<name>Track</name>
	<Style>
		<LineStyle>
			<color>ff0000ff</color>
			<width>3</width>
		</LineStyle>
	</Style>
	<LineString>
		<tessellate>1</tessellate>
		<coordinates>
			121.5650835167617,25.03321976400912,0 121.5653190482408,25.0332897529006,0 121.565335392952,25.03320735879242,0 121.5654616244137,25.03311951644719,0 121.5654454473406,25.03281877376139,0 121.5655265003443,25.0326594337821,0 121.5653994306922,25.03273721784353,0 121.5653801523149,25.03286831080914,0 121.5656249877065,25.03276563249528,0 121.5656751114875,25.03316503018141,0 121.565872002393,25.03332663327456,0 121.5660139918327,25.03329578787088,0 121.5660996548831,25.03334457054734,0 121.5664028283209,25.03375679254532,0 121.5663204342127,25.0332606676966,0 121.566485222429,25.03294332884252,0 121.5666387788951,25.03234435804188,0 121.5665137208998,25.03213925287127,0 121.5665460750461,25.03195007331669,0 121.566403079778,25.03184647299349,0 121.5665175765753,25.03177790902555,0 121.5664471685886,25.03176424652338,0 121.5664284769446,25.03167665563524,0 121.5665067639202,25.03136551938951,0 121.5664497669786,25.03062346950173,0 121.5663732402027,25.03060528077185,0 121.5664184186608,25.03015844151378,0 121.5663665346801,25.03008275292814,0 121.5663426462561,25.0296478997916,0 121.5664552152157,25.02943550236523,0 121.5664250403643,25.02927180379629,0 121.5668216720223,25.02870845608413,0 121.5685713104904,25.02859664149582,0 121.5690066665411,25.02870728261769,0 121.5692581236362,25.0284803006798,0 121.5692349895835,25.02833143807948,0 121.5691757295281,25.02850226126611,0 121.569270612672,25.02845054492354,0 121.5694198105484,25.02854014746845,0 121.5692069102079,25.02869227901101,0 121.5691315568984,25.02854702062905,0 121.5691396035254,25.02858767285943,0 121.5694843512028,25.02856068313122,0 121.5692708641291,25.0286565721035,0 121.5698232315481,25.02861885353923,0 121.5698352176696,25.02873050048947,0 121.56992867589,25.02855682745576,0 121.5700487047434,25.02852849662304,0 121.5700901951641,25.02845255658031,0 121.5702369622886,25.02853469923139,0 121.570753203705,25.02824594266713,0 121.5711303893477,25.02812532708049,0 121.5711326524615,25.0280349701643,0 121.5709973685443,25.02799247391522,0 121.5709773357958,25.02790672704577,0 121.5709122922271,25.02797621302307,0 121.5709795989096,25.02790873870254,0 121.5708183310926,25.02780321054161,0 121.570750689134,25.02758301794529,0 121.5707714762539,25.02741881646216,0 121.5709444787353,25.02756147645414,0 121.571025531739,25.0275687687099,0 121.5710038226098,25.02751604653895,0 121.5711806807667,25.02756273373961,0 121.5712795872241,25.02772341482341,0 121.5722372196615,25.02720641903579,0 121.572605939582,25.0271768309176,0 121.572722364217,25.02704515121877,0 121.5729188360274,25.02707683481276,0 121.5732194110751,25.02723609097302,0 121.5733479056507,25.02716568298638,0 121.5737913083285,25.02719300799072,0 121.574165308848,25.02704104408622,0 121.5741249080747,25.02702637575567,0 121.5741865988821,25.02697641961277,0 121.5741225611418,25.02699469216168,0 121.5743337851018,25.02687960863113,0 121.5750809479505,25.02663552761078,0 121.5752687025815,25.02665933221579,0 121.5753992088139,25.02649613656104,0 121.5755727980286,25.02660367637873,0 121.5758448746055,25.02664131112397,0 121.5759078226984,25.02682655118406,0 121.5759073197842,25.02671448513865,0 121.5758315473795,25.02666109241545,0 121.5756951738149,25.02664692699909,0 121.5756378415972,25.02673217095435,0 121.5755889751017,25.02671247348189,0 121.5756704472005,25.02666771411896,0 121.5758522506803,25.02672580070794,0 121.5758898854256,25.02680534496903,0 121.5759250055999,25.026760334149,0 121.5759112592787,25.026815822348,0 121.5758677572012,25.02670576795936,0 121.5758783183992,25.0267952028662,0 121.5759265143424,25.02676410600543,0 121.5758365765214,25.0267637707293,0 121.5759010333568,25.02678925171494,0 121.5759327169508,25.02671842463315,0 121.5758516639471,25.02676494419575,0 121.5759277716279,25.02677324227989,0 121.5758500713855,25.02676167525351,0 121.5759195573628,25.0267812050879,0 121.5759032126516,25.02662287093699,0 121.5756283700466,25.02655070275068,0 121.5754557028413,25.02667316235602,0 121.5751684550196,25.02664390951395,0 121.5751251205802,25.02673502080142,0 121.5747657045722,25.02676351927221,0 121.5745968930423,25.02683660946786,0 121.574590858072,25.02691548317671,0 121.5744757745415,25.02695697359741,0 121.5745293349028,25.02701967023313,0 121.5744697395712,25.02704976126552,0 121.5744362119585,25.02686527557671,0 121.5743789635599,25.02700667828321,0 121.5742461103946,25.02699620090425,0 121.5741511434317,25.02713768742979,0 121.5739578567445,25.02723114565015,0 121.5736348181963,25.02717825584114,0 121.5732205845416,25.02724262885749,0 121.5731832850724,25.02729535102844,0 121.5731748193502,25.02722603268921,0 121.5731908287853,25.02728738822043,0 121.5733445528895,25.02728068269789,0 121.5731987077743,25.02728738822043,0 121.5732753183693,25.02722972072661,0 121.5731985401362,25.02728814259171,0 121.5733603946865,25.02746919170022,0 121.5734585467726,25.02795207314193,0 121.573248161003,25.02842917107046,0 121.5730837080628,25.02850578166544,0 121.5728191751987,25.02898438833654,0 121.5727506112307,25.02894826233387,0 121.5726947877556,25.02899453043938,0 121.5727287344635,25.028943317011,0 121.5727866534144,25.02894775941968,0 121.5726909320801,25.02900769002736,0 121.5727740805596,25.02897055819631,0 121.5727341827005,25.02899796701968,0 121.5727416425943,25.02893853932619,0 121.5726983081549,25.02900190651417,0 121.5727563947439,25.02898002974689,0 121.5727088693529,25.02893376164138,0 121.5727107971907,25.02897743135691,0 121.57271951437,25.02887341193855,0 121.5727350208908,25.02896770834923,0 121.5728995576501,25.02899997867644,0 121.5726867411286,25.02894180826843,0 121.5727676264942,25.02893602475524,0 121.5729051735252,25.02873863093555,0 121.5728877391666,25.02864701673388,0 121.5733510069549,25.02815432846546,0 121.5734706167132,25.02756306901574,0 121.5731707960367,25.0272614043206,0 121.5731393638998,25.02715428359807,0 121.5729295648634,25.0270420499146,0 121.5723253134638,25.02717758528888,0 121.5722680650651,25.02727632410824,0 121.5721705835313,25.02725092694163,0 121.5721942204982,25.02720910124481,0 121.5721798036247,25.02726601436734,0 121.5714538469911,25.02756466157734,0 121.5707372780889,25.02742015756667,0 121.5708065964282,25.02765811979771,0 121.5709041617811,25.02774680033326,0 121.5709196683019,25.02798543311656,0 121.5707915090024,25.02808878198266,0 121.5708096139133,25.02818400040269,0 121.5704812947661,25.0282487925142,0 121.5704246331006,25.02835666760802,0 121.5702096372843,25.02847820520401,0 121.5699534863234,25.02845314331353,0 121.5698957350105,25.02851433120668,0 121.5697927214205,25.02847208641469,0 121.5698399115354,25.02826907671988,0 121.5697267558426,25.02873418852687,0 121.5694749634713,25.02878825180233,0 121.5691634081304,25.02865104004741,0 121.5690218377858,25.02868657931685,0 121.5690457262099,25.02856546081603,0 121.5687669441104,25.02874935977161,0 121.5687127970159,25.0286808796227,0 121.5685207676142,25.02866076305509,0 121.5685616713017,25.02877970226109,0 121.5686091966927,25.02875606529415,0 121.5685499366373,25.02878691069782,0 121.5684054326266,25.02859798260033,0 121.5683859866112,25.02870074473321,0 121.568329911679,25.02858901396394,0 121.5685014054179,25.02862581051886,0 121.5683703124523,25.02861642278731,0 121.5684444922954,25.02858549356461,0 121.568377353251,25.02856956794858,0 121.5682207792997,25.02862480469048,0 121.568152885884,25.02873100340366,0 121.5681020915508,25.02861248329282,0 121.5681576635689,25.0286201108247,0 121.5679952222854,25.0287083722651,0 121.5678005106747,25.02865506336093,0 121.5676544979215,25.02876427955925,0 121.5673796553165,25.02855431288481,0 121.5671017952263,25.02847736701369,0 121.5670036431402,25.02862472087145,0 121.5668848715723,25.0286066159606,0 121.5665878169239,25.0287324283272,0 121.5664563048631,25.02892152406275,0 121.5664843004197,25.02911740913987,0 121.5664429776371,25.02918974496424,0 121.566397966817,25.02912847325206,0 121.5663546323776,25.02916317433119,0 121.5664211846888,25.02914473414421,0 121.5663905907422,25.02909016795456,0 121.5663840528578,25.02915537916124,0 121.566556552425,25.0291764177382,0 121.5663340967149,25.02927649766207,0 121.5662838891149,25.02940482459962,0 121.566363684833,25.02963021397591,0 121.5662237070501,25.0300654862076,0 121.5662874933332,25.03006246872246,0 121.5662675444037,25.03002282232046,0 121.566310795024,25.03010303713381,0 121.5662864036858,25.02999356947839,0 121.5664871502668,25.03065498545766,0 121.5663756709546,25.0309119746089,0 121.5664447378367,25.03126937896013,0 121.5665537025779,25.03118698485196,0 121.5666091069579,25.03120969980955,0 121.5662984736264,25.03152192570269,0 121.5661922749132,25.03183155320585,0 121.5662931092083,25.03178469836712,0 121.5662936121225,25.03187044523656,0 121.5663984697312,25.03194177523255,0 121.5664060972631,25.03213179297745,0 121.5664751641452,25.03213824704289,0 121.5665813628584,25.03232214599848,0 121.5665778424591,25.03228166140616,0 121.5665034111589,25.03221879713237,0 121.566294785589,25.03230907022953,0 121.5664033312351,25.03262917511165,0 121.5663537941873,25.032730512321,0 121.5664194244891,25.03315052948892,0 121.566477259621,25.03309881314635,0 121.5664567239583,25.0330550596118,0 121.566300233826,25.03313711844385,0 121.5665095299482,25.03325865603983,0 121.5663656964898,25.03304022364318,0 121.5664421394467,25.03316989168525,0 121.5663567278534,25.0332551356405,0 121.566527299583,25.03305346705019,0 121.5665547922254,25.03309621475637,0 121.5664699673653,25.03320610150695,0 121.5663657803088,25.03317492082715,0 121.5663535427302,25.033113732934,0 121.5663347672671,25.0331565644592,0 121.5664118807763,25.03318623639643,0 121.5663124714047,25.03319964744151,0 121.5663540456444,25.03309805877507,0 121.5662838052958,25.03318422473967,0 121.5664172451943,25.03313728608191,0 121.5663055982441,25.03316603600979,0 121.5662994794548,25.03310652449727,0 121.5663522016257,25.03313921391964,0 121.5662996470928,25.03316326998174,0 121.566353039816,25.03306570462883,0 121.5664366912097,25.03314231522381,0 121.5661856532097,25.03314943984151,0 121.5662005729973,25.03308992832899,0 121.5660770237446,25.0330360326916,0 121.5660719107836,25.03315983340144,0 121.5657964814454,25.03301348537207,0 121.565848197788,25.03299848176539,0 121.5657827351242,25.03296285867691,0 121.5657685697079,25.03284559585154,0 121.5655974950641,25.03283428028226,0 121.5654752030969,25.03320727497339,0 121.5654902067035,25.03335052169859,0 121.565517950803,25.03309453837574,0 121.5653378237039,25.03329981118441,0 121.5653379913419,25.03354313783348,0 121.565192649141,25.03372527658939,0 121.5651988517493,25.03385880030692,0 121.5654104109854,25.03409860655665,0 121.565335476771,25.03419357351959,0 121.5653860196471,25.03426247276366,0 121.5650002006441,25.03426481969655,0 121.5650676749647,25.03454175777733,0 121.5651986002922,25.03474962897599,0 121.5651783160865,25.03461652435362,0 121.5652209799737,25.03465935587883,0 121.5651488956064,25.03464376553893,0 121.5651867818087,25.03478843718767,0 121.5650810021907,25.03461459651589,0 121.5649510826916,25.03455718047917,0 121.5650583710521,25.03462071530521,0 121.5650414396077,25.03455692902207,0 121.5651200618595,25.03459992818534,0 121.5649747196585,25.0345710106194,0 121.5653844270855,25.03459984436631,0 121.5653650648892,25.03449163399637,0 121.5654699224979,25.03447730094194,0 121.5655085630715,25.03440571948886,0 121.5656495466828,25.03441024571657,0 121.5655949804932,25.03432902507484,0 121.565708052367,25.03451501950622,0 121.5658241417259,25.03455072641373,0 121.5658504609019,25.03466547466815,0 121.5656354650855,25.03476052545011,0 121.5657198708504,25.03487091511488,0 121.5658283326775,25.03483395092189,0 121.5658704936504,25.03495808690786,0 121.5658458508551,25.03477938473225,0 121.5659326035529,25.03470143303275,0 121.5660029277205,25.03476094454527,0 121.566086160019,25.0347332842648,0 121.5661360323429,25.03458894789219,0 121.5663810353726,25.03440437838435,0 121.56627911143,25.03429398871958,0 121.5664095338434,25.03389207646251,0 121.5663037542254,25.03404814749956,0 121.5662811230868,25.03391931764781,0 121.566313309595,25.03401277586818,0 121.5663961227983,25.03388486802578,0 121.5663999784738,25.03397229127586,0 121.5665350947529,25.03386039286852,0 121.5661299973726,25.03432273864746,0 121.5659792907536,25.03439834341407,0 121.5659585036337,25.03452717326581,0 121.566072916612,25.03433539532125,0 121.5660377126187,25.03415468148887,0 121.5661251358688,25.03416951745749,0 121.5663299895823,25.03400590270758,0 121.5662477631122,25.03401453606784,0 121.5666128788143,25.03445701673627,0 121.5665122121572,25.03514735028148,0 121.565710650757,25.0348802190274,0 121.565990941599,25.03465692512691,0 121.5661936160177,25.03416012972593,0 121.5664779301733,25.03380163572729,0 121.566638443619,25.03346845507622,0 121.5664459113032,25.03378009423614,0 
		</coordinates>
	</LineString>
	<atom:link rel="app" href="https://www.google.com/earth/about/versions/#earth-pro" title="Google Earth Pro 7.3.7.1155"></atom:link>
</Placemark>
</kml>
