<?xml version="1.0" encoding="UTF-8"?>
<kml xmlns="http://www.opengis.net/kml/2.2" xmlns:gx="http://www.google.com/kml/ext/2.2" xmlns:kml="http://www.opengis.net/kml/2.2" xmlns:atom="http://www.w3.org/2005/Atom">
<Placemark>
	<name>Track</name>
	<Style>
		<LineStyle>
			<color>ff0000ff</color>
			<width>3</width>
		</LineStyle>
	</Style>
	<LineString>
		<tessellate>1</tessellate>
		<coordinates>
			170.9074588771909,-43.54740838520229,0 170.9073362499475,-43.54750159196556,0 170.9073045663536,-43.54750812985003,0 170.9071370121092,-43.54751776903868,0 170.9069028217345,-43.54747820645571,0 170.9067635983229,-43.54745012708008,0 170.9062158409506,-43.54728735052049,0 170.9060010965914,-43.54719364084303,0 170.9059439320117,-43.54713479988277,0 170.9061324410141,-43.54727234691381,0 170.9062493685633,-43.5473264940083,0 170.9066868200898,-43.547457838431,0 170.906634349376,-43.54750259779394,0 170.9064855705947,-43.54753444902599,0 170.9061215445399,-43.54768414981663,0 170.9058090671897,-43.54778330773115,0 170.9056608751416,-43.54785396717489,0 170.9055610466748,-43.54788581840694,0 170.9054565243423,-43.5478669591248,0 170.9051639959216,-43.54791146703064,0 170.9050287120044,-43.54799335822463,0 170.9047697950155,-43.54796745814383,0 170.9046307392418,-43.54799889028072,0 170.904443655163,-43.548015486449,0 170.904012741521,-43.5479930229485,0 170.9037964046001,-43.54801171459258,0 170.9036230668426,-43.54800752364099,0 170.9035321231931,-43.54802437126637,0 170.9034807421267,-43.54800844565034,0 170.9033658262342,-43.5479050129652,0 170.9032697696239,-43.54784407652915,0 170.902992496267,-43.54757258668542,0 170.9027175698429,-43.54736169800162,0 170.9026115387678,-43.54729020036757,0 170.9022615943104,-43.54712247848511,0 170.9021746739745,-43.54704578407109,0 170.9021380450577,-43.54697185568511,0 170.9020446706563,-43.54685937054455,0 170.9019316826016,-43.54676222428679,0 170.9018181916326,-43.546686116606,0 170.9015478752553,-43.54658335447311,0 170.9013842605054,-43.54650322347879,0 170.9012416005135,-43.54642451740801,0 170.9011523332447,-43.54633407667279,0 170.9010327234864,-43.5462868027389,0 170.9008559491485,-43.54626635089517,0 170.9005943499506,-43.5461956076324,0 170.9004500135779,-43.54617599397898,0 170.9000560641289,-43.5460555460304,0 170.8998464327306,-43.54603006504476,0 170.8997071254998,-43.54598362930119,0 170.8995685726404,-43.54599720798433,0 170.8994725160301,-43.54603241197765,0 170.8994633797556,-43.54601464234293,0 170.8994103223085,-43.54605663567781,0 170.8992964960635,-43.54610977694392,0 170.8989769779146,-43.54610525071621,0 170.8988147042692,-43.54608538560569,0 170.8986731339246,-43.54605386964977,0 170.8985056634992,-43.54597776196897,0 170.8983683679253,-43.54589126072824,0 170.8981941919774,-43.54582143947482,0 170.8980313315988,-43.54583610780537,0 170.897471755743,-43.54597507975996,0 170.897474437952,-43.54604079388082,0 170.8974385634065,-43.54608521796763,0 170.8971187099814,-43.54617532342672,0 170.8968609664589,-43.54638621211052,0 170.8966649975628,-43.54650590568781,0 170.8964327350259,-43.54674462229013,0 170.8964276220649,-43.54677035473287,0 170.896517727524,-43.5469501465559,0 170.8965577930212,-43.54709104634821,0 170.8965576253831,-43.54714745655656,0 170.8965079206973,-43.54721392504871,0 170.8964770752937,-43.54723823256791,0 170.8963968604803,-43.54724636301398,0 170.8961495105177,-43.54722825810313,0 170.8960167411715,-43.54726580902934,0 170.8957528788596,-43.54743604548275,0 170.8956821355969,-43.5475233849138,0 170.8956521283835,-43.54770518839359,0 170.8955578319728,-43.54788389056921,0 170.895534362644,-43.54796536266804,0 170.8953919541091,-43.54819779284298,0 170.8954905252904,-43.54839837178588,0 170.8953340351582,-43.5485630761832,0 170.8952757809311,-43.54866181500256,0 170.895275361836,-43.54869618080556,0 170.8952156826854,-43.5488429479301,0 170.8951653912663,-43.54889248497784,0 170.8950687479228,-43.54904218576849,0 170.8950511459261,-43.54912483133376,0 170.8949922211468,-43.54925609193742,0 170.8949438575655,-43.54932088404894,0 170.8948902133852,-43.54944242164493,0 170.8948928117752,-43.54946807026863,0 170.8948325458914,-43.54953931644559,0 170.8948064781725,-43.54962598532438,0 170.8947080746293,-43.5496802162379,0 170.8945000357926,-43.54967527091503,0 170.8944676816463,-43.54961441829801,0 170.8943649195135,-43.54956354014575,0 170.8942034002393,-43.54941794648767,0 170.8940948545933,-43.54928199201822,0 170.8938396256417,-43.54908401146531,0 170.8934948779643,-43.54898644611239,0 170.8933129068464,-43.54895618744195,0 170.8932162635028,-43.54891302064061,0 170.8931007608771,-43.54876600205898,0 170.8931064605713,-43.54852477088571,0 170.8931337855756,-43.54844992049038,0 170.8931146748364,-43.54840172454715,0 170.8930359687656,-43.54829929769039,0 170.8928928058594,-43.54816443286836,0 170.8928785566241,-43.54811850003898,0 170.8928894530982,-43.54803543537855,0 170.8929057139903,-43.54801749810576,0 170.8928840048611,-43.54797407984734,0 170.8928606193513,-43.54796611703932,0 170.8928374852985,-43.54798631742597,0 170.8927820809186,-43.54797827079892,0 170.8927891217172,-43.54795136488974,0 170.8927949052304,-43.54796284809709,0 170.8930142596364,-43.54788959026337,0 170.8928262535483,-43.54796301573515,0 170.8928384911269,-43.54799914173782,0 170.8928922191262,-43.54803015477955,0 170.8928498905152,-43.54802110232413,0 170.8928454481065,-43.54803459718823,0 170.8928461186588,-43.54800408706069,0 170.8928618766367,-43.54799679480493,0 170.8929482102394,-43.54803090915084,0 170.893005374819,-43.54807231575251,0 170.8930412493646,-43.54807105846703,0 170.8930409140885,-43.54809880256653,0 170.89301048778,-43.54811296798289,0 170.8930453564972,-43.54821279644966,0 170.8930137567222,-43.54824104346335,0 170.8929670695215,-43.54822369292378,0 170.892976205796,-43.5482554603368,0 170.8929425943643,-43.54826644062996,0 170.893042339012,-43.54832662269473,0 170.8930533193052,-43.54835109785199,0 170.893031610176,-43.54836492799222,0 170.8930266648531,-43.54835294187069,0 170.8930552471429,-43.54834917001426,0 170.8933015912771,-43.54846014641225,0 170.893362108618,-43.54857296682894,0 170.8935167547315,-43.5486806742847,0 170.8935428224504,-43.54877262376249,0 170.8935904316604,-43.54881369508803,0 170.8935009129345,-43.54884579777718,0 170.8935769367963,-43.54890547692776,0 170.8936563972384,-43.54901544749737,0 170.8937297388911,-43.5490604583174,0 170.8937912620604,-43.54906666092575,0 170.8939614985138,-43.54920831508934,0 170.8941071759909,-43.54937955737114,0 170.8943659253418,-43.54958843439817,0 170.894384784624,-43.54961668141186,0 170.89435829781,-43.5496387258172,0 170.8943831920624,-43.54962372221053,0 170.8944329805672,-43.54962992481887,0 170.8945359103382,-43.54967761784792,0 170.8945954218507,-43.54972078464925,0 170.8947642333806,-43.54989839717746,0 170.8949163649231,-43.54998816736042,0 170.8952073846012,-43.55020014569163,0 170.8953280001879,-43.55026552453637,0 170.8954243920743,-43.55034909211099,0 170.8954750187695,-43.55042209848762,0 170.8955118991435,-43.55040986090899,0 170.8955193590373,-43.55048127472401,0 170.895479042083,-43.55060557834804,0 170.8954987395555,-43.55064539238811,0 170.8956069499254,-43.55072828941047,0 170.8955645374954,-43.55053626000881,0 170.8955310937017,-43.55047565884888,0 170.8955850731581,-43.55040214955807,0 170.895624300465,-43.55038714595139,0 170.8956013340503,-43.55037750676274,0 170.8956237975508,-43.55032277293503,0 170.8956173434854,-43.55027968995273,0 170.8955725003034,-43.55021028779447,0 170.895470995456,-43.55017751455307,0 170.8954398147762,-43.55007391422987,0 170.8953377231956,-43.54998548515141,0 170.8953109011054,-43.54982547461987,0 170.8953191153705,-43.54980544187129,0 170.8951630443335,-43.5496680624783,0 170.8951753657311,-43.54967007413507,0 170.8951387368143,-43.54959740303457,0 170.8950364775956,-43.54952758178115,0 170.8949949871749,-43.54947293177247,0 170.8949700929224,-43.54932188987732,0 170.8949778880924,-43.54926749132574,0 170.8950133435428,-43.54920538142323,0 170.8949975017458,-43.54914788156748,0 170.8950478769839,-43.5490432754159,0 170.8949850965291,-43.54899155907333,0 170.8948762156069,-43.54896490462124,0 170.8947155345231,-43.54889541864395,0 170.8946478087455,-43.54877782054245,0 170.8945955056697,-43.5487324744463,0 170.8946789894253,-43.54872090741992,0 170.8948792330921,-43.54880849830806,0 170.8950664848089,-43.54882283136249,0 170.8950962405652,-43.54879382997751,0 170.8951049577445,-43.54873817414045,0 170.8953026868403,-43.54862795211375,0 170.8953300956637,-43.54858696460724,0 170.8952604420483,-43.54860733263195,0 170.8953538164496,-43.54849560186267,0 170.8954857476056,-43.54840884916484,0 170.8954673912376,-43.54834682308137,0 170.8954014256597,-43.54824624024332,0 170.8954043593258,-43.54813132435083,0 170.8954540640116,-43.54806083254516,0 170.8954880107194,-43.54805387556553,0 170.8954773657024,-43.54805605486035,0 170.8955499529839,-43.54794876649976,0 170.8955761883408,-43.54779864661396,0 170.8956308383495,-43.54767845012248,0 170.8956185169518,-43.54762212373316,0 170.8956200256944,-43.54764224030077,0 170.8956621866673,-43.54750385507941,0 170.8957101311535,-43.54741048067808,0 170.895804176107,-43.54737502522767,0 170.8958280645311,-43.54732657782733,0 170.8958598319441,-43.54733269661665,0 170.8959611691535,-43.54727184399962,0 170.8961191680282,-43.5472091473639,0 170.896314214915,-43.5472419206053,0 170.8965171407908,-43.54722557589412,0 170.8965463936329,-43.54712331667542,0 170.8965431246907,-43.54706682264805,0 170.8965168055147,-43.54702541604638,0 170.8965311385691,-43.54702038690448,0 170.8965312223881,-43.54696489870548,0 170.8964976947755,-43.54693195782602,0 170.8964903187007,-43.5468774754554,0 170.8965064957738,-43.54688476771116,0 170.896459473297,-43.54685325175524,0 170.8963927533478,-43.54675057344139,0 170.8964061643928,-43.54672123678029,0 170.8964375965297,-43.54673473164439,0 170.8965443819761,-43.54659114964306,0 170.8966639917344,-43.54646894149482,0 170.8966501615942,-43.54646064341068,0 170.896689388901,-43.54645418934524,0 170.8968359883875,-43.54636911302805,0 170.8970876969397,-43.54617213830352,0 170.8971409220248,-43.54614020325243,0 170.8972923830152,-43.54609334841371,0 170.8973635453731,-43.54611027985811,0 170.8973778784275,-43.54613584466279,0 170.8973583485931,-43.54610684327781,0 170.8974590990692,-43.5460454877466,0 170.8974692411721,-43.54605722241104,0 170.8974806405604,-43.54594951495528,0 170.8975051995367,-43.54594012722373,0 170.8976251445711,-43.54592403396964,0 170.8976122364402,-43.54591397568583,0 170.8980913460255,-43.54579520411789,0 170.8982492610812,-43.54583811946213,0 170.8983019832522,-43.5458744969219,0 170.8982930146158,-43.54589754715562,0 170.8983659371734,-43.54595370590687,0 170.8983731456101,-43.54593216441572,0 170.8983507659286,-43.54592747054994,0 170.8983599860221,-43.54595337063074,0 170.8983452338725,-43.5459453240037,0 170.8984652627259,-43.54595638811588,0 170.8985255286098,-43.54597591795027,0 170.8985785022378,-43.54601782746613,0 170.898919980973,-43.54609678499401,0 170.8991363178939,-43.54609510861337,0 170.8993161935359,-43.54607038199902,0 170.8993849251419,-43.5460505168885,0 170.8994446042925,-43.54601154103875,0 170.8994219731539,-43.54601321741939,0 170.8994651399553,-43.5460193362087,0 170.8995499648154,-43.54597340337932,0 170.899649290368,-43.54596694931388,0 170.900236191228,-43.54613802395761,0 170.9003433119506,-43.54615336284041,0 170.9008256904781,-43.54633717797697,0 170.9010947495699,-43.54639627039433,0 170.9014839213341,-43.54657371528447,0 170.9016376454383,-43.5466842725873,0 170.9016504697502,-43.5466996114701,0 170.901626329869,-43.54672819375992,0 170.90163144283,-43.54671453125775,0 170.9016709215939,-43.54671067558229,0 170.9017786290497,-43.54677379131317,0 170.9019141644239,-43.54682123288512,0 170.9019681438804,-43.54688870720565,0 170.9019584208727,-43.54688476771116,0 170.9019799623638,-43.54689314961433,0 170.902004186064,-43.54694930836558,0 170.9020311757922,-43.5469604562968,0 170.9020499512553,-43.5470106638968,0 170.9022540505975,-43.54713278822601,0 170.9025183320045,-43.54724996723235,0 170.9027509298176,-43.54738835245371,0 170.9028052445501,-43.54738139547408,0 170.9028205834329,-43.54739606380463,0 170.9028259478509,-43.54745389893651,0 170.9028665162623,-43.54748541489244,0 170.902860397473,-43.54751131497324,0 170.9028713777661,-43.54750083759427,0 170.9029401931912,-43.54751802049577,0 170.902979336679,-43.54759320616722,0 170.9031400177628,-43.54774315841496,0 170.9034945722669,-43.54798288084567,0 170.9035664889961,-43.54800341650844,0 170.9037759527564,-43.54797642678022,0 170.9042154997587,-43.54797315783799,0 170.9043130651116,-43.54799528606236,0 170.9044652804732,-43.54800182394683,0 170.9048645943403,-43.54794683866203,0 170.9050550311804,-43.54797894135118,0 170.9051373414695,-43.54792638681829,0 170.9052833542228,-43.54787986725569,0 170.9054079931229,-43.54787634685636,0 170.9053940791637,-43.54788246564567,0 170.9054836817086,-43.54786016978323,0 170.9056218992919,-43.54786897078156,0 170.9058164432645,-43.54776964522898,0 170.9066574834287,-43.54747518897057,0 170.90680106543,-43.54746362194419,0 170.9069130476564,-43.54749077931046,0 170.9072433784604,-43.54751265607774,0 170.9073502477258,-43.54747778736055,0 170.9074464719743,-43.54737075045705,0 170.9075036365539,-43.54735750705004,0 170.9075490664691,-43.54738156311214,0 170.9075973462313,-43.54738365858793,0 170.9076951630414,-43.54729246348143,0 170.9076828416437,-43.54728047735989,0 170.9077193867415,-43.54727829806507,0 
		</coordinates>
	</LineString>
	<atom:link rel="app" href="https://www.google.com/earth/about/versions/#earth-pro" title="Google Earth Pro 7.3.7.1155"></atom:link>
</Placemark>
</kml>
