<?xml version="1.0" encoding="UTF-8"?>
<kml xmlns="http://www.opengis.net/kml/2.2" xmlns:gx="http://www.google.com/kml/ext/2.2" xmlns:kml="http://www.opengis.net/kml/2.2" xmlns:atom="http://www.w3.org/2005/Atom">
<Placemark>
	<name>Track</name>
	<Style>
		<LineStyle>
			<color>ff0000ff</color>
			<width>3</width>
		</LineStyle>
	</Style>
	<LineString>
		<tessellate>1</tessellate>
		<coordinates>
			120.8511398267001,21.90435077995062,0 120.8512287586927,21.9041514582932,0 120.8513784594834,21.9040684774518,0 120.8513364661485,21.90407124347985,0 120.8511121664196,21.90387695096433,0 120.8510373998433,21.90384954214096,0 120.8510542474687,21.90376061014831,0 120.8510702569038,21.90377477556467,0 120.8510463684797,21.90375641919672,0 120.851081404835,21.90375851467252,0 120.8511848375201,21.90365692600608,0 120.8513138350099,21.90347151830792,0 120.8513486199081,21.90353907644749,0 120.8513285871595,21.90344545058906,0 120.8514648769051,21.90327839925885,0 120.8516759332269,21.90309768542647,0 120.8516531344503,21.90304202958941,0 120.8518376201391,21.90294773317873,0 120.8519349340349,21.90276643261313,0 120.8518268913031,21.90244498662651,0 120.8518585748971,21.90238832496107,0 120.8518289029598,21.90238388255239,0 120.8518248796463,21.90224968828261,0 120.851723542437,21.90206168219447,0 120.8515064511448,21.90207031555474,0 120.8514214586467,21.90215941518545,0 120.851462110877,21.90211423672736,0 120.8515837322921,21.9020913541317,0 120.8515787869692,21.90206805244088,0 120.8517872449011,21.90204793587327,0 120.8518263045698,21.90200476907194,0 120.8518099598587,21.90198632888496,0 120.8519311621785,21.90193352289498,0 120.8525580447167,21.90180209465325,0 120.8526186458766,21.90180167555809,0 120.8526745531708,21.90196084789932,0 120.8526277821511,21.90215463750064,0 120.8526481501758,21.9021947029978,0 120.8525789994746,21.90216360613704,0 120.8525495789945,21.9021825492382,0 120.8524950128049,21.90212488174438,0 120.852529630065,21.90217534080148,0 120.8524764887989,21.90221339464188,0 120.8525123633444,21.9021999835968,0 120.8525515068322,21.9023159891367,0 120.8525991998613,21.90230794250965,0 120.8526163827628,21.90224725753069,0 120.8526637405157,21.90221766941249,0 120.8526889700443,21.90223879180849,0 120.8526525925845,21.90215480513871,0 120.8527007047087,21.90216469578445,0 120.8527157921344,21.90210820175707,0 120.8526680991054,21.90181793645024,0 120.8525448851287,21.90179077908397,0 120.8524871338159,21.90155507996678,0 120.8522873930633,21.90132088959217,0 120.8523084316403,21.90096013247967,0 120.8522507641464,21.90067020244896,0 120.8522796817124,21.90064933151007,0 120.8522899914533,21.90067430958152,0 120.8523196633905,21.90057531930506,0 120.8522978704423,21.90039074979722,0 120.8523194957525,21.90021179616451,0 120.8522790949792,21.90007156692445,0 120.8522195834666,21.90003074705601,0 120.8521990478039,21.89979068934917,0 120.8521036617458,21.89961114898324,0 120.8521164022386,21.89946999773383,0 120.8520148135722,21.899190293625,0 120.851990589872,21.89903179183602,0 120.8519101236016,21.89891838468611,0 120.8519061841071,21.89874756149948,0 120.8518284000456,21.89870623871684,0 120.8518532942981,21.89870615489781,0 120.8518133126199,21.89875544048846,0 120.851821526885,21.89873272553086,0 120.8518318366259,21.89876675605774,0 120.8518548030406,21.89873373135924,0 120.851924624294,21.89873113296926,0 120.8518316689879,21.89847791567445,0 120.8518537972122,21.89826870337129,0 120.8518040925264,21.89833307638764,0 120.8517918549478,21.89829007722437,0 120.8518207725137,21.89830952323973,0 120.8518204372376,21.89845369197428,0 120.8518579043448,21.89851068891585,0 120.8518283162266,21.89855410717428,0 120.85190333426,21.89875242300332,0 120.8518803678453,21.89880212768912,0 120.8519493509084,21.89895308576524,0 120.8519262168556,21.89903598278761,0 120.8519656956196,21.89906883984804,0 120.8519761729985,21.89917436800897,0 120.8520390372723,21.89928467385471,0 120.852143811062,21.89938207156956,0 120.8520894125104,21.8995132483542,0 120.8521159831434,21.89964769408107,0 120.8520845510066,21.89972665160894,0 120.8519182540476,21.89989353530109,0 120.8518330939114,21.9000312499702,0 120.8517634402961,21.90007642842829,0 120.8517839759588,21.90009185113013,0 120.8517569024116,21.90012219361961,0 120.8513939660043,21.9003076851368,0 120.8511948119849,21.90044716000557,0 120.8510398305953,21.90046945586801,0 120.8508386649191,21.90038236789405,0 120.8507624734193,21.90030299127102,0 120.8505394309759,21.90000141039491,0 120.8504888042808,21.89985849894583,0 120.8503695297986,21.89977937377989,0 120.8503365051001,21.8996993266046,0 120.8503183163702,21.89975431188941,0 120.8503973577172,21.89976110123098,0 120.8504668436944,21.89980703406036,0 120.8505679294467,21.89998917281628,0 120.8506087493151,21.90001012757421,0 120.8506281953305,21.90008413977921,0 120.8505988586694,21.90016955137253,0 120.850473549217,21.90037096850574,0 120.8502187393606,21.90049736760557,0 120.8501124568284,21.90047012642026,0 120.8501464873552,21.90040449611843,0 120.8500830363482,21.90048999153078,0 120.8500074315816,21.90048479475081,0 120.8499011490494,21.90054749138653,0 120.8498741593212,21.90060138702393,0 120.849778437987,21.90064321272075,0 120.8496504463255,21.90076097846031,0 120.8495409786701,21.90112299285829,0 120.8494511246681,21.9011330511421,0 120.8492735959589,21.90125274471939,0 120.8493551518768,21.90141753293574,0 120.8494041860104,21.90144695341587,0 120.8493606839329,21.9014573469758,0 120.8495007455349,21.90147344022989,0 120.8493782021105,21.901521300897,0 120.8493510447443,21.90159036777914,0 120.8493766095489,21.90169522538781,0 120.8493247255683,21.90191726200283,0 120.8491860888898,21.90211624838412,0 120.8491213805974,21.90210811793804,0 120.8489586040378,21.90222923643887,0 120.8488884475082,21.90246149897575,0 120.8488418441266,21.90249938517809,0 120.8487193007022,21.9025057554245,0 120.8486968372017,21.90267389640212,0 120.848702955991,21.9026302266866,0 120.8487183786929,21.90264481119812,0 120.8486912213266,21.90261421725154,0 120.8486788161099,21.90266216173768,0 120.8486069831997,21.90270524471998,0 120.848631542176,21.90271882340312,0 120.8486239146441,21.9027803465724,0 120.8485644031316,21.90282619558275,0 120.8485509082675,21.90279560163617,0 120.8486100006849,21.9027562905103,0 120.848573455587,21.90279258415103,0 120.8486592862755,21.90277146175504,0 120.8486629743129,21.90265319310129,0 120.8487547561526,21.90266224555671,0 120.848745033145,21.90255177207291,0 120.8487916365266,21.90250114537776,0 120.8489042054862,21.90247314982116,0 120.8490027766675,21.90218858420849,0 120.8491399046034,21.90212714485824,0 120.8492917846888,21.90221641212702,0 120.8493141643703,21.90217291004956,0 120.8494283258915,21.90213904716074,0 120.8495713211596,21.90216645598412,0 120.8496164157987,21.90209143795073,0 120.8496547210962,21.90208758227527,0 120.8496841415763,21.90211960114539,0 120.8496656175703,21.90213544294238,0 120.8496944513172,21.90213326364756,0 120.8497085329145,21.90209780819714,0 120.8498837146908,21.90201214514673,0 120.8498945273459,21.90190351568162,0 120.8500380255282,21.90194760449231,0 120.8500892389566,21.90189387649298,0 120.8501345012337,21.9019616022706,0 120.8501729741693,21.90194844268262,0 120.8501692861319,21.90198557451367,0 120.8501153066754,21.90198180265725,0 120.8501372672617,21.90199865028262,0 120.8501957729459,21.90194265916944,0 120.8502148836851,21.90203838050365,0 120.8502502553165,21.90206461586058,0 120.8502310607582,21.9020086247474,0 120.8502137102187,21.90202807076275,0 120.8502190746367,21.90206218510866,0 120.850272718817,21.90199697390199,0 120.8503079228103,21.90200661309063,0 120.8503489941359,21.90193276852369,0 120.850357376039,21.90186202526093,0 120.8503125328571,21.90183084458113,0 120.8503895625472,21.90190007910132,0 120.8505181409419,21.9018527213484,0 120.850608497858,21.90169891342521,0 120.8506387565285,21.90154468640685,0 120.8504925761372,21.90145843662322,0 120.8503931667656,21.90135290846229,0 120.8504192344844,21.90129146911204,0 120.8503892272711,21.90119993872941,0 120.8502749819309,21.90118015743792,0 120.8502433821559,21.90111226402223,0 120.8502691984177,21.90106339752674,0 120.8502212539315,21.90109927207232,0 120.8501100260764,21.90106004476547,0 120.8501159772277,21.90110044553876,0 120.8500521909446,21.90108343027532,0 120.8500257041305,21.9012329634279,0 120.8499267976731,21.90119105391204,0 120.8498321659863,21.9012141879648,0 120.849842056632,21.90117730759084,0 120.8497939445078,21.90112567506731,0 120.8499121293426,21.90097706392407,0 120.8499068487436,21.90105778165162,0 120.8498381171376,21.90103364177048,0 120.8498949464411,21.90107102505863,0 120.8498780988157,21.90110949799418,0 120.8497239556164,21.90109298564494,0 120.8497157413512,21.90112525597215,0 120.8496712334454,21.90109382383525,0 120.8496908470988,21.90101184882224,0 120.849786316976,21.90096172504127,0 120.849981950596,21.90102567896247,0 120.8499549608678,21.90111896954477,0 120.8498620055616,21.90119449049234,0 120.8498899172992,21.90120622515678,0 120.8499490097165,21.90122801810503,0 120.8500732295215,21.90111821517348,0 120.8501187432557,21.9011346437037,0 120.8501387760043,21.90109759569168,0 120.8502152189612,21.90120144747198,0 120.8503762353212,21.9011742901057,0 120.8503750618547,21.9012448657304,0 120.8505252655596,21.90124528482556,0 120.8506075758487,21.90136657096446,0 120.8506591245532,21.90134595148265,0 120.8508045505732,21.90140202641487,0 120.8507803268731,21.90137428231537,0 120.8508050534874,21.90132818184793,0 120.8508509024978,21.90137126483023,0 120.850859452039,21.90132214687765,0 120.8512112405151,21.90152021124959,0 120.8510870207101,21.90155331976712,0 120.8511218056083,21.90153580158949,0 120.8511094842106,21.90148827619851,0 120.8510700054467,21.90150110051036,0 120.8510982524604,21.90172556787729,0 120.8510041236877,21.90181944519281,0 120.8510330412537,21.90194659866393,0 120.8511612005532,21.90211826004088,0 120.8510234858841,21.90251220948994,0 120.8512549102306,21.90326415002346,0 120.8512912876904,21.90349590964615,0 120.8512463606894,21.90344410948455,0 120.8512974064797,21.90348166041076,0 120.8510819915682,21.90371216274798,0 120.8510574325919,21.90376396290958,0 120.8510741125792,21.90381048247218,0 120.8510229829699,21.90383403562009,0 120.8510482963175,21.90395381301641,0 120.8511233143508,21.90401215106249,0 120.8510985039175,21.90408356487751,0 120.8511491306126,21.90422153100371,0 120.851218784228,21.90424550324678,0 120.851242588833,21.90430090762675,0 120.851298077032,21.9049337413162,0 120.8512828219682,21.90517824143171,0 120.851345770061,21.90514286980033,0 
		</coordinates>
	</LineString>
	<atom:link rel="app" href="https://www.google.com/earth/about/versions/#earth-pro" title="Google Earth Pro 7.3.7.1155"></atom:link>
</Placemark>
</kml>
